"Longitude (x)","Latitude (y)","Station Name","Climate ID","Date/Time (LST)","Year","Month","Day","Time (LST)","Temp (°C)","Temp Flag","Dew Point Temp (°C)","Dew Point Temp Flag","Rel Hum (%)","Rel Hum Flag","Precip. Amount (mm)","Precip. Amount Flag","Wind Dir (10s deg)","Wind Dir Flag","Wind Spd (km/h)","Wind Spd Flag","Visibility (km)","Visibility Flag","Stn Press (kPa)","Stn Press Flag","Hmdx","Hmdx Flag","Wind Chill","Wind Chill Flag","Weather"
"-73.74","45.47","MONTREAL/PIERRE ELLIOTT TRUDEAU INTL","702S006","2011-11-01 00:00","2011","11","01","00:00","","M","","M","","M","","","15","","6","","","","102.14","","","","","","NA"
"-73.74","45.47","MONTREAL/PIERRE ELLIOTT TRUDEAU INTL","702S006","2011-11-01 01:00","2011","11","01","01:00","","M","","M","","M","","","13","","11","","","","102.18","","","","","","NA"
"-73.74","45.47","MONTREAL/PIERRE ELLIOTT TRUDEAU INTL","702S006","2011-11-01 02:00","2011","11","01","02:00","","M","","M","","M","","","13","","9","","","","102.18","","","","","","NA"
"-73.74","45.47","MONTREAL/PIERRE ELLIOTT TRUDEAU INTL","702S006","2011-11-01 03:00","2011","11","01","03:00","","M","","M","","M","","","12","","6","","","","102.18","","","","","","NA"
"-73.74","45.47","MONTREAL/PIERRE ELLIOTT TRUDEAU INTL","702S006","2011-11-01 04:00","2011","11","01","04:00","","M","","M","","M","","","15","","4","","","","102.20","","","","","","NA"
"-73.74","45.47","MONTREAL/PIERRE ELLIOTT TRUDEAU INTL","702S006","2011-11-01 05:00","2011","11","01","05:00","","M","","M","","M","","","13","","7","","","","102.22","","","","","","NA"
"-73.74","45.47","MONTREAL/PIERRE ELLIOTT TRUDEAU INTL","702S006","2011-11-01 06:00","2011","11","01","06:00","","M","","M","","M","","","12","","6","","","","102.23","","","","","","NA"
"-73.74","45.47","MONTREAL/PIERRE ELLIOTT TRUDEAU INTL","702S006","2011-11-01 07:00","2011","11","01","07:00","","M","","M","","M","","","12","","6","","","","102.25","","","","","","NA"
"-73.74","45.47","MONTREAL/PIERRE ELLIOTT TRUDEAU INTL","702S006","2011-11-01 08:00","2011","11","01","08:00","","M","","M","","M","","","14","","7","","","","102.31","","","","","","NA"
"-73.74","45.47","MONTREAL/PIERRE ELLIOTT TRUDEAU INTL","702S006","2011-11-01 09:00","2011","11","01","09:00","","M","","M","","M","","","17","","7","","","","102.31","","","","","","NA"
"-73.74","45.47","MONTREAL/PIERRE ELLIOTT TRUDEAU INTL","702S006","2011-11-01 10:00","2011","11","01","10:00","","M","","M","","M","","","21","","7","","","","102.32","","","","","","NA"
"-73.74","45.47","MONTREAL/PIERRE ELLIOTT TRUDEAU INTL","702S006","2011-11-01 11:00","2011","11","01","11:00","","M","","M","","M","","","21","","7","","","","102.31","","","","","","NA"
"-73.74","45.47","MONTREAL/PIERRE ELLIOTT TRUDEAU INTL","702S006","2011-11-01 12:00","2011","11","01","12:00","","M","","M","","M","","","19","","11","","","","102.22","","","","","","NA"
"-73.74","45.47","MONTREAL/PIERRE ELLIOTT TRUDEAU INTL","702S006","2011-11-01 13:00","2011","11","01","13:00","","M","","M","","M","","","19","","11","","","","102.19","","","","","","NA"
"-73.74","45.47","MONTREAL/PIERRE ELLIOTT TRUDEAU INTL","702S006","2011-11-01 14:00","2011","11","01","14:00","","M","","M","","M","","","24","","9","","","","102.16","","","","","","NA"
"-73.74","45.47","MONTREAL/PIERRE ELLIOTT TRUDEAU INTL","702S006","2011-11-01 15:00","2011","11","01","15:00","","M","","M","","M","","","23","","7","","","","102.16","","","","","","NA"
"-73.74","45.47","MONTREAL/PIERRE ELLIOTT TRUDEAU INTL","702S006","2011-11-01 16:00","2011","11","01","16:00","","M","","M","","M","","","18","","6","","","","102.14","","","","","","NA"
"-73.74","45.47","MONTREAL/PIERRE ELLIOTT TRUDEAU INTL","702S006","2011-11-01 17:00","2011","11","01","17:00","","M","","M","","M","","","15","","6","","","","102.14","","","","","","NA"
"-73.74","45.47","MONTREAL/PIERRE ELLIOTT TRUDEAU INTL","702S006","2011-11-01 18:00","2011","11","01","18:00","","M","","M","","M","","","14","","11","","","","102.17","","","","","","NA"
"-73.74","45.47","MONTREAL/PIERRE ELLIOTT TRUDEAU INTL","702S006","2011-11-01 19:00","2011","11","01","19:00","","M","","M","","M","","","14","","9","","","","102.17","","","","","","NA"
"-73.74","45.47","MONTREAL/PIERRE ELLIOTT TRUDEAU INTL","702S006","2011-11-01 20:00","2011","11","01","20:00","","M","","M","","M","","","14","","6","","","","102.18","","","","","","NA"
"-73.74","45.47","MONTREAL/PIERRE ELLIOTT TRUDEAU INTL","702S006","2011-11-01 21:00","2011","11","01","21:00","","M","","M","","M","","","14","","6","","","","102.18","","","","","","NA"
"-73.74","45.47","MONTREAL/PIERRE ELLIOTT TRUDEAU INTL","702S006","2011-11-01 22:00","2011","11","01","22:00","","M","","M","","M","","","16","","6","","","","102.15","","","","","","NA"
"-73.74","45.47","MONTREAL/PIERRE ELLIOTT TRUDEAU INTL","702S006","2011-11-01 23:00","2011","11","01","23:00","","M","","M","","M","","","14","","4","","","","102.13","","","","","","NA"
"-73.74","45.47","MONTREAL/PIERRE ELLIOTT TRUDEAU INTL","702S006","2011-11-02 00:00","2011","11","02","00:00","","M","","M","","M","","","21","","7","","","","102.15","","","","","","NA"
"-73.74","45.47","MONTREAL/PIERRE ELLIOTT TRUDEAU INTL","702S006","2011-11-02 01:00","2011","11","02","01:00","","M","","M","","M","","","17","","4","","","","102.15","","","","","","NA"
"-73.74","45.47","MONTREAL/PIERRE ELLIOTT TRUDEAU INTL","702S006","2011-11-02 02:00","2011","11","02","02:00","","M","","M","","M","","","14","","6","","","","102.13","","","","","","NA"
"-73.74","45.47","MONTREAL/PIERRE ELLIOTT TRUDEAU INTL","702S006","2011-11-02 03:00","2011","11","02","03:00","","M","","M","","M","","","13","","2","","","","102.13","","","","","","NA"
"-73.74","45.47","MONTREAL/PIERRE ELLIOTT TRUDEAU INTL","702S006","2011-11-02 04:00","2011","11","02","04:00","","M","","M","","M","","","12","","4","","","","102.16","","","","","","NA"
"-73.74","45.47","MONTREAL/PIERRE ELLIOTT TRUDEAU INTL","702S006","2011-11-02 05:00","2011","11","02","05:00","","M","","M","","M","","","12","","6","","","","102.16","","","","","","NA"
"-73.74","45.47","MONTREAL/PIERRE ELLIOTT TRUDEAU INTL","702S006","2011-11-02 06:00","2011","11","02","06:00","","M","","M","","M","","","13","","7","","","","102.15","","","","","","NA"
"-73.74","45.47","MONTREAL/PIERRE ELLIOTT TRUDEAU INTL","702S006","2011-11-02 07:00","2011","11","02","07:00","","M","","M","","M","","","12","","11","","","","102.17","","","","","","NA"
"-73.74","45.47","MONTREAL/PIERRE ELLIOTT TRUDEAU INTL","702S006","2011-11-02 08:00","2011","11","02","08:00","","M","","M","","M","","","13","","7","","","","102.19","","","","","","NA"
"-73.74","45.47","MONTREAL/PIERRE ELLIOTT TRUDEAU INTL","702S006","2011-11-02 09:00","2011","11","02","09:00","","M","","M","","M","","","15","","7","","","","102.15","","","","","","NA"
"-73.74","45.47","MONTREAL/PIERRE ELLIOTT TRUDEAU INTL","702S006","2011-11-02 10:00","2011","11","02","10:00","","M","","M","","M","","","16","","9","","","","102.07","","","","","","NA"
"-73.74","45.47","MONTREAL/PIERRE ELLIOTT TRUDEAU INTL","702S006","2011-11-02 11:00","2011","11","02","11:00","","M","","M","","M","","","18","","11","","","","101.99","","","","","","NA"
"-73.74","45.47","MONTREAL/PIERRE ELLIOTT TRUDEAU INTL","702S006","2011-11-02 12:00","2011","11","02","12:00","","M","","M","","M","","","18","","11","","","","101.86","","","","","","NA"
"-73.74","45.47","MONTREAL/PIERRE ELLIOTT TRUDEAU INTL","702S006","2011-11-02 13:00","2011","11","02","13:00"
"-73.74","45.47","MONTREAL/PIERRE ELLIOTT TRUDEAU INTL","702S006","2011-11-02 14:00","2011","11","02","14:00"
"-73.74","45.47","MONTREAL/PIERRE ELLIOTT TRUDEAU INTL","702S006","2011-11-02 15:00","2011","11","02","15:00"
"-73.74","45.47","MONTREAL/PIERRE ELLIOTT TRUDEAU INTL","702S006","2011-11-02 16:00","2011","11","02","16:00"
"-73.74","45.47","MONTREAL/PIERRE ELLIOTT TRUDEAU INTL","702S006","2011-11-02 17:00","2011","11","02","17:00"
"-73.74","45.47","MONTREAL/PIERRE ELLIOTT TRUDEAU INTL","702S006","2011-11-02 18:00","2011","11","02","18:00"
"-73.74","45.47","MONTREAL/PIERRE ELLIOTT TRUDEAU INTL","702S006","2011-11-02 19:00","2011","11","02","19:00"
"-73.74","45.47","MONTREAL/PIERRE ELLIOTT TRUDEAU INTL","702S006","2011-11-02 20:00","2011","11","02","20:00"
"-73.74","45.47","MONTREAL/PIERRE ELLIOTT TRUDEAU INTL","702S006","2011-11-02 21:00","2011","11","02","21:00"
"-73.74","45.47","MONTREAL/PIERRE ELLIOTT TRUDEAU INTL","702S006","2011-11-02 22:00","2011","11","02","22:00"
"-73.74","45.47","MONTREAL/PIERRE ELLIOTT TRUDEAU INTL","702S006","2011-11-02 23:00","2011","11","02","23:00"
"-73.74","45.47","MONTREAL/PIERRE ELLIOTT TRUDEAU INTL","702S006","2011-11-03 00:00","2011","11","03","00:00"
"-73.74","45.47","MONTREAL/PIERRE ELLIOTT TRUDEAU INTL","702S006","2011-11-03 01:00","2011","11","03","01:00"
"-73.74","45.47","MONTREAL/PIERRE ELLIOTT TRUDEAU INTL","702S006","2011-11-03 02:00","2011","11","03","02:00"
"-73.74","45.47","MONTREAL/PIERRE ELLIOTT TRUDEAU INTL","702S006","2011-11-03 03:00","2011","11","03","03:00"
"-73.74","45.47","MONTREAL/PIERRE ELLIOTT TRUDEAU INTL","702S006","2011-11-03 04:00","2011","11","03","04:00"
"-73.74","45.47","MONTREAL/PIERRE ELLIOTT TRUDEAU INTL","702S006","2011-11-03 05:00","2011","11","03","05:00"
"-73.74","45.47","MONTREAL/PIERRE ELLIOTT TRUDEAU INTL","702S006","2011-11-03 06:00","2011","11","03","06:00"
"-73.74","45.47","MONTREAL/PIERRE ELLIOTT TRUDEAU INTL","702S006","2011-11-03 07:00","2011","11","03","07:00"
"-73.74","45.47","MONTREAL/PIERRE ELLIOTT TRUDEAU INTL","702S006","2011-11-03 08:00","2011","11","03","08:00"
"-73.74","45.47","MONTREAL/PIERRE ELLIOTT TRUDEAU INTL","702S006","2011-11-03 09:00","2011","11","03","09:00"
"-73.74","45.47","MONTREAL/PIERRE ELLIOTT TRUDEAU INTL","702S006","2011-11-03 10:00","2011","11","03","10:00"
"-73.74","45.47","MONTREAL/PIERRE ELLIOTT TRUDEAU INTL","702S006","2011-11-03 11:00","2011","11","03","11:00"
"-73.74","45.47","MONTREAL/PIERRE ELLIOTT TRUDEAU INTL","702S006","2011-11-03 12:00","2011","11","03","12:00"
"-73.74","45.47","MONTREAL/PIERRE ELLIOTT TRUDEAU INTL","702S006","2011-11-03 13:00","2011","11","03","13:00"
"-73.74","45.47","MONTREAL/PIERRE ELLIOTT TRUDEAU INTL","702S006","2011-11-03 14:00","2011","11","03","14:00"
"-73.74","45.47","MONTREAL/PIERRE ELLIOTT TRUDEAU INTL","702S006","2011-11-03 15:00","2011","11","03","15:00"
"-73.74","45.47","MONTREAL/PIERRE ELLIOTT TRUDEAU INTL","702S006","2011-11-03 16:00","2011","11","03","16:00"
"-73.74","45.47","MONTREAL/PIERRE ELLIOTT TRUDEAU INTL","702S006","2011-11-03 17:00","2011","11","03","17:00"
"-73.74","45.47","MONTREAL/PIERRE ELLIOTT TRUDEAU INTL","702S006","2011-11-03 18:00","2011","11","03","18:00"
"-73.74","45.47","MONTREAL/PIERRE ELLIOTT TRUDEAU INTL","702S006","2011-11-03 19:00","2011","11","03","19:00"
"-73.74","45.47","MONTREAL/PIERRE ELLIOTT TRUDEAU INTL","702S006","2011-11-03 20:00","2011","11","03","20:00"
"-73.74","45.47","MONTREAL/PIERRE ELLIOTT TRUDEAU INTL","702S006","2011-11-03 21:00","2011","11","03","21:00"
"-73.74","45.47","MONTREAL/PIERRE ELLIOTT TRUDEAU INTL","702S006","2011-11-03 22:00","2011","11","03","22:00"
"-73.74","45.47","MONTREAL/PIERRE ELLIOTT TRUDEAU INTL","702S006","2011-11-03 23:00","2011","11","03","23:00"
"-73.74","45.47","MONTREAL/PIERRE ELLIOTT TRUDEAU INTL","702S006","2011-11-04 00:00","2011","11","04","00:00"
"-73.74","45.47","MONTREAL/PIERRE ELLIOTT TRUDEAU INTL","702S006","2011-11-04 01:00","2011","11","04","01:00"
"-73.74","45.47","MONTREAL/PIERRE ELLIOTT TRUDEAU INTL","702S006","2011-11-04 02:00","2011","11","04","02:00"
"-73.74","45.47","MONTREAL/PIERRE ELLIOTT TRUDEAU INTL","702S006","2011-11-04 03:00","2011","11","04","03:00"
"-73.74","45.47","MONTREAL/PIERRE ELLIOTT TRUDEAU INTL","702S006","2011-11-04 04:00","2011","11","04","04:00"
"-73.74","45.47","MONTREAL/PIERRE ELLIOTT TRUDEAU INTL","702S006","2011-11-04 05:00","2011","11","04","05:00"
"-73.74","45.47","MONTREAL/PIERRE ELLIOTT TRUDEAU INTL","702S006","2011-11-04 06:00","2011","11","04","06:00"
"-73.74","45.47","MONTREAL/PIERRE ELLIOTT TRUDEAU INTL","702S006","2011-11-04 07:00","2011","11","04","07:00"
"-73.74","45.47","MONTREAL/PIERRE ELLIOTT TRUDEAU INTL","702S006","2011-11-04 08:00","2011","11","04","08:00"
"-73.74","45.47","MONTREAL/PIERRE ELLIOTT TRUDEAU INTL","702S006","2011-11-04 09:00","2011","11","04","09:00"
"-73.74","45.47","MONTREAL/PIERRE ELLIOTT TRUDEAU INTL","702S006","2011-11-04 10:00","2011","11","04","10:00"
"-73.74","45.47","MONTREAL/PIERRE ELLIOTT TRUDEAU INTL","702S006","2011-11-04 11:00","2011","11","04","11:00"
"-73.74","45.47","MONTREAL/PIERRE ELLIOTT TRUDEAU INTL","702S006","2011-11-04 12:00","2011","11","04","12:00"
"-73.74","45.47","MONTREAL/PIERRE ELLIOTT TRUDEAU INTL","702S006","2011-11-04 13:00","2011","11","04","13:00"
"-73.74","45.47","MONTREAL/PIERRE ELLIOTT TRUDEAU INTL","702S006","2011-11-04 14:00","2011","11","04","14:00"
"-73.74","45.47","MONTREAL/PIERRE ELLIOTT TRUDEAU INTL","702S006","2011-11-04 15:00","2011","11","04","15:00"
"-73.74","45.47","MONTREAL/PIERRE ELLIOTT TRUDEAU INTL","702S006","2011-11-04 16:00","2011","11","04","16:00"
"-73.74","45.47","MONTREAL/PIERRE ELLIOTT TRUDEAU INTL","702S006","2011-11-04 17:00","2011","11","04","17:00"
"-73.74","45.47","MONTREAL/PIERRE ELLIOTT TRUDEAU INTL","702S006","2011-11-04 18:00","2011","11","04","18:00"
"-73.74","45.47","MONTREAL/PIERRE ELLIOTT TRUDEAU INTL","702S006","2011-11-04 19:00","2011","11","04","19:00"
"-73.74","45.47","MONTREAL/PIERRE ELLIOTT TRUDEAU INTL","702S006","2011-11-04 20:00","2011","11","04","20:00"
"-73.74","45.47","MONTREAL/PIERRE ELLIOTT TRUDEAU INTL","702S006","2011-11-04 21:00","2011","11","04","21:00"
"-73.74","45.47","MONTREAL/PIERRE ELLIOTT TRUDEAU INTL","702S006","2011-11-04 22:00","2011","11","04","22:00"
"-73.74","45.47","MONTREAL/PIERRE ELLIOTT TRUDEAU INTL","702S006","2011-11-04 23:00","2011","11","04","23:00"
"-73.74","45.47","MONTREAL/PIERRE ELLIOTT TRUDEAU INTL","702S006","2011-11-05 00:00","2011","11","05","00:00"
"-73.74","45.47","MONTREAL/PIERRE ELLIOTT TRUDEAU INTL","702S006","2011-11-05 01:00","2011","11","05","01:00"
"-73.74","45.47","MONTREAL/PIERRE ELLIOTT TRUDEAU INTL","702S006","2011-11-05 02:00","2011","11","05","02:00"
"-73.74","45.47","MONTREAL/PIERRE ELLIOTT TRUDEAU INTL","702S006","2011-11-05 03:00","2011","11","05","03:00"
"-73.74","45.47","MONTREAL/PIERRE ELLIOTT TRUDEAU INTL","702S006","2011-11-05 04:00","2011","11","05","04:00"
"-73.74","45.47","MONTREAL/PIERRE ELLIOTT TRUDEAU INTL","702S006","2011-11-05 05:00","2011","11","05","05:00"
"-73.74","45.47","MONTREAL/PIERRE ELLIOTT TRUDEAU INTL","702S006","2011-11-05 06:00","2011","11","05","06:00"
"-73.74","45.47","MONTREAL/PIERRE ELLIOTT TRUDEAU INTL","702S006","2011-11-05 07:00","2011","11","05","07:00"
"-73.74","45.47","MONTREAL/PIERRE ELLIOTT TRUDEAU INTL","702S006","2011-11-05 08:00","2011","11","05","08:00"
"-73.74","45.47","MONTREAL/PIERRE ELLIOTT TRUDEAU INTL","702S006","2011-11-05 09:00","2011","11","05","09:00"
"-73.74","45.47","MONTREAL/PIERRE ELLIOTT TRUDEAU INTL","702S006","2011-11-05 10:00","2011","11","05","10:00"
"-73.74","45.47","MONTREAL/PIERRE ELLIOTT TRUDEAU INTL","702S006","2011-11-05 11:00","2011","11","05","11:00"
"-73.74","45.47","MONTREAL/PIERRE ELLIOTT TRUDEAU INTL","702S006","2011-11-05 12:00","2011","11","05","12:00"
"-73.74","45.47","MONTREAL/PIERRE ELLIOTT TRUDEAU INTL","702S006","2011-11-05 13:00","2011","11","05","13:00"
"-73.74","45.47","MONTREAL/PIERRE ELLIOTT TRUDEAU INTL","702S006","2011-11-05 14:00","2011","11","05","14:00"
"-73.74","45.47","MONTREAL/PIERRE ELLIOTT TRUDEAU INTL","702S006","2011-11-05 15:00","2011","11","05","15:00"
"-73.74","45.47","MONTREAL/PIERRE ELLIOTT TRUDEAU INTL","702S006","2011-11-05 16:00","2011","11","05","16:00"
"-73.74","45.47","MONTREAL/PIERRE ELLIOTT TRUDEAU INTL","702S006","2011-11-05 17:00","2011","11","05","17:00"
"-73.74","45.47","MONTREAL/PIERRE ELLIOTT TRUDEAU INTL","702S006","2011-11-05 18:00","2011","11","05","18:00"
"-73.74","45.47","MONTREAL/PIERRE ELLIOTT TRUDEAU INTL","702S006","2011-11-05 19:00","2011","11","05","19:00"
"-73.74","45.47","MONTREAL/PIERRE ELLIOTT TRUDEAU INTL","702S006","2011-11-05 20:00","2011","11","05","20:00"
"-73.74","45.47","MONTREAL/PIERRE ELLIOTT TRUDEAU INTL","702S006","2011-11-05 21:00","2011","11","05","21:00"
"-73.74","45.47","MONTREAL/PIERRE ELLIOTT TRUDEAU INTL","702S006","2011-11-05 22:00","2011","11","05","22:00"
"-73.74","45.47","MONTREAL/PIERRE ELLIOTT TRUDEAU INTL","702S006","2011-11-05 23:00","2011","11","05","23:00"
"-73.74","45.47","MONTREAL/PIERRE ELLIOTT TRUDEAU INTL","702S006","2011-11-06 00:00","2011","11","06","00:00"
"-73.74","45.47","MONTREAL/PIERRE ELLIOTT TRUDEAU INTL","702S006","2011-11-06 01:00","2011","11","06","01:00"
"-73.74","45.47","MONTREAL/PIERRE ELLIOTT TRUDEAU INTL","702S006","2011-11-06 02:00","2011","11","06","02:00"
"-73.74","45.47","MONTREAL/PIERRE ELLIOTT TRUDEAU INTL","702S006","2011-11-06 03:00","2011","11","06","03:00"
"-73.74","45.47","MONTREAL/PIERRE ELLIOTT TRUDEAU INTL","702S006","2011-11-06 04:00","2011","11","06","04:00"
"-73.74","45.47","MONTREAL/PIERRE ELLIOTT TRUDEAU INTL","702S006","2011-11-06 05:00","2011","11","06","05:00"
"-73.74","45.47","MONTREAL/PIERRE ELLIOTT TRUDEAU INTL","702S006","2011-11-06 06:00","2011","11","06","06:00"
"-73.74","45.47","MONTREAL/PIERRE ELLIOTT TRUDEAU INTL","702S006","2011-11-06 07:00","2011","11","06","07:00"
"-73.74","45.47","MONTREAL/PIERRE ELLIOTT TRUDEAU INTL","702S006","2011-11-06 08:00","2011","11","06","08:00"
"-73.74","45.47","MONTREAL/PIERRE ELLIOTT TRUDEAU INTL","702S006","2011-11-06 09:00","2011","11","06","09:00"
"-73.74","45.47","MONTREAL/PIERRE ELLIOTT TRUDEAU INTL","702S006","2011-11-06 10:00","2011","11","06","10:00"
"-73.74","45.47","MONTREAL/PIERRE ELLIOTT TRUDEAU INTL","702S006","2011-11-06 11:00","2011","11","06","11:00"
"-73.74","45.47","MONTREAL/PIERRE ELLIOTT TRUDEAU INTL","702S006","2011-11-06 12:00","2011","11","06","12:00"
"-73.74","45.47","MONTREAL/PIERRE ELLIOTT TRUDEAU INTL","702S006","2011-11-06 13:00","2011","11","06","13:00"
"-73.74","45.47","MONTREAL/PIERRE ELLIOTT TRUDEAU INTL","702S006","2011-11-06 14:00","2011","11","06","14:00"
"-73.74","45.47","MONTREAL/PIERRE ELLIOTT TRUDEAU INTL","702S006","2011-11-06 15:00","2011","11","06","15:00"
"-73.74","45.47","MONTREAL/PIERRE ELLIOTT TRUDEAU INTL","702S006","2011-11-06 16:00","2011","11","06","16:00"
"-73.74","45.47","MONTREAL/PIERRE ELLIOTT TRUDEAU INTL","702S006","2011-11-06 17:00","2011","11","06","17:00"
"-73.74","45.47","MONTREAL/PIERRE ELLIOTT TRUDEAU INTL","702S006","2011-11-06 18:00","2011","11","06","18:00"
"-73.74","45.47","MONTREAL/PIERRE ELLIOTT TRUDEAU INTL","702S006","2011-11-06 19:00","2011","11","06","19:00"
"-73.74","45.47","MONTREAL/PIERRE ELLIOTT TRUDEAU INTL","702S006","2011-11-06 20:00","2011","11","06","20:00"
"-73.74","45.47","MONTREAL/PIERRE ELLIOTT TRUDEAU INTL","702S006","2011-11-06 21:00","2011","11","06","21:00"
"-73.74","45.47","MONTREAL/PIERRE ELLIOTT TRUDEAU INTL","702S006","2011-11-06 22:00","2011","11","06","22:00"
"-73.74","45.47","MONTREAL/PIERRE ELLIOTT TRUDEAU INTL","702S006","2011-11-06 23:00","2011","11","06","23:00"
"-73.74","45.47","MONTREAL/PIERRE ELLIOTT TRUDEAU INTL","702S006","2011-11-07 00:00","2011","11","07","00:00"
"-73.74","45.47","MONTREAL/PIERRE ELLIOTT TRUDEAU INTL","702S006","2011-11-07 01:00","2011","11","07","01:00"
"-73.74","45.47","MONTREAL/PIERRE ELLIOTT TRUDEAU INTL","702S006","2011-11-07 02:00","2011","11","07","02:00"
"-73.74","45.47","MONTREAL/PIERRE ELLIOTT TRUDEAU INTL","702S006","2011-11-07 03:00","2011","11","07","03:00"
"-73.74","45.47","MONTREAL/PIERRE ELLIOTT TRUDEAU INTL","702S006","2011-11-07 04:00","2011","11","07","04:00"
"-73.74","45.47","MONTREAL/PIERRE ELLIOTT TRUDEAU INTL","702S006","2011-11-07 05:00","2011","11","07","05:00"
"-73.74","45.47","MONTREAL/PIERRE ELLIOTT TRUDEAU INTL","702S006","2011-11-07 06:00","2011","11","07","06:00"
"-73.74","45.47","MONTREAL/PIERRE ELLIOTT TRUDEAU INTL","702S006","2011-11-07 07:00","2011","11","07","07:00"
"-73.74","45.47","MONTREAL/PIERRE ELLIOTT TRUDEAU INTL","702S006","2011-11-07 08:00","2011","11","07","08:00"
"-73.74","45.47","MONTREAL/PIERRE ELLIOTT TRUDEAU INTL","702S006","2011-11-07 09:00","2011","11","07","09:00"
"-73.74","45.47","MONTREAL/PIERRE ELLIOTT TRUDEAU INTL","702S006","2011-11-07 10:00","2011","11","07","10:00"
"-73.74","45.47","MONTREAL/PIERRE ELLIOTT TRUDEAU INTL","702S006","2011-11-07 11:00","2011","11","07","11:00"
"-73.74","45.47","MONTREAL/PIERRE ELLIOTT TRUDEAU INTL","702S006","2011-11-07 12:00","2011","11","07","12:00","","M","","M","","M","","","19","","13","","","","101.59","","","","","","NA"
"-73.74","45.47","MONTREAL/PIERRE ELLIOTT TRUDEAU INTL","702S006","2011-11-07 13:00","2011","11","07","13:00","","M","","M","","M","","","23","","19","","","","101.50","","","","","","NA"
"-73.74","45.47","MONTREAL/PIERRE ELLIOTT TRUDEAU INTL","702S006","2011-11-07 14:00","2011","11","07","14:00","","M","","M","","M","","","23","","20","","","","101.45","","","","","","NA"
"-73.74","45.47","MONTREAL/PIERRE ELLIOTT TRUDEAU INTL","702S006","2011-11-07 15:00","2011","11","07","15:00","","M","","M","","M","","","23","","17","","","","101.39","","","","","","NA"
"-73.74","45.47","MONTREAL/PIERRE ELLIOTT TRUDEAU INTL","702S006","2011-11-07 16:00","2011","11","07","16:00","","M","","M","","M","","","21","","13","","","","101.37","","","","","","NA"
"-73.74","45.47","MONTREAL/PIERRE ELLIOTT TRUDEAU INTL","702S006","2011-11-07 17:00","2011","11","07","17:00","","M","","M","","M","","","22","","15","","","","101.40","","","","","","NA"
"-73.74","45.47","MONTREAL/PIERRE ELLIOTT TRUDEAU INTL","702S006","2011-11-07 18:00","2011","11","07","18:00","","M","","M","","M","","","22","","15","","","","101.43","","","","","","NA"
"-73.74","45.47","MONTREAL/PIERRE ELLIOTT TRUDEAU INTL","702S006","2011-11-07 19:00","2011","11","07","19:00","","M","","M","","M","","","22","","22","","","","101.42","","","","","","NA"
"-73.74","45.47","MONTREAL/PIERRE ELLIOTT TRUDEAU INTL","702S006","2011-11-07 20:00","2011","11","07","20:00","","M","","M","","M","","","24","","24","","","","101.48","","","","","","NA"
"-73.74","45.47","MONTREAL/PIERRE ELLIOTT TRUDEAU INTL","702S006","2011-11-07 21:00","2011","11","07","21:00","","M","","M","","M","","","24","","22","","","","101.53","","","","","","NA"
"-73.74","45.47","MONTREAL/PIERRE ELLIOTT TRUDEAU INTL","702S006","2011-11-07 22:00","2011","11","07","22:00","","M","","M","","M","","","25","","24","","","","101.57","","","","","","NA"
"-73.74","45.47","MONTREAL/PIERRE ELLIOTT TRUDEAU INTL","702S006","2011-11-07 23:00","2011","11","07","23:00","","M","","M","","M","","","24","","20","","","","101.64","","","","","","NA"
"-73.74","45.47","MONTREAL/PIERRE ELLIOTT TRUDEAU INTL","702S006","2011-11-08 00:00","2011","11","08","00:00","","M","","M","","M","","","25","","15","","","","101.74","","","","","","NA"
"-73.74","45.47","MONTREAL/PIERRE ELLIOTT TRUDEAU INTL","702S006","2011-11-08 01:00","2011","11","08","01:00","","M","","M","","M","","","24","","11","","","","101.75","","","","","","NA"
"-73.74","45.47","MONTREAL/PIERRE ELLIOTT TRUDEAU INTL","702S006","2011-11-08 02:00","2011","11","08","02:00","","M","","M","","M","","","23","","11","","","","101.78","","","","","","NA"
"-73.74","45.47","MONTREAL/PIERRE ELLIOTT TRUDEAU INTL","702S006","2011-11-08 03:00","2011","11","08","03:00","","M","","M","","M","","","23","","11","","","","101.79","","","","","","NA"
"-73.74","45.47","MONTREAL/PIERRE ELLIOTT TRUDEAU INTL","702S006","2011-11-08 04:00","2011","11","08","04:00","","M","","M","","M","","","24","","9","","","","101.81","","","","","","NA"
"-73.74","45.47","MONTREAL/PIERRE ELLIOTT TRUDEAU INTL","702S006","2011-11-08 05:00","2011","11","08","05:00","","M","","M","","M","","","25","","13","","","","101.82","","","","","","NA"
"-73.74","45.47","MONTREAL/PIERRE ELLIOTT TRUDEAU INTL","702S006","2011-11-08 06:00","2011","11","08","06:00","","M","","M","","M","","","25","","11","","","","101.84","","","","","","NA"
"-73.74","45.47","MONTREAL/PIERRE ELLIOTT TRUDEAU INTL","702S006","2011-11-08 07:00","2011","11","08","07:00","","M","","M","","M","","","25","","11","","","","101.88","","","","","","NA"
"-73.74","45.47","MONTREAL/PIERRE ELLIOTT TRUDEAU INTL","702S006","2011-11-08 08:00","2011","11","08","08:00","","M","","M","","M","","","25","","11","","","","101.93","","","","","","NA"
"-73.74","45.47","MONTREAL/PIERRE ELLIOTT TRUDEAU INTL","702S006","2011-11-08 09:00","2011","11","08","09:00","","M","","M","","M","","","25","","15","","","","101.92","","","","","","NA"
"-73.74","45.47","MONTREAL/PIERRE ELLIOTT TRUDEAU INTL","702S006","2011-11-08 10:00","2011","11","08","10:00"
"-73.74","45.47","MONTREAL/PIERRE ELLIOTT TRUDEAU INTL","702S006","2011-11-08 11:00","2011","11","08","11:00","","M","","M","","M","","","26","","19","","","","101.93","","","","","","NA"
"-73.74","45.47","MONTREAL/PIERRE ELLIOTT TRUDEAU INTL","702S006","2011-11-08 12:00","2011","11","08","12:00","","M","","M","","M","","","24","","11","","","","101.89","","","","","","NA"
"-73.74","45.47","MONTREAL/PIERRE ELLIOTT TRUDEAU INTL","702S006","2011-11-08 13:00","2011","11","08","13:00","","M","","M","","M","","","20","","15","","","","101.85","","","","","","NA"
"-73.74","45.47","MONTREAL/PIERRE ELLIOTT TRUDEAU INTL","702S006","2011-11-08 14:00","2011","11","08","14:00","","M","","M","","M","","","19","","15","","","","101.82","","","","","","NA"
"-73.74","45.47","MONTREAL/PIERRE ELLIOTT TRUDEAU INTL","702S006","2011-11-08 15:00","2011","11","08","15:00","","M","","M","","M","","","22","","11","","","","101.82","","","","","","NA"
"-73.74","45.47","MONTREAL/PIERRE ELLIOTT TRUDEAU INTL","702S006","2011-11-08 16:00","2011","11","08","16:00","","M","","M","","M","","","22","","6","","","","101.81","","","","","","NA"
"-73.74","45.47","MONTREAL/PIERRE ELLIOTT TRUDEAU INTL","702S006","2011-11-08 17:00","2011","11","08","17:00","","M","","M","","M","","","28","","4","","","","101.83","","","","","","NA"
"-73.74","45.47","MONTREAL/PIERRE ELLIOTT TRUDEAU INTL","702S006","2011-11-08 18:00","2011","11","08","18:00","","M","","M","","M","","","25","","6","","","","101.83","","","","","","NA"
"-73.74","45.47","MONTREAL/PIERRE ELLIOTT TRUDEAU INTL","702S006","2011-11-08 19:00","2011","11","08","19:00","","M","","M","","M","","","34","","6","","","","101.85","","","","","","NA"
"-73.74","45.47","MONTREAL/PIERRE ELLIOTT TRUDEAU INTL","702S006","2011-11-08 20:00","2011","11","08","20:00","","M","","M","","M","","","","","0","","","","101.82","","","","","","NA"
"-73.74","45.47","MONTREAL/PIERRE ELLIOTT TRUDEAU INTL","702S006","2011-11-08 21:00","2011","11","08","21:00","","M","","M","","M","","","3","","4","","","","101.83","","","","","","NA"
"-73.74","45.47","MONTREAL/PIERRE ELLIOTT TRUDEAU INTL","702S006","2011-11-08 22:00","2011","11","08","22:00","","M","","M","","M","","","14","","6","","","","101.80","","","","","","NA"
"-73.74","45.47","MONTREAL/PIERRE ELLIOTT TRUDEAU INTL","702S006","2011-11-08 23:00","2011","11","08","23:00","","M","","M","","M","","","10","","2","","","","101.80","","","","","","NA"
"-73.74","45.47","MONTREAL/PIERRE ELLIOTT TRUDEAU INTL","702S006","2011-11-09 00:00","2011","11","09","00:00","","M","","M","","M","","","3","","6","","","","101.75","","","","","","NA"
"-73.74","45.47","MONTREAL/PIERRE ELLIOTT TRUDEAU INTL","702S006","2011-11-09 01:00","2011","11","09","01:00","","M","","M","","M","","","3","","7","","","","101.72","","","","","","NA"
"-73.74","45.47","MONTREAL/PIERRE ELLIOTT TRUDEAU INTL","702S006","2011-11-09 02:00","2011","11","09","02:00","","M","","M","","M","","","4","","9","","","","101.69","","","","","","NA"
"-73.74","45.47","MONTREAL/PIERRE ELLIOTT TRUDEAU INTL","702S006","2011-11-09 03:00","2011","11","09","03:00","","M","","M","","M","","","4","","9","","","","101.67","","","","","","NA"
"-73.74","45.47","MONTREAL/PIERRE ELLIOTT TRUDEAU INTL","702S006","2011-11-09 04:00","2011","11","09","04:00","","M","","M","","M","","","4","","13","","","","101.61","","","","","","NA"
"-73.74","45.47","MONTREAL/PIERRE ELLIOTT TRUDEAU INTL","702S006","2011-11-09 05:00","2011","11","09","05:00","","M","","M","","M","","","4","","15","","","","101.62","","","","","","NA"
"-73.74","45.47","MONTREAL/PIERRE ELLIOTT TRUDEAU INTL","702S006","2011-11-09 06:00","2011","11","09","06:00","","M","","M","","M","","","5","","15","","","","101.56","","","","","","NA"
"-73.74","45.47","MONTREAL/PIERRE ELLIOTT TRUDEAU INTL","702S006","2011-11-09 07:00","2011","11","09","07:00","","M","","M","","M","","","2","","15","","","","101.64","","","","","","NA"
"-73.74","45.47","MONTREAL/PIERRE ELLIOTT TRUDEAU INTL","702S006","2011-11-09 08:00","2011","11","09","08:00","","M","","M","","M","","","4","","15","","","","101.59","","","","","","NA"
"-73.74","45.47","MONTREAL/PIERRE ELLIOTT TRUDEAU INTL","702S006","2011-11-09 09:00","2011","11","09","09:00","","M","","M","","M","","","4","","13","","","","101.56","","","","","","NA"
"-73.74","45.47","MONTREAL/PIERRE ELLIOTT TRUDEAU INTL","702S006","2011-11-09 10:00","2011","11","09","10:00","","M","","M","","M","","","3","","13","","","","101.51","","","","","","NA"
"-73.74","45.47","MONTREAL/PIERRE ELLIOTT TRUDEAU INTL","702S006","2011-11-09 11:00","2011","11","09","11:00","","M","","M","","M","","","3","","11","","","","101.46","","","","","","NA"
"-73.74","45.47","MONTREAL/PIERRE ELLIOTT TRUDEAU INTL","702S006","2011-11-09 12:00","2011","11","09","12:00","","M","","M","","M","","","4","","11","","","","101.32","","","","","","NA"
"-73.74","45.47","MONTREAL/PIERRE ELLIOTT TRUDEAU INTL","702S006","2011-11-09 13:00","2011","11","09","13:00","","M","","M","","M","","","2","","15","","","","101.23","","","","","","NA"
"-73.74","45.47","MONTREAL/PIERRE ELLIOTT TRUDEAU INTL","702S006","2011-11-09 14:00","2011","11","09","14:00","","M","","M","","M","","","3","","13","","","","101.10","","","","","","NA"
"-73.74","45.47","MONTREAL/PIERRE ELLIOTT TRUDEAU INTL","702S006","2011-11-09 15:00","2011","11","09","15:00","","M","","M","","M","","","4","","15","","","","101.04","","","","","","NA"
"-73.74","45.47","MONTREAL/PIERRE ELLIOTT TRUDEAU INTL","702S006","2011-11-09 16:00","2011","11","09","16:00","","M","","M","","M","","","3","","17","","","","100.97","","","","","","NA"
"-73.74","45.47","MONTREAL/PIERRE ELLIOTT TRUDEAU INTL","702S006","2011-11-09 17:00","2011","11","09","17:00","","M","","M","","M","","","4","","17","","","","100.91","","","","","","NA"
"-73.74","45.47","MONTREAL/PIERRE ELLIOTT TRUDEAU INTL","702S006","2011-11-09 18:00","2011","11","09","18:00","","M","","M","","M","","","3","","15","","","","100.87","","","","","","NA"
"-73.74","45.47","MONTREAL/PIERRE ELLIOTT TRUDEAU INTL","702S006","2011-11-09 19:00","2011","11","09","19:00","","M","","M","","M","","","3","","11","","","","100.80","","","","","","NA"
"-73.74","45.47","MONTREAL/PIERRE ELLIOTT TRUDEAU INTL","702S006","2011-11-09 20:00","2011","11","09","20:00","","M","","M","","M","","","3","","11","","","","100.73","","","","","","NA"
"-73.74","45.47","MONTREAL/PIERRE ELLIOTT TRUDEAU INTL","702S006","2011-11-09 21:00","2011","11","09","21:00","","M","","M","","M","","","3","","15","","","","100.65","","","","","","NA"
"-73.74","45.47","MONTREAL/PIERRE ELLIOTT TRUDEAU INTL","702S006","2011-11-09 22:00","2011","11","09","22:00","","M","","M","","M","","","2","","9","","","","100.58","","","","","","NA"
"-73.74","45.47","MONTREAL/PIERRE ELLIOTT TRUDEAU INTL","702S006","2011-11-09 23:00","2011","11","09","23:00","","M","","M","","M","","","2","","7","","","","100.55","","","","","","NA"
"-73.74","45.47","MONTREAL/PIERRE ELLIOTT TRUDEAU INTL","702S006","2011-11-10 00:00","2011","11","10","00:00","","M","","M","","M","","","36","","6","","","","100.54","","","","","","NA"
"-73.74","45.47","MONTREAL/PIERRE ELLIOTT TRUDEAU INTL","702S006","2011-11-10 01:00","2011","11","10","01:00","","M","","M","","M","","","19","","6","","","","100.52","","","","","","NA"
"-73.74","45.47","MONTREAL/PIERRE ELLIOTT TRUDEAU INTL","702S006","2011-11-10 02:00","2011","11","10","02:00","","M","","M","","M","","","17","","17","","","","100.58","","","","","","NA"
"-73.74","45.47","MONTREAL/PIERRE ELLIOTT TRUDEAU INTL","702S006","2011-11-10 03:00","2011","11","10","03:00","","M","","M","","M","","","15","","28","","","","100.53","","","","","","NA"
"-73.74","45.47","MONTREAL/PIERRE ELLIOTT TRUDEAU INTL","702S006","2011-11-10 04:00","2011","11","10","04:00","","M","","M","","M","","","15","","22","","","","100.48","","","","","","NA"
"-73.74","45.47","MONTREAL/PIERRE ELLIOTT TRUDEAU INTL","702S006","2011-11-10 05:00","2011","11","10","05:00","","M","","M","","M","","","16","","24","","","","100.50","","","","","","NA"
"-73.74","45.47","MONTREAL/PIERRE ELLIOTT TRUDEAU INTL","702S006","2011-11-10 06:00","2011","11","10","06:00","","M","","M","","M","","","16","","22","","","","100.51","","","","","","NA"
"-73.74","45.47","MONTREAL/PIERRE ELLIOTT TRUDEAU INTL","702S006","2011-11-10 07:00","2011","11","10","07:00","","M","","M","","M","","","16","","17","","","","100.54","","","","","","NA"
"-73.74","45.47","MONTREAL/PIERRE ELLIOTT TRUDEAU INTL","702S006","2011-11-10 08:00","2011","11","10","08:00","","M","","M","","M","","","16","","13","","","","100.60","","","","","","NA"
"-73.74","45.47","MONTREAL/PIERRE ELLIOTT TRUDEAU INTL","702S006","2011-11-10 09:00","2011","11","10","09:00","","M","","M","","M","","","23","","17","","","","100.66","","","","","","NA"
"-73.74","45.47","MONTREAL/PIERRE ELLIOTT TRUDEAU INTL","702S006","2011-11-10 10:00","2011","11","10","10:00","","M","","M","","M","","","25","","22","","","","100.72","","","","","","NA"
"-73.74","45.47","MONTREAL/PIERRE ELLIOTT TRUDEAU INTL","702S006","2011-11-10 11:00","2011","11","10","11:00","","M","","M","","M","","","25","","24","","","","100.68","","","","","","NA"
"-73.74","45.47","MONTREAL/PIERRE ELLIOTT TRUDEAU INTL","702S006","2011-11-10 12:00","2011","11","10","12:00","","M","","M","","M","","","25","","17","","","","100.59","","","","","","NA"
"-73.74","45.47","MONTREAL/PIERRE ELLIOTT TRUDEAU INTL","702S006","2011-11-10 13:00","2011","11","10","13:00","","M","","M","","M","","","25","","13","","","","100.55","","","","","","NA"
"-73.74","45.47","MONTREAL/PIERRE ELLIOTT TRUDEAU INTL","702S006","2011-11-10 14:00","2011","11","10","14:00","","M","","M","","M","","","22","","13","","","","100.45","","","","","","NA"
"-73.74","45.47","MONTREAL/PIERRE ELLIOTT TRUDEAU INTL","702S006","2011-11-10 15:00","2011","11","10","15:00","","M","","M","","M","","","22","","11","","","","100.43","","","","","","NA"
"-73.74","45.47","MONTREAL/PIERRE ELLIOTT TRUDEAU INTL","702S006","2011-11-10 16:00","2011","11","10","16:00","","M","","M","","M","","","23","","11","","","","100.44","","","","","","NA"
"-73.74","45.47","MONTREAL/PIERRE ELLIOTT TRUDEAU INTL","702S006","2011-11-10 17:00","2011","11","10","17:00","","M","","M","","M","","","21","","15","","","","100.45","","","","","","NA"
"-73.74","45.47","MONTREAL/PIERRE ELLIOTT TRUDEAU INTL","702S006","2011-11-10 18:00","2011","11","10","18:00","","M","","M","","M","","","28","","9","","","","100.36","","","","","","NA"
"-73.74","45.47","MONTREAL/PIERRE ELLIOTT TRUDEAU INTL","702S006","2011-11-10 19:00","2011","11","10","19:00","","M","","M","","M","","","26","","11","","","","100.37","","","","","","NA"
"-73.74","45.47","MONTREAL/PIERRE ELLIOTT TRUDEAU INTL","702S006","2011-11-10 20:00","2011","11","10","20:00","","M","","M","","M","","","24","","9","","","","100.35","","","","","","NA"
"-73.74","45.47","MONTREAL/PIERRE ELLIOTT TRUDEAU INTL","702S006","2011-11-10 21:00","2011","11","10","21:00","","M","","M","","M","","","24","","7","","","","100.25","","","","","","NA"
"-73.74","45.47","MONTREAL/PIERRE ELLIOTT TRUDEAU INTL","702S006","2011-11-10 22:00","2011","11","10","22:00","","M","","M","","M","","","23","","11","","","","100.27","","","","","","NA"
"-73.74","45.47","MONTREAL/PIERRE ELLIOTT TRUDEAU INTL","702S006","2011-11-10 23:00","2011","11","10","23:00","","M","","M","","M","","","26","","13","","","","100.16","","","","","","NA"
"-73.74","45.47","MONTREAL/PIERRE ELLIOTT TRUDEAU INTL","702S006","2011-11-11 00:00","2011","11","11","00:00","","M","","M","","M","","","27","","7","","","","100.09","","","","","","NA"
"-73.74","45.47","MONTREAL/PIERRE ELLIOTT TRUDEAU INTL","702S006","2011-11-11 01:00","2011","11","11","01:00","","M","","M","","M","","","28","","11","","","","99.98","","","","","","NA"
"-73.74","45.47","MONTREAL/PIERRE ELLIOTT TRUDEAU INTL","702S006","2011-11-11 02:00","2011","11","11","02:00","","M","","M","","M","","","27","","13","","","","99.99","","","","","","NA"
"-73.74","45.47","MONTREAL/PIERRE ELLIOTT TRUDEAU INTL","702S006","2011-11-11 03:00","2011","11","11","03:00","","M","","M","","M","","","29","","13","","","","99.84","","","","","","NA"
"-73.74","45.47","MONTREAL/PIERRE ELLIOTT TRUDEAU INTL","702S006","2011-11-11 04:00","2011","11","11","04:00","","M","","M","","M","","","29","","11","","","","99.82","","","","","","NA"
"-73.74","45.47","MONTREAL/PIERRE ELLIOTT TRUDEAU INTL","702S006","2011-11-11 05:00","2011","11","11","05:00","","M","","M","","M","","","30","","9","","","","99.79","","","","","","NA"
"-73.74","45.47","MONTREAL/PIERRE ELLIOTT TRUDEAU INTL","702S006","2011-11-11 06:00","2011","11","11","06:00","","M","","M","","M","","","28","","9","","","","99.72","","","","","","NA"
"-73.74","45.47","MONTREAL/PIERRE ELLIOTT TRUDEAU INTL","702S006","2011-11-11 07:00","2011","11","11","07:00","","M","","M","","M","","","29","","11","","","","99.74","","","","","","NA"
"-73.74","45.47","MONTREAL/PIERRE ELLIOTT TRUDEAU INTL","702S006","2011-11-11 08:00","2011","11","11","08:00","","M","","M","","M","","","28","","15","","","","99.73","","","","","","NA"
"-73.74","45.47","MONTREAL/PIERRE ELLIOTT TRUDEAU INTL","702S006","2011-11-11 09:00","2011","11","11","09:00","","M","","M","","M","","","30","","20","","","","99.71","","","","","","NA"
"-73.74","45.47","MONTREAL/PIERRE ELLIOTT TRUDEAU INTL","702S006","2011-11-11 10:00","2011","11","11","10:00","","M","","M","","M","","","29","","22","","","","99.69","","","","","","NA"
"-73.74","45.47","MONTREAL/PIERRE ELLIOTT TRUDEAU INTL","702S006","2011-11-11 11:00","2011","11","11","11:00","","M","","M","","M","","","30","","22","","","","99.64","","","","","","NA"
"-73.74","45.47","MONTREAL/PIERRE ELLIOTT TRUDEAU INTL","702S006","2011-11-11 12:00","2011","11","11","12:00","","M","","M","","M","","","29","","22","","","","99.59","","","","","","NA"
"-73.74","45.47","MONTREAL/PIERRE ELLIOTT TRUDEAU INTL","702S006","2011-11-11 13:00","2011","11","11","13:00","","M","","M","","M","","","30","","20","","","","99.60","","","","","","NA"
"-73.74","45.47","MONTREAL/PIERRE ELLIOTT TRUDEAU INTL","702S006","2011-11-11 14:00","2011","11","11","14:00","","M","","M","","M","","","29","","22","","","","99.63","","","","","","NA"
"-73.74","45.47","MONTREAL/PIERRE ELLIOTT TRUDEAU INTL","702S006","2011-11-11 15:00","2011","11","11","15:00","","M","","M","","M","","","28","","28","","","","99.70","","","","","","NA"
"-73.74","45.47","MONTREAL/PIERRE ELLIOTT TRUDEAU INTL","702S006","2011-11-11 16:00","2011","11","11","16:00","","M","","M","","M","","","28","","24","","","","99.78","","","","","","NA"
"-73.74","45.47","MONTREAL/PIERRE ELLIOTT TRUDEAU INTL","702S006","2011-11-11 17:00","2011","11","11","17:00","","M","","M","","M","","","30","","35","","","","99.90","","","","","","NA"
"-73.74","45.47","MONTREAL/PIERRE ELLIOTT TRUDEAU INTL","702S006","2011-11-11 18:00","2011","11","11","18:00","","M","","M","","M","","","29","","28","","","","100.01","","","","","","NA"
"-73.74","45.47","MONTREAL/PIERRE ELLIOTT TRUDEAU INTL","702S006","2011-11-11 19:00","2011","11","11","19:00","","M","","M","","M","","","28","","24","","","","100.10","","","","","","NA"
"-73.74","45.47","MONTREAL/PIERRE ELLIOTT TRUDEAU INTL","702S006","2011-11-11 20:00","2011","11","11","20:00","","M","","M","","M","","","27","","32","","","","100.20","","","","","","NA"
"-73.74","45.47","MONTREAL/PIERRE ELLIOTT TRUDEAU INTL","702S006","2011-11-11 21:00","2011","11","11","21:00","","M","","M","","M","","","27","","26","","","","100.28","","","","","","NA"
"-73.74","45.47","MONTREAL/PIERRE ELLIOTT TRUDEAU INTL","702S006","2011-11-11 22:00","2011","11","11","22:00","","M","","M","","M","","","27","","26","","","","100.32","","","","","","NA"
"-73.74","45.47","MONTREAL/PIERRE ELLIOTT TRUDEAU INTL","702S006","2011-11-11 23:00","2011","11","11","23:00","","M","","M","","M","","","27","","24","","","","100.37","","","","","","NA"
"-73.74","45.47","MONTREAL/PIERRE ELLIOTT TRUDEAU INTL","702S006","2011-11-12 00:00","2011","11","12","00:00","","M","","M","","M","","","27","","33","","","","100.43","","","","","","NA"
"-73.74","45.47","MONTREAL/PIERRE ELLIOTT TRUDEAU INTL","702S006","2011-11-12 01:00","2011","11","12","01:00","","M","","M","","M","","","26","","32","","","","100.49","","","","","","NA"
"-73.74","45.47","MONTREAL/PIERRE ELLIOTT TRUDEAU INTL","702S006","2011-11-12 02:00","2011","11","12","02:00","","M","","M","","M","","","26","","22","","","","100.56","","","","","","NA"
"-73.74","45.47","MONTREAL/PIERRE ELLIOTT TRUDEAU INTL","702S006","2011-11-12 03:00","2011","11","12","03:00","","M","","M","","M","","","25","","17","","","","100.58","","","","","","NA"
"-73.74","45.47","MONTREAL/PIERRE ELLIOTT TRUDEAU INTL","702S006","2011-11-12 04:00","2011","11","12","04:00","","M","","M","","M","","","25","","17","","","","100.61","","","","","","NA"
"-73.74","45.47","MONTREAL/PIERRE ELLIOTT TRUDEAU INTL","702S006","2011-11-12 05:00","2011","11","12","05:00","","M","","M","","M","","","25","","13","","","","100.64","","","","","","NA"
"-73.74","45.47","MONTREAL/PIERRE ELLIOTT TRUDEAU INTL","702S006","2011-11-12 06:00","2011","11","12","06:00","","M","","M","","M","","","21","","15","","","","100.63","","","","","","NA"
"-73.74","45.47","MONTREAL/PIERRE ELLIOTT TRUDEAU INTL","702S006","2011-11-12 07:00","2011","11","12","07:00","","M","","M","","M","","","17","","17","","","","100.62","","","","","","NA"
"-73.74","45.47","MONTREAL/PIERRE ELLIOTT TRUDEAU INTL","702S006","2011-11-12 08:00","2011","11","12","08:00","","M","","M","","M","","","17","","17","","","","100.58","","","","","","NA"
"-73.74","45.47","MONTREAL/PIERRE ELLIOTT TRUDEAU INTL","702S006","2011-11-12 09:00","2011","11","12","09:00","","M","","M","","M","","","18","","17","","","","100.53","","","","","","NA"
"-73.74","45.47","MONTREAL/PIERRE ELLIOTT TRUDEAU INTL","702S006","2011-11-12 10:00","2011","11","12","10:00","","M","","M","","M","","","19","","19","","","","100.52","","","","","","NA"
"-73.74","45.47","MONTREAL/PIERRE ELLIOTT TRUDEAU INTL","702S006","2011-11-12 11:00","2011","11","12","11:00","","M","","M","","M","","","21","","17","","","","100.51","","","","","","NA"
"-73.74","45.47","MONTREAL/PIERRE ELLIOTT TRUDEAU INTL","702S006","2011-11-12 12:00","2011","11","12","12:00","","M","","M","","M","","","24","","20","","","","100.49","","","","","","NA"
"-73.74","45.47","MONTREAL/PIERRE ELLIOTT TRUDEAU INTL","702S006","2011-11-12 13:00","2011","11","12","13:00","","M","","M","","M","","","23","","22","","","","100.45","","","","","","NA"
"-73.74","45.47","MONTREAL/PIERRE ELLIOTT TRUDEAU INTL","702S006","2011-11-12 14:00","2011","11","12","14:00","","M","","M","","M","","","23","","22","","","","100.49","","","","","","NA"
"-73.74","45.47","MONTREAL/PIERRE ELLIOTT TRUDEAU INTL","702S006","2011-11-12 15:00","2011","11","12","15:00","","M","","M","","M","","","24","","20","","","","100.57","","","","","","NA"
"-73.74","45.47","MONTREAL/PIERRE ELLIOTT TRUDEAU INTL","702S006","2011-11-12 16:00","2011","11","12","16:00","","M","","M","","M","","","23","","17","","","","100.60","","","","","","NA"
"-73.74","45.47","MONTREAL/PIERRE ELLIOTT TRUDEAU INTL","702S006","2011-11-12 17:00","2011","11","12","17:00","","M","","M","","M","","","23","","19","","","","100.68","","","","","","NA"
"-73.74","45.47","MONTREAL/PIERRE ELLIOTT TRUDEAU INTL","702S006","2011-11-12 18:00","2011","11","12","18:00","","M","","M","","M","","","22","","17","","","","100.78","","","","","","NA"
"-73.74","45.47","MONTREAL/PIERRE ELLIOTT TRUDEAU INTL","702S006","2011-11-12 19:00","2011","11","12","19:00","","M","","M","","M","","","22","","11","","","","100.84","","","","","","NA"
"-73.74","45.47","MONTREAL/PIERRE ELLIOTT TRUDEAU INTL","702S006","2011-11-12 20:00","2011","11","12","20:00","","M","","M","","M","","","22","","11","","","","100.89","","","","","","NA"
"-73.74","45.47","MONTREAL/PIERRE ELLIOTT TRUDEAU INTL","702S006","2011-11-12 21:00","2011","11","12","21:00","","M","","M","","M","","","20","","13","","","","100.93","","","","","","NA"
"-73.74","45.47","MONTREAL/PIERRE ELLIOTT TRUDEAU INTL","702S006","2011-11-12 22:00","2011","11","12","22:00","","M","","M","","M","","","17","","7","","","","100.96","","","","","","NA"
"-73.74","45.47","MONTREAL/PIERRE ELLIOTT TRUDEAU INTL","702S006","2011-11-12 23:00","2011","11","12","23:00","","M","","M","","M","","","18","","7","","","","100.97","","","","","","NA"
"-73.74","45.47","MONTREAL/PIERRE ELLIOTT TRUDEAU INTL","702S006","2011-11-13 00:00","2011","11","13","00:00","","M","","M","","M","","","15","","11","","","","100.96","","","","","","NA"
"-73.74","45.47","MONTREAL/PIERRE ELLIOTT TRUDEAU INTL","702S006","2011-11-13 01:00","2011","11","13","01:00","","M","","M","","M","","","14","","7","","","","100.96","","","","","","NA"
"-73.74","45.47","MONTREAL/PIERRE ELLIOTT TRUDEAU INTL","702S006","2011-11-13 02:00","2011","11","13","02:00","","M","","M","","M","","","12","","7","","","","100.99","","","","","","NA"
"-73.74","45.47","MONTREAL/PIERRE ELLIOTT TRUDEAU INTL","702S006","2011-11-13 03:00","2011","11","13","03:00","","M","","M","","M","","","14","","7","","","","100.97","","","","","","NA"
"-73.74","45.47","MONTREAL/PIERRE ELLIOTT TRUDEAU INTL","702S006","2011-11-13 04:00","2011","11","13","04:00","","M","","M","","M","","","14","","11","","","","100.99","","","","","","NA"
"-73.74","45.47","MONTREAL/PIERRE ELLIOTT TRUDEAU INTL","702S006","2011-11-13 05:00","2011","11","13","05:00","","M","","M","","M","","","14","","11","","","","101.00","","","","","","NA"
"-73.74","45.47","MONTREAL/PIERRE ELLIOTT TRUDEAU INTL","702S006","2011-11-13 06:00","2011","11","13","06:00","","M","","M","","M","","","13","","11","","","","100.98","","","","","","NA"
"-73.74","45.47","MONTREAL/PIERRE ELLIOTT TRUDEAU INTL","702S006","2011-11-13 07:00","2011","11","13","07:00","","M","","M","","M","","","11","","13","","","","100.95","","","","","","NA"
"-73.74","45.47","MONTREAL/PIERRE ELLIOTT TRUDEAU INTL","702S006","2011-11-13 08:00","2011","11","13","08:00","","M","","M","","M","","","14","","15","","","","100.95","","","","","","NA"
"-73.74","45.47","MONTREAL/PIERRE ELLIOTT TRUDEAU INTL","702S006","2011-11-13 09:00","2011","11","13","09:00","","M","","M","","M","","","15","","20","","","","100.90","","","","","","NA"
"-73.74","45.47","MONTREAL/PIERRE ELLIOTT TRUDEAU INTL","702S006","2011-11-13 10:00","2011","11","13","10:00","","M","","M","","M","","","14","","17","","","","100.88","","","","","","NA"
"-73.74","45.47","MONTREAL/PIERRE ELLIOTT TRUDEAU INTL","702S006","2011-11-13 11:00","2011","11","13","11:00","","M","","M","","M","","","13","","19","","","","100.74","","","","","","NA"
"-73.74","45.47","MONTREAL/PIERRE ELLIOTT TRUDEAU INTL","702S006","2011-11-13 12:00","2011","11","13","12:00","","M","","M","","M","","","15","","19","","","","100.62","","","","","","NA"
"-73.74","45.47","MONTREAL/PIERRE ELLIOTT TRUDEAU INTL","702S006","2011-11-13 13:00","2011","11","13","13:00","","M","","M","","M","","","14","","20","","","","100.54","","","","","","NA"
"-73.74","45.47","MONTREAL/PIERRE ELLIOTT TRUDEAU INTL","702S006","2011-11-13 14:00","2011","11","13","14:00","","M","","M","","M","","","15","","17","","","","100.44","","","","","","NA"
"-73.74","45.47","MONTREAL/PIERRE ELLIOTT TRUDEAU INTL","702S006","2011-11-13 15:00","2011","11","13","15:00","","M","","M","","M","","","15","","17","","","","100.38","","","","","","NA"
"-73.74","45.47","MONTREAL/PIERRE ELLIOTT TRUDEAU INTL","702S006","2011-11-13 16:00","2011","11","13","16:00","","M","","M","","M","","","15","","11","","","","100.33","","","","","","NA"
"-73.74","45.47","MONTREAL/PIERRE ELLIOTT TRUDEAU INTL","702S006","2011-11-13 17:00","2011","11","13","17:00","","M","","M","","M","","","16","","15","","","","100.31","","","","","","NA"
"-73.74","45.47","MONTREAL/PIERRE ELLIOTT TRUDEAU INTL","702S006","2011-11-13 18:00","2011","11","13","18:00","","M","","M","","M","","","14","","9","","","","100.30","","","","","","NA"
"-73.74","45.47","MONTREAL/PIERRE ELLIOTT TRUDEAU INTL","702S006","2011-11-13 19:00","2011","11","13","19:00","","M","","M","","M","","","14","","13","","","","100.27","","","","","","NA"
"-73.74","45.47","MONTREAL/PIERRE ELLIOTT TRUDEAU INTL","702S006","2011-11-13 20:00","2011","11","13","20:00","","M","","M","","M","","","14","","13","","","","100.24","","","","","","NA"
"-73.74","45.47","MONTREAL/PIERRE ELLIOTT TRUDEAU INTL","702S006","2011-11-13 21:00","2011","11","13","21:00","","M","","M","","M","","","14","","17","","","","100.20","","","","","","NA"
"-73.74","45.47","MONTREAL/PIERRE ELLIOTT TRUDEAU INTL","702S006","2011-11-13 22:00","2011","11","13","22:00","","M","","M","","M","","","15","","17","","","","100.19","","","","","","NA"
"-73.74","45.47","MONTREAL/PIERRE ELLIOTT TRUDEAU INTL","702S006","2011-11-13 23:00","2011","11","13","23:00","","M","","M","","M","","","13","","15","","","","100.09","","","","","","NA"
"-73.74","45.47","MONTREAL/PIERRE ELLIOTT TRUDEAU INTL","702S006","2011-11-14 00:00","2011","11","14","00:00","","M","","M","","M","","","14","","15","","","","100.05","","","","","","NA"
"-73.74","45.47","MONTREAL/PIERRE ELLIOTT TRUDEAU INTL","702S006","2011-11-14 01:00","2011","11","14","01:00","","M","","M","","M","","","15","","20","","","","100.00","","","","","","NA"
"-73.74","45.47","MONTREAL/PIERRE ELLIOTT TRUDEAU INTL","702S006","2011-11-14 02:00","2011","11","14","02:00","","M","","M","","M","","","14","","22","","","","99.99","","","","","","NA"
"-73.74","45.47","MONTREAL/PIERRE ELLIOTT TRUDEAU INTL","702S006","2011-11-14 03:00","2011","11","14","03:00","","M","","M","","M","","","14","","24","","","","99.90","","","","","","NA"
"-73.74","45.47","MONTREAL/PIERRE ELLIOTT TRUDEAU INTL","702S006","2011-11-14 04:00","2011","11","14","04:00","","M","","M","","M","","","14","","20","","","","99.83","","","","","","NA"
"-73.74","45.47","MONTREAL/PIERRE ELLIOTT TRUDEAU INTL","702S006","2011-11-14 05:00","2011","11","14","05:00","","M","","M","","M","","","15","","20","","","","99.79","","","","","","NA"
"-73.74","45.47","MONTREAL/PIERRE ELLIOTT TRUDEAU INTL","702S006","2011-11-14 06:00","2011","11","14","06:00","","M","","M","","M","","","15","","20","","","","99.74","","","","","","NA"
"-73.74","45.47","MONTREAL/PIERRE ELLIOTT TRUDEAU INTL","702S006","2011-11-14 07:00","2011","11","14","07:00","","M","","M","","M","","","16","","17","","","","99.78","","","","","","NA"
"-73.74","45.47","MONTREAL/PIERRE ELLIOTT TRUDEAU INTL","702S006","2011-11-14 08:00","2011","11","14","08:00","","M","","M","","M","","","18","","19","","","","99.77","","","","","","NA"
"-73.74","45.47","MONTREAL/PIERRE ELLIOTT TRUDEAU INTL","702S006","2011-11-14 09:00","2011","11","14","09:00","","M","","M","","M","","","20","","26","","","","99.78","","","","","","NA"
"-73.74","45.47","MONTREAL/PIERRE ELLIOTT TRUDEAU INTL","702S006","2011-11-14 10:00","2011","11","14","10:00","","M","","M","","M","","","24","","20","","","","99.85","","","","","","NA"
"-73.74","45.47","MONTREAL/PIERRE ELLIOTT TRUDEAU INTL","702S006","2011-11-14 11:00","2011","11","14","11:00","","M","","M","","M","","","25","","26","","","","99.85","","","","","","NA"
"-73.74","45.47","MONTREAL/PIERRE ELLIOTT TRUDEAU INTL","702S006","2011-11-14 12:00","2011","11","14","12:00","","M","","M","","M","","","23","","22","","","","99.83","","","","","","NA"
"-73.74","45.47","MONTREAL/PIERRE ELLIOTT TRUDEAU INTL","702S006","2011-11-14 13:00","2011","11","14","13:00","","M","","M","","M","","","24","","32","","","","99.83","","","","","","NA"
"-73.74","45.47","MONTREAL/PIERRE ELLIOTT TRUDEAU INTL","702S006","2011-11-14 14:00","2011","11","14","14:00","","M","","M","","M","","","24","","33","","","","99.81","","","","","","NA"
"-73.74","45.47","MONTREAL/PIERRE ELLIOTT TRUDEAU INTL","702S006","2011-11-14 15:00","2011","11","14","15:00","","M","","M","","M","","","25","","28","","","","99.79","","","","","","NA"
"-73.74","45.47","MONTREAL/PIERRE ELLIOTT TRUDEAU INTL","702S006","2011-11-14 16:00","2011","11","14","16:00","","M","","M","","M","","","24","","17","","","","99.80","","","","","","NA"
"-73.74","45.47","MONTREAL/PIERRE ELLIOTT TRUDEAU INTL","702S006","2011-11-14 17:00","2011","11","14","17:00","","M","","M","","M","","","19","","11","","","","99.82","","","","","","NA"
"-73.74","45.47","MONTREAL/PIERRE ELLIOTT TRUDEAU INTL","702S006","2011-11-14 18:00","2011","11","14","18:00","","M","","M","","M","","","18","","13","","","","99.79","","","","","","NA"
"-73.74","45.47","MONTREAL/PIERRE ELLIOTT TRUDEAU INTL","702S006","2011-11-14 19:00","2011","11","14","19:00","","M","","M","","M","","","16","","13","","","","99.78","","","","","","NA"
"-73.74","45.47","MONTREAL/PIERRE ELLIOTT TRUDEAU INTL","702S006","2011-11-14 20:00","2011","11","14","20:00","","M","","M","","M","","","16","","11","","","","99.75","","","","","","NA"
"-73.74","45.47","MONTREAL/PIERRE ELLIOTT TRUDEAU INTL","702S006","2011-11-14 21:00","2011","11","14","21:00","","M","","M","","M","","","19","","7","","","","99.83","","","","","","NA"
"-73.74","45.47","MONTREAL/PIERRE ELLIOTT TRUDEAU INTL","702S006","2011-11-14 22:00","2011","11","14","22:00","","M","","M","","M","","","15","","6","","","","99.68","","","","","","NA"
"-73.74","45.47","MONTREAL/PIERRE ELLIOTT TRUDEAU INTL","702S006","2011-11-14 23:00","2011","11","14","23:00","","M","","M","","M","","","12","","9","","","","99.63","","","","","","NA"
"-73.74","45.47","MONTREAL/PIERRE ELLIOTT TRUDEAU INTL","702S006","2011-11-15 00:00","2011","11","15","00:00","","M","","M","","M","","","14","","4","","","","99.60","","","","","","NA"
"-73.74","45.47","MONTREAL/PIERRE ELLIOTT TRUDEAU INTL","702S006","2011-11-15 01:00","2011","11","15","01:00","","M","","M","","M","","","12","","2","","","","99.52","","","","","","NA"
"-73.74","45.47","MONTREAL/PIERRE ELLIOTT TRUDEAU INTL","702S006","2011-11-15 02:00","2011","11","15","02:00","","M","","M","","M","","","32","","13","","","","99.62","","","","","","NA"
"-73.74","45.47","MONTREAL/PIERRE ELLIOTT TRUDEAU INTL","702S006","2011-11-15 03:00","2011","11","15","03:00","","M","","M","","M","","","31","","15","","","","99.67","","","","","","NA"
"-73.74","45.47","MONTREAL/PIERRE ELLIOTT TRUDEAU INTL","702S006","2011-11-15 04:00","2011","11","15","04:00","","M","","M","","M","","","27","","9","","","","99.80","","","","","","NA"
"-73.74","45.47","MONTREAL/PIERRE ELLIOTT TRUDEAU INTL","702S006","2011-11-15 05:00","2011","11","15","05:00","","M","","M","","M","","","27","","13","","","","99.87","","","","","","NA"
"-73.74","45.47","MONTREAL/PIERRE ELLIOTT TRUDEAU INTL","702S006","2011-11-15 06:00","2011","11","15","06:00","","M","","M","","M","","","26","","15","","","","100.01","","","","","","NA"
"-73.74","45.47","MONTREAL/PIERRE ELLIOTT TRUDEAU INTL","702S006","2011-11-15 07:00","2011","11","15","07:00","","M","","M","","M","","","26","","17","","","","100.09","","","","","","NA"
"-73.74","45.47","MONTREAL/PIERRE ELLIOTT TRUDEAU INTL","702S006","2011-11-15 08:00","2011","11","15","08:00","","M","","M","","M","","","24","","13","","","","100.13","","","","","","NA"
"-73.74","45.47","MONTREAL/PIERRE ELLIOTT TRUDEAU INTL","702S006","2011-11-15 09:00","2011","11","15","09:00","","M","","M","","M","","","25","","13","","","","100.24","","","","","","NA"
"-73.74","45.47","MONTREAL/PIERRE ELLIOTT TRUDEAU INTL","702S006","2011-11-15 10:00","2011","11","15","10:00","","M","","M","","M","","","25","","17","","","","100.31","","","","","","NA"
"-73.74","45.47","MONTREAL/PIERRE ELLIOTT TRUDEAU INTL","702S006","2011-11-15 11:00","2011","11","15","11:00","","M","","M","","M","","","24","","13","","","","100.38","","","","","","NA"
"-73.74","45.47","MONTREAL/PIERRE ELLIOTT TRUDEAU INTL","702S006","2011-11-15 12:00","2011","11","15","12:00","","M","","M","","M","","","21","","19","","","","100.35","","","","","","NA"
"-73.74","45.47","MONTREAL/PIERRE ELLIOTT TRUDEAU INTL","702S006","2011-11-15 13:00","2011","11","15","13:00","","M","","M","","M","","","22","","17","","","","100.34","","","","","","NA"
"-73.74","45.47","MONTREAL/PIERRE ELLIOTT TRUDEAU INTL","702S006","2011-11-15 14:00","2011","11","15","14:00","","M","","M","","M","","","23","","19","","","","100.34","","","","","","NA"
"-73.74","45.47","MONTREAL/PIERRE ELLIOTT TRUDEAU INTL","702S006","2011-11-15 15:00","2011","11","15","15:00","","M","","M","","M","","","24","","17","","","","100.34","","","","","","NA"
"-73.74","45.47","MONTREAL/PIERRE ELLIOTT TRUDEAU INTL","702S006","2011-11-15 16:00","2011","11","15","16:00","","M","","M","","M","","","24","","17","","","","100.41","","","","","","NA"
"-73.74","45.47","MONTREAL/PIERRE ELLIOTT TRUDEAU INTL","702S006","2011-11-15 17:00","2011","11","15","17:00","","M","","M","","M","","","23","","9","","","","100.49","","","","","","NA"
"-73.74","45.47","MONTREAL/PIERRE ELLIOTT TRUDEAU INTL","702S006","2011-11-15 18:00","2011","11","15","18:00","","M","","M","","M","","","25","","7","","","","100.58","","","","","","NA"
"-73.74","45.47","MONTREAL/PIERRE ELLIOTT TRUDEAU INTL","702S006","2011-11-15 19:00","2011","11","15","19:00","","M","","M","","M","","","27","","6","","","","100.65","","","","","","NA"
"-73.74","45.47","MONTREAL/PIERRE ELLIOTT TRUDEAU INTL","702S006","2011-11-15 20:00","2011","11","15","20:00","","M","","M","","M","","","19","","9","","","","100.69","","","","","","NA"
"-73.74","45.47","MONTREAL/PIERRE ELLIOTT TRUDEAU INTL","702S006","2011-11-15 21:00","2011","11","15","21:00","","M","","M","","M","","","20","","11","","","","100.71","","","","","","NA"
"-73.74","45.47","MONTREAL/PIERRE ELLIOTT TRUDEAU INTL","702S006","2011-11-15 22:00","2011","11","15","22:00","","M","","M","","M","","","20","","11","","","","100.73","","","","","","NA"
"-73.74","45.47","MONTREAL/PIERRE ELLIOTT TRUDEAU INTL","702S006","2011-11-15 23:00","2011","11","15","23:00","","M","","M","","M","","","18","","9","","","","100.72","","","","","","NA"
"-73.74","45.47","MONTREAL/PIERRE ELLIOTT TRUDEAU INTL","702S006","2011-11-16 00:00","2011","11","16","00:00","","M","","M","","M","","","17","","9","","","","100.72","","","","","","NA"
"-73.74","45.47","MONTREAL/PIERRE ELLIOTT TRUDEAU INTL","702S006","2011-11-16 01:00","2011","11","16","01:00","","M","","M","","M","","","15","","11","","","","100.68","","","","","","NA"
"-73.74","45.47","MONTREAL/PIERRE ELLIOTT TRUDEAU INTL","702S006","2011-11-16 02:00","2011","11","16","02:00","","M","","M","","M","","","10","","6","","","","100.67","","","","","","NA"
"-73.74","45.47","MONTREAL/PIERRE ELLIOTT TRUDEAU INTL","702S006","2011-11-16 03:00","2011","11","16","03:00","","M","","M","","M","","","11","","7","","","","100.64","","","","","","NA"
"-73.74","45.47","MONTREAL/PIERRE ELLIOTT TRUDEAU INTL","702S006","2011-11-16 04:00","2011","11","16","04:00","","M","","M","","M","","","13","","9","","","","100.59","","","","","","NA"
"-73.74","45.47","MONTREAL/PIERRE ELLIOTT TRUDEAU INTL","702S006","2011-11-16 05:00","2011","11","16","05:00","","M","","M","","M","","","16","","15","","","","100.55","","","","","","NA"
"-73.74","45.47","MONTREAL/PIERRE ELLIOTT TRUDEAU INTL","702S006","2011-11-16 06:00","2011","11","16","06:00","","M","","M","","M","","","17","","15","","","","100.54","","","","","","NA"
"-73.74","45.47","MONTREAL/PIERRE ELLIOTT TRUDEAU INTL","702S006","2011-11-16 07:00","2011","11","16","07:00","","M","","M","","M","","","18","","17","","","","100.57","","","","","","NA"
"-73.74","45.47","MONTREAL/PIERRE ELLIOTT TRUDEAU INTL","702S006","2011-11-16 08:00","2011","11","16","08:00","","M","","M","","M","","","18","","17","","","","100.57","","","","","","NA"
"-73.74","45.47","MONTREAL/PIERRE ELLIOTT TRUDEAU INTL","702S006","2011-11-16 09:00","2011","11","16","09:00","","M","","M","","M","","","18","","15","","","","100.56","","","","","","NA"
"-73.74","45.47","MONTREAL/PIERRE ELLIOTT TRUDEAU INTL","702S006","2011-11-16 10:00","2011","11","16","10:00","","M","","M","","M","","","16","","15","","","","100.49","","","","","","NA"
"-73.74","45.47","MONTREAL/PIERRE ELLIOTT TRUDEAU INTL","702S006","2011-11-16 11:00","2011","11","16","11:00","","M","","M","","M","","","17","","15","","","","100.43","","","","","","NA"
"-73.74","45.47","MONTREAL/PIERRE ELLIOTT TRUDEAU INTL","702S006","2011-11-16 12:00","2011","11","16","12:00","","M","","M","","M","","","16","","15","","","","100.28","","","","","","NA"
"-73.74","45.47","MONTREAL/PIERRE ELLIOTT TRUDEAU INTL","702S006","2011-11-16 13:00","2011","11","16","13:00","","M","","M","","M","","","19","","17","","","","100.20","","","","","","NA"
"-73.74","45.47","MONTREAL/PIERRE ELLIOTT TRUDEAU INTL","702S006","2011-11-16 14:00","2011","11","16","14:00","","M","","M","","M","","","16","","15","","","","100.14","","","","","","NA"
"-73.74","45.47","MONTREAL/PIERRE ELLIOTT TRUDEAU INTL","702S006","2011-11-16 15:00","2011","11","16","15:00","","M","","M","","M","","","15","","11","","","","100.09","","","","","","NA"
"-73.74","45.47","MONTREAL/PIERRE ELLIOTT TRUDEAU INTL","702S006","2011-11-16 16:00","2011","11","16","16:00","","M","","M","","M","","","16","","11","","","","100.05","","","","","","NA"
"-73.74","45.47","MONTREAL/PIERRE ELLIOTT TRUDEAU INTL","702S006","2011-11-16 17:00","2011","11","16","17:00","","M","","M","","M","","","16","","7","","","","100.05","","","","","","NA"
"-73.74","45.47","MONTREAL/PIERRE ELLIOTT TRUDEAU INTL","702S006","2011-11-16 18:00","2011","11","16","18:00","","M","","M","","M","","","22","","13","","","","100.04","","","","","","NA"
"-73.74","45.47","MONTREAL/PIERRE ELLIOTT TRUDEAU INTL","702S006","2011-11-16 19:00","2011","11","16","19:00","","M","","M","","M","","","23","","17","","","","100.05","","","","","","NA"
"-73.74","45.47","MONTREAL/PIERRE ELLIOTT TRUDEAU INTL","702S006","2011-11-16 20:00","2011","11","16","20:00","","M","","M","","M","","","24","","19","","","","100.09","","","","","","NA"
"-73.74","45.47","MONTREAL/PIERRE ELLIOTT TRUDEAU INTL","702S006","2011-11-16 21:00","2011","11","16","21:00","","M","","M","","M","","","27","","30","","","","100.18","","","","","","NA"
"-73.74","45.47","MONTREAL/PIERRE ELLIOTT TRUDEAU INTL","702S006","2011-11-16 22:00","2011","11","16","22:00","","M","","M","","M","","","27","","26","","","","100.26","","","","","","NA"
"-73.74","45.47","MONTREAL/PIERRE ELLIOTT TRUDEAU INTL","702S006","2011-11-16 23:00","2011","11","16","23:00","","M","","M","","M","","","27","","24","","","","100.31","","","","","","NA"
"-73.74","45.47","MONTREAL/PIERRE ELLIOTT TRUDEAU INTL","702S006","2011-11-17 00:00","2011","11","17","00:00","","M","","M","","M","","","28","","24","","","","100.38","","","","","","NA"
"-73.74","45.47","MONTREAL/PIERRE ELLIOTT TRUDEAU INTL","702S006","2011-11-17 01:00","2011","11","17","01:00","","M","","M","","M","","","28","","19","","","","100.44","","","","","","NA"
"-73.74","45.47","MONTREAL/PIERRE ELLIOTT TRUDEAU INTL","702S006","2011-11-17 02:00","2011","11","17","02:00","","M","","M","","M","","","26","","17","","","","100.48","","","","","","NA"
"-73.74","45.47","MONTREAL/PIERRE ELLIOTT TRUDEAU INTL","702S006","2011-11-17 03:00","2011","11","17","03:00","","M","","M","","M","","","26","","19","","","","100.49","","","","","","NA"
"-73.74","45.47","MONTREAL/PIERRE ELLIOTT TRUDEAU INTL","702S006","2011-11-17 04:00","2011","11","17","04:00","","M","","M","","M","","","25","","13","","","","100.55","","","","","","NA"
"-73.74","45.47","MONTREAL/PIERRE ELLIOTT TRUDEAU INTL","702S006","2011-11-17 05:00","2011","11","17","05:00","","M","","M","","M","","","26","","11","","","","100.58","","","","","","NA"
"-73.74","45.47","MONTREAL/PIERRE ELLIOTT TRUDEAU INTL","702S006","2011-11-17 06:00","2011","11","17","06:00","","M","","M","","M","","","25","","13","","","","100.59","","","","","","NA"
"-73.74","45.47","MONTREAL/PIERRE ELLIOTT TRUDEAU INTL","702S006","2011-11-17 07:00","2011","11","17","07:00","","M","","M","","M","","","25","","9","","","","100.61","","","","","","NA"
"-73.74","45.47","MONTREAL/PIERRE ELLIOTT TRUDEAU INTL","702S006","2011-11-17 08:00","2011","11","17","08:00","","M","","M","","M","","","26","","9","","","","100.69","","","","","","NA"
"-73.74","45.47","MONTREAL/PIERRE ELLIOTT TRUDEAU INTL","702S006","2011-11-17 09:00","2011","11","17","09:00","","M","","M","","M","","","25","","11","","","","100.68","","","","","","NA"
"-73.74","45.47","MONTREAL/PIERRE ELLIOTT TRUDEAU INTL","702S006","2011-11-17 10:00","2011","11","17","10:00","","M","","M","","M","","","27","","13","","","","100.66","","","","","","NA"
"-73.74","45.47","MONTREAL/PIERRE ELLIOTT TRUDEAU INTL","702S006","2011-11-17 11:00","2011","11","17","11:00","","M","","M","","M","","","26","","13","","","","100.67","","","","","","NA"
"-73.74","45.47","MONTREAL/PIERRE ELLIOTT TRUDEAU INTL","702S006","2011-11-17 12:00","2011","11","17","12:00","","M","","M","","M","","","27","","13","","","","100.61","","","","","","NA"
"-73.74","45.47","MONTREAL/PIERRE ELLIOTT TRUDEAU INTL","702S006","2011-11-17 13:00","2011","11","17","13:00","","M","","M","","M","","","26","","9","","","","100.52","","","","","","NA"
"-73.74","45.47","MONTREAL/PIERRE ELLIOTT TRUDEAU INTL","702S006","2011-11-17 14:00","2011","11","17","14:00","","M","","M","","M","","","21","","9","","","","100.47","","","","","","NA"
"-73.74","45.47","MONTREAL/PIERRE ELLIOTT TRUDEAU INTL","702S006","2011-11-17 15:00","2011","11","17","15:00","","M","","M","","M","","","27","","20","","","","100.48","","","","","","NA"
"-73.74","45.47","MONTREAL/PIERRE ELLIOTT TRUDEAU INTL","702S006","2011-11-17 16:00","2011","11","17","16:00","","M","","M","","M","","","24","","9","","","","100.47","","","","","","NA"
"-73.74","45.47","MONTREAL/PIERRE ELLIOTT TRUDEAU INTL","702S006","2011-11-17 17:00","2011","11","17","17:00","","M","","M","","M","","","26","","17","","","","100.50","","","","","","NA"
"-73.74","45.47","MONTREAL/PIERRE ELLIOTT TRUDEAU INTL","702S006","2011-11-17 18:00","2011","11","17","18:00","","M","","M","","M","","","31","","9","","","","100.55","","","","","","NA"
"-73.74","45.47","MONTREAL/PIERRE ELLIOTT TRUDEAU INTL","702S006","2011-11-17 19:00","2011","11","17","19:00","","M","","M","","M","","","30","","6","","","","100.58","","","","","","NA"
"-73.74","45.47","MONTREAL/PIERRE ELLIOTT TRUDEAU INTL","702S006","2011-11-17 20:00","2011","11","17","20:00","","M","","M","","M","","","25","","7","","","","100.59","","","","","","NA"
"-73.74","45.47","MONTREAL/PIERRE ELLIOTT TRUDEAU INTL","702S006","2011-11-17 21:00","2011","11","17","21:00","","M","","M","","M","","","25","","7","","","","100.63","","","","","","NA"
"-73.74","45.47","MONTREAL/PIERRE ELLIOTT TRUDEAU INTL","702S006","2011-11-17 22:00","2011","11","17","22:00","","M","","M","","M","","","26","","13","","","","100.65","","","","","","NA"
"-73.74","45.47","MONTREAL/PIERRE ELLIOTT TRUDEAU INTL","702S006","2011-11-17 23:00","2011","11","17","23:00","","M","","M","","M","","","25","","9","","","","100.65","","","","","","NA"
"-73.74","45.47","MONTREAL/PIERRE ELLIOTT TRUDEAU INTL","702S006","2011-11-18 00:00","2011","11","18","00:00","","M","","M","","M","","","25","","15","","","","100.70","","","","","","NA"
"-73.74","45.47","MONTREAL/PIERRE ELLIOTT TRUDEAU INTL","702S006","2011-11-18 01:00","2011","11","18","01:00","","M","","M","","M","","","25","","19","","","","100.74","","","","","","NA"
"-73.74","45.47","MONTREAL/PIERRE ELLIOTT TRUDEAU INTL","702S006","2011-11-18 02:00","2011","11","18","02:00","","M","","M","","M","","","25","","15","","","","100.85","","","","","","NA"
"-73.74","45.47","MONTREAL/PIERRE ELLIOTT TRUDEAU INTL","702S006","2011-11-18 03:00","2011","11","18","03:00","","M","","M","","M","","","27","","20","","","","100.98","","","","","","NA"
"-73.74","45.47","MONTREAL/PIERRE ELLIOTT TRUDEAU INTL","702S006","2011-11-18 04:00","2011","11","18","04:00","","M","","M","","M","","","28","","22","","","","101.11","","","","","","NA"
"-73.74","45.47","MONTREAL/PIERRE ELLIOTT TRUDEAU INTL","702S006","2011-11-18 05:00","2011","11","18","05:00","","M","","M","","M","","","28","","22","","","","101.26","","","","","","NA"
"-73.74","45.47","MONTREAL/PIERRE ELLIOTT TRUDEAU INTL","702S006","2011-11-18 06:00","2011","11","18","06:00","","M","","M","","M","","","29","","19","","","","101.40","","","","","","NA"
"-73.74","45.47","MONTREAL/PIERRE ELLIOTT TRUDEAU INTL","702S006","2011-11-18 07:00","2011","11","18","07:00","","M","","M","","M","","","28","","17","","","","101.51","","","","","","NA"
"-73.74","45.47","MONTREAL/PIERRE ELLIOTT TRUDEAU INTL","702S006","2011-11-18 08:00","2011","11","18","08:00","","M","","M","","M","","","26","","13","","","","101.66","","","","","","NA"
"-73.74","45.47","MONTREAL/PIERRE ELLIOTT TRUDEAU INTL","702S006","2011-11-18 09:00","2011","11","18","09:00","","M","","M","","M","","","25","","15","","","","101.76","","","","","","NA"
"-73.74","45.47","MONTREAL/PIERRE ELLIOTT TRUDEAU INTL","702S006","2011-11-18 10:00","2011","11","18","10:00","","M","","M","","M","","","26","","20","","","","101.77","","","","","","NA"
"-73.74","45.47","MONTREAL/PIERRE ELLIOTT TRUDEAU INTL","702S006","2011-11-18 11:00","2011","11","18","11:00","","M","","M","","M","","","26","","24","","","","101.81","","","","","","NA"
"-73.74","45.47","MONTREAL/PIERRE ELLIOTT TRUDEAU INTL","702S006","2011-11-18 12:00","2011","11","18","12:00","","M","","M","","M","","","27","","24","","","","101.84","","","","","","NA"
"-73.74","45.47","MONTREAL/PIERRE ELLIOTT TRUDEAU INTL","702S006","2011-11-18 13:00","2011","11","18","13:00","","M","","M","","M","","","25","","20","","","","101.88","","","","","","NA"
"-73.74","45.47","MONTREAL/PIERRE ELLIOTT TRUDEAU INTL","702S006","2011-11-18 14:00","2011","11","18","14:00","","M","","M","","M","","","25","","20","","","","101.84","","","","","","NA"
"-73.74","45.47","MONTREAL/PIERRE ELLIOTT TRUDEAU INTL","702S006","2011-11-18 15:00","2011","11","18","15:00","","M","","M","","M","","","25","","15","","","","101.84","","","","","","NA"
"-73.74","45.47","MONTREAL/PIERRE ELLIOTT TRUDEAU INTL","702S006","2011-11-18 16:00","2011","11","18","16:00","","M","","M","","M","","","24","","11","","","","101.85","","","","","","NA"
"-73.74","45.47","MONTREAL/PIERRE ELLIOTT TRUDEAU INTL","702S006","2011-11-18 17:00","2011","11","18","17:00","","M","","M","","M","","","24","","17","","","","101.88","","","","","","NA"
"-73.74","45.47","MONTREAL/PIERRE ELLIOTT TRUDEAU INTL","702S006","2011-11-18 18:00","2011","11","18","18:00","","M","","M","","M","","","24","","11","","","","101.88","","","","","","NA"
"-73.74","45.47","MONTREAL/PIERRE ELLIOTT TRUDEAU INTL","702S006","2011-11-18 19:00","2011","11","18","19:00","","M","","M","","M","","","23","","9","","","","101.86","","","","","","NA"
"-73.74","45.47","MONTREAL/PIERRE ELLIOTT TRUDEAU INTL","702S006","2011-11-18 20:00","2011","11","18","20:00","","M","","M","","M","","","22","","22","","","","101.87","","","","","","NA"
"-73.74","45.47","MONTREAL/PIERRE ELLIOTT TRUDEAU INTL","702S006","2011-11-18 21:00","2011","11","18","21:00","","M","","M","","M","","","19","","15","","","","101.87","","","","","","NA"
"-73.74","45.47","MONTREAL/PIERRE ELLIOTT TRUDEAU INTL","702S006","2011-11-18 22:00","2011","11","18","22:00","","M","","M","","M","","","17","","15","","","","101.82","","","","","","NA"
"-73.74","45.47","MONTREAL/PIERRE ELLIOTT TRUDEAU INTL","702S006","2011-11-18 23:00","2011","11","18","23:00","","M","","M","","M","","","16","","13","","","","101.79","","","","","","NA"
"-73.74","45.47","MONTREAL/PIERRE ELLIOTT TRUDEAU INTL","702S006","2011-11-19 00:00","2011","11","19","00:00","","M","","M","","M","","","13","","13","","","","101.76","","","","","","NA"
"-73.74","45.47","MONTREAL/PIERRE ELLIOTT TRUDEAU INTL","702S006","2011-11-19 01:00","2011","11","19","01:00","","M","","M","","M","","","14","","11","","","","101.71","","","","","","NA"
"-73.74","45.47","MONTREAL/PIERRE ELLIOTT TRUDEAU INTL","702S006","2011-11-19 02:00","2011","11","19","02:00","","M","","M","","M","","","14","","15","","","","101.67","","","","","","NA"
"-73.74","45.47","MONTREAL/PIERRE ELLIOTT TRUDEAU INTL","702S006","2011-11-19 03:00","2011","11","19","03:00","","M","","M","","M","","","16","","15","","","","101.66","","","","","","NA"
"-73.74","45.47","MONTREAL/PIERRE ELLIOTT TRUDEAU INTL","702S006","2011-11-19 04:00","2011","11","19","04:00","","M","","M","","M","","","16","","15","","","","101.62","","","","","","NA"
"-73.74","45.47","MONTREAL/PIERRE ELLIOTT TRUDEAU INTL","702S006","2011-11-19 05:00","2011","11","19","05:00","","M","","M","","M","","","17","","11","","","","101.63","","","","","","NA"
"-73.74","45.47","MONTREAL/PIERRE ELLIOTT TRUDEAU INTL","702S006","2011-11-19 06:00","2011","11","19","06:00","","M","","M","","M","","","17","","13","","","","101.61","","","","","","NA"
"-73.74","45.47","MONTREAL/PIERRE ELLIOTT TRUDEAU INTL","702S006","2011-11-19 07:00","2011","11","19","07:00","","M","","M","","M","","","15","","13","","","","101.64","","","","","","NA"
"-73.74","45.47","MONTREAL/PIERRE ELLIOTT TRUDEAU INTL","702S006","2011-11-19 08:00","2011","11","19","08:00","","M","","M","","M","","","14","","13","","","","101.64","","","","","","NA"
"-73.74","45.47","MONTREAL/PIERRE ELLIOTT TRUDEAU INTL","702S006","2011-11-19 09:00","2011","11","19","09:00","","M","","M","","M","","","14","","17","","","","101.60","","","","","","NA"
"-73.74","45.47","MONTREAL/PIERRE ELLIOTT TRUDEAU INTL","702S006","2011-11-19 10:00","2011","11","19","10:00","","M","","M","","M","","","14","","15","","","","101.54","","","","","","NA"
"-73.74","45.47","MONTREAL/PIERRE ELLIOTT TRUDEAU INTL","702S006","2011-11-19 11:00","2011","11","19","11:00","","M","","M","","M","","","20","","17","","","","101.58","","","","","","NA"
"-73.74","45.47","MONTREAL/PIERRE ELLIOTT TRUDEAU INTL","702S006","2011-11-19 12:00","2011","11","19","12:00","","M","","M","","M","","","15","","15","","","","101.50","","","","","","NA"
"-73.74","45.47","MONTREAL/PIERRE ELLIOTT TRUDEAU INTL","702S006","2011-11-19 13:00","2011","11","19","13:00","","M","","M","","M","","","19","","7","","","","101.43","","","","","","NA"
"-73.74","45.47","MONTREAL/PIERRE ELLIOTT TRUDEAU INTL","702S006","2011-11-19 14:00","2011","11","19","14:00","","M","","M","","M","","","19","","7","","","","101.38","","","","","","NA"
"-73.74","45.47","MONTREAL/PIERRE ELLIOTT TRUDEAU INTL","702S006","2011-11-19 15:00","2011","11","19","15:00","","M","","M","","M","","","22","","7","","","","101.37","","","","","","NA"
"-73.74","45.47","MONTREAL/PIERRE ELLIOTT TRUDEAU INTL","702S006","2011-11-19 16:00","2011","11","19","16:00","","M","","M","","M","","","15","","15","","","","101.35","","","","","","NA"
"-73.74","45.47","MONTREAL/PIERRE ELLIOTT TRUDEAU INTL","702S006","2011-11-19 17:00","2011","11","19","17:00","","M","","M","","M","","","15","","13","","","","101.34","","","","","","NA"
"-73.74","45.47","MONTREAL/PIERRE ELLIOTT TRUDEAU INTL","702S006","2011-11-19 18:00","2011","11","19","18:00","","M","","M","","M","","","16","","15","","","","101.33","","","","","","NA"
"-73.74","45.47","MONTREAL/PIERRE ELLIOTT TRUDEAU INTL","702S006","2011-11-19 19:00","2011","11","19","19:00","","M","","M","","M","","","15","","11","","","","101.27","","","","","","NA"
"-73.74","45.47","MONTREAL/PIERRE ELLIOTT TRUDEAU INTL","702S006","2011-11-19 20:00","2011","11","19","20:00","","M","","M","","M","","","15","","13","","","","101.23","","","","","","NA"
"-73.74","45.47","MONTREAL/PIERRE ELLIOTT TRUDEAU INTL","702S006","2011-11-19 21:00","2011","11","19","21:00","","M","","M","","M","","","16","","13","","","","101.19","","","","","","NA"
"-73.74","45.47","MONTREAL/PIERRE ELLIOTT TRUDEAU INTL","702S006","2011-11-19 22:00","2011","11","19","22:00","","M","","M","","M","","","25","","6","","","","101.24","","","","","","NA"
"-73.74","45.47","MONTREAL/PIERRE ELLIOTT TRUDEAU INTL","702S006","2011-11-19 23:00","2011","11","19","23:00","","M","","M","","M","","","18","","17","","","","101.08","","","","","","NA"
"-73.74","45.47","MONTREAL/PIERRE ELLIOTT TRUDEAU INTL","702S006","2011-11-20 00:00","2011","11","20","00:00","","M","","M","","M","","","15","","19","","","","100.98","","","","","","NA"
"-73.74","45.47","MONTREAL/PIERRE ELLIOTT TRUDEAU INTL","702S006","2011-11-20 01:00","2011","11","20","01:00","","M","","M","","M","","","16","","22","","","","100.88","","","","","","NA"
"-73.74","45.47","MONTREAL/PIERRE ELLIOTT TRUDEAU INTL","702S006","2011-11-20 02:00","2011","11","20","02:00","","M","","M","","M","","","15","","17","","","","100.80","","","","","","NA"
"-73.74","45.47","MONTREAL/PIERRE ELLIOTT TRUDEAU INTL","702S006","2011-11-20 03:00","2011","11","20","03:00","","M","","M","","M","","","15","","20","","","","100.64","","","","","","NA"
"-73.74","45.47","MONTREAL/PIERRE ELLIOTT TRUDEAU INTL","702S006","2011-11-20 04:00","2011","11","20","04:00","","M","","M","","M","","","15","","20","","","","100.50","","","","","","NA"
"-73.74","45.47","MONTREAL/PIERRE ELLIOTT TRUDEAU INTL","702S006","2011-11-20 05:00","2011","11","20","05:00","","M","","M","","M","","","15","","19","","","","100.38","","","","","","NA"
"-73.74","45.47","MONTREAL/PIERRE ELLIOTT TRUDEAU INTL","702S006","2011-11-20 06:00","2011","11","20","06:00","","M","","M","","M","","","16","","19","","","","100.32","","","","","","NA"
"-73.74","45.47","MONTREAL/PIERRE ELLIOTT TRUDEAU INTL","702S006","2011-11-20 07:00","2011","11","20","07:00","","M","","M","","M","","","17","","15","","","","100.31","","","","","","NA"
"-73.74","45.47","MONTREAL/PIERRE ELLIOTT TRUDEAU INTL","702S006","2011-11-20 08:00","2011","11","20","08:00","","M","","M","","M","","","23","","30","","","","100.32","","","","","","NA"
"-73.74","45.47","MONTREAL/PIERRE ELLIOTT TRUDEAU INTL","702S006","2011-11-20 09:00","2011","11","20","09:00","","M","","M","","M","","","23","","28","","","","100.32","","","","","","NA"
"-73.74","45.47","MONTREAL/PIERRE ELLIOTT TRUDEAU INTL","702S006","2011-11-20 10:00","2011","11","20","10:00","","M","","M","","M","","","23","","26","","","","100.39","","","","","","NA"
"-73.74","45.47","MONTREAL/PIERRE ELLIOTT TRUDEAU INTL","702S006","2011-11-20 11:00","2011","11","20","11:00","","M","","M","","M","","","27","","24","","","","100.54","","","","","","NA"
"-73.74","45.47","MONTREAL/PIERRE ELLIOTT TRUDEAU INTL","702S006","2011-11-20 12:00","2011","11","20","12:00","","M","","M","","M","","","29","","26","","","","100.62","","","","","","NA"
"-73.74","45.47","MONTREAL/PIERRE ELLIOTT TRUDEAU INTL","702S006","2011-11-20 13:00","2011","11","20","13:00","","M","","M","","M","","","32","","13","","","","100.79","","","","","","NA"
"-73.74","45.47","MONTREAL/PIERRE ELLIOTT TRUDEAU INTL","702S006","2011-11-20 14:00","2011","11","20","14:00","","M","","M","","M","","","31","","20","","","","100.91","","","","","","NA"
"-73.74","45.47","MONTREAL/PIERRE ELLIOTT TRUDEAU INTL","702S006","2011-11-20 15:00","2011","11","20","15:00","","M","","M","","M","","","30","","19","","","","101.10","","","","","","NA"
"-73.74","45.47","MONTREAL/PIERRE ELLIOTT TRUDEAU INTL","702S006","2011-11-20 16:00","2011","11","20","16:00","","M","","M","","M","","","31","","20","","","","101.26","","","","","","NA"
"-73.74","45.47","MONTREAL/PIERRE ELLIOTT TRUDEAU INTL","702S006","2011-11-20 17:00","2011","11","20","17:00","","M","","M","","M","","","30","","17","","","","101.43","","","","","","NA"
"-73.74","45.47","MONTREAL/PIERRE ELLIOTT TRUDEAU INTL","702S006","2011-11-20 18:00","2011","11","20","18:00","","M","","M","","M","","","32","","22","","","","101.59","","","","","","NA"
"-73.74","45.47","MONTREAL/PIERRE ELLIOTT TRUDEAU INTL","702S006","2011-11-20 19:00","2011","11","20","19:00","","M","","M","","M","","","33","","17","","","","101.72","","","","","","NA"
"-73.74","45.47","MONTREAL/PIERRE ELLIOTT TRUDEAU INTL","702S006","2011-11-20 20:00","2011","11","20","20:00","","M","","M","","M","","","35","","15","","","","101.81","","","","","","NA"
"-73.74","45.47","MONTREAL/PIERRE ELLIOTT TRUDEAU INTL","702S006","2011-11-20 21:00","2011","11","20","21:00","","M","","M","","M","","","35","","15","","","","101.89","","","","","","NA"
"-73.74","45.47","MONTREAL/PIERRE ELLIOTT TRUDEAU INTL","702S006","2011-11-20 22:00","2011","11","20","22:00","","M","","M","","M","","","1","","15","","","","101.94","","","","","","NA"
"-73.74","45.47","MONTREAL/PIERRE ELLIOTT TRUDEAU INTL","702S006","2011-11-20 23:00","2011","11","20","23:00","","M","","M","","M","","","35","","17","","","","102.04","","","","","","NA"
"-73.74","45.47","MONTREAL/PIERRE ELLIOTT TRUDEAU INTL","702S006","2011-11-21 00:00","2011","11","21","00:00","","M","","M","","M","","","1","","17","","","","102.12","","","","","","NA"
"-73.74","45.47","MONTREAL/PIERRE ELLIOTT TRUDEAU INTL","702S006","2011-11-21 01:00","2011","11","21","01:00","","M","","M","","M","","","2","","15","","","","102.20","","","","","","NA"
"-73.74","45.47","MONTREAL/PIERRE ELLIOTT TRUDEAU INTL","702S006","2011-11-21 02:00","2011","11","21","02:00","","M","","M","","M","","","36","","9","","","","102.29","","","","","","NA"
"-73.74","45.47","MONTREAL/PIERRE ELLIOTT TRUDEAU INTL","702S006","2011-11-21 03:00","2011","11","21","03:00","","M","","M","","M","","","1","","11","","","","102.36","","","","","","NA"
"-73.74","45.47","MONTREAL/PIERRE ELLIOTT TRUDEAU INTL","702S006","2011-11-21 04:00","2011","11","21","04:00","","M","","M","","M","","","1","","11","","","","102.44","","","","","","NA"
"-73.74","45.47","MONTREAL/PIERRE ELLIOTT TRUDEAU INTL","702S006","2011-11-21 05:00","2011","11","21","05:00","","M","","M","","M","","","2","","11","","","","102.49","","","","","","NA"
"-73.74","45.47","MONTREAL/PIERRE ELLIOTT TRUDEAU INTL","702S006","2011-11-21 06:00","2011","11","21","06:00","","M","","M","","M","","","2","","13","","","","102.56","","","","","","NA"
"-73.74","45.47","MONTREAL/PIERRE ELLIOTT TRUDEAU INTL","702S006","2011-11-21 07:00","2011","11","21","07:00","","M","","M","","M","","","2","","11","","","","102.64","","","","","","NA"
"-73.74","45.47","MONTREAL/PIERRE ELLIOTT TRUDEAU INTL","702S006","2011-11-21 08:00","2011","11","21","08:00","","M","","M","","M","","","4","","17","","","","102.67","","","","","","NA"
"-73.74","45.47","MONTREAL/PIERRE ELLIOTT TRUDEAU INTL","702S006","2011-11-21 09:00","2011","11","21","09:00","","M","","M","","M","","","4","","13","","","","102.73","","","","","","NA"
"-73.74","45.47","MONTREAL/PIERRE ELLIOTT TRUDEAU INTL","702S006","2011-11-21 10:00","2011","11","21","10:00","","M","","M","","M","","","3","","9","","","","102.77","","","","","","NA"
"-73.74","45.47","MONTREAL/PIERRE ELLIOTT TRUDEAU INTL","702S006","2011-11-21 11:00","2011","11","21","11:00","","M","","M","","M","","","7","","4","","","","102.72","","","","","","NA"
"-73.74","45.47","MONTREAL/PIERRE ELLIOTT TRUDEAU INTL","702S006","2011-11-21 12:00","2011","11","21","12:00","","M","","M","","M","","","4","","4","","","","102.66","","","","","","NA"
"-73.74","45.47","MONTREAL/PIERRE ELLIOTT TRUDEAU INTL","702S006","2011-11-21 13:00","2011","11","21","13:00","","M","","M","","M","","","36","","6","","","","102.59","","","","","","NA"
"-73.74","45.47","MONTREAL/PIERRE ELLIOTT TRUDEAU INTL","702S006","2011-11-21 14:00","2011","11","21","14:00","","M","","M","","M","","","17","","2","","","","102.53","","","","","","NA"
"-73.74","45.47","MONTREAL/PIERRE ELLIOTT TRUDEAU INTL","702S006","2011-11-21 15:00","2011","11","21","15:00","","M","","M","","M","","","3","","2","","","","102.53","","","","","","NA"
"-73.74","45.47","MONTREAL/PIERRE ELLIOTT TRUDEAU INTL","702S006","2011-11-21 16:00","2011","11","21","16:00","","M","","M","","M","","","34","","2","","","","102.54","","","","","","NA"
"-73.74","45.47","MONTREAL/PIERRE ELLIOTT TRUDEAU INTL","702S006","2011-11-21 17:00","2011","11","21","17:00","","M","","M","","M","","","1","","6","","","","102.55","","","","","","NA"
"-73.74","45.47","MONTREAL/PIERRE ELLIOTT TRUDEAU INTL","702S006","2011-11-21 18:00","2011","11","21","18:00","","M","","M","","M","","","3","","4","","","","102.56","","","","","","NA"
"-73.74","45.47","MONTREAL/PIERRE ELLIOTT TRUDEAU INTL","702S006","2011-11-21 19:00","2011","11","21","19:00","","M","","M","","M","","","10","","2","","","","102.57","","","","","","NA"
"-73.74","45.47","MONTREAL/PIERRE ELLIOTT TRUDEAU INTL","702S006","2011-11-21 20:00","2011","11","21","20:00","","M","","M","","M","","","11","","7","","","","102.55","","","","","","NA"
"-73.74","45.47","MONTREAL/PIERRE ELLIOTT TRUDEAU INTL","702S006","2011-11-21 21:00","2011","11","21","21:00","","M","","M","","M","","","12","","6","","","","102.54","","","","","","NA"
"-73.74","45.47","MONTREAL/PIERRE ELLIOTT TRUDEAU INTL","702S006","2011-11-21 22:00","2011","11","21","22:00","","M","","M","","M","","","10","","4","","","","102.52","","","","","","NA"
"-73.74","45.47","MONTREAL/PIERRE ELLIOTT TRUDEAU INTL","702S006","2011-11-21 23:00","2011","11","21","23:00","","M","","M","","M","","","10","","4","","","","102.52","","","","","","NA"
"-73.74","45.47","MONTREAL/PIERRE ELLIOTT TRUDEAU INTL","702S006","2011-11-22 00:00","2011","11","22","00:00","","M","","M","","M","","","","","0","","","","102.52","","","","","","NA"
"-73.74","45.47","MONTREAL/PIERRE ELLIOTT TRUDEAU INTL","702S006","2011-11-22 01:00","2011","11","22","01:00","","M","","M","","M","","","2","","4","","","","102.51","","","","","","NA"
"-73.74","45.47","MONTREAL/PIERRE ELLIOTT TRUDEAU INTL","702S006","2011-11-22 02:00","2011","11","22","02:00","","M","","M","","M","","","31","","2","","","","102.52","","","","","","NA"
"-73.74","45.47","MONTREAL/PIERRE ELLIOTT TRUDEAU INTL","702S006","2011-11-22 03:00","2011","11","22","03:00","","M","","M","","M","","","34","","4","","","","102.58","","","","","","NA"
"-73.74","45.47","MONTREAL/PIERRE ELLIOTT TRUDEAU INTL","702S006","2011-11-22 04:00","2011","11","22","04:00","","M","","M","","M","","","34","","4","","","","102.58","","","","","","NA"
"-73.74","45.47","MONTREAL/PIERRE ELLIOTT TRUDEAU INTL","702S006","2011-11-22 05:00","2011","11","22","05:00","","M","","M","","M","","","32","","4","","","","102.66","","","","","","NA"
"-73.74","45.47","MONTREAL/PIERRE ELLIOTT TRUDEAU INTL","702S006","2011-11-22 06:00","2011","11","22","06:00","","M","","M","","M","","","35","","6","","","","102.67","","","","","","NA"
"-73.74","45.47","MONTREAL/PIERRE ELLIOTT TRUDEAU INTL","702S006","2011-11-22 07:00","2011","11","22","07:00","","M","","M","","M","","","33","","4","","","","102.70","","","","","","NA"
"-73.74","45.47","MONTREAL/PIERRE ELLIOTT TRUDEAU INTL","702S006","2011-11-22 08:00","2011","11","22","08:00","","M","","M","","M","","","36","","6","","","","102.75","","","","","","NA"
"-73.74","45.47","MONTREAL/PIERRE ELLIOTT TRUDEAU INTL","702S006","2011-11-22 09:00","2011","11","22","09:00","","M","","M","","M","","","33","","4","","","","102.80","","","","","","NA"
"-73.74","45.47","MONTREAL/PIERRE ELLIOTT TRUDEAU INTL","702S006","2011-11-22 10:00","2011","11","22","10:00","","M","","M","","M","","","21","","4","","","","102.78","","","","","","NA"
"-73.74","45.47","MONTREAL/PIERRE ELLIOTT TRUDEAU INTL","702S006","2011-11-22 11:00","2011","11","22","11:00","","M","","M","","M","","","5","","2","","","","102.72","","","","","","NA"
"-73.74","45.47","MONTREAL/PIERRE ELLIOTT TRUDEAU INTL","702S006","2011-11-22 12:00","2011","11","22","12:00","","M","","M","","M","","","19","","6","","","","102.62","","","","","","NA"
"-73.74","45.47","MONTREAL/PIERRE ELLIOTT TRUDEAU INTL","702S006","2011-11-22 13:00","2011","11","22","13:00","","M","","M","","M","","","19","","6","","","","102.55","","","","","","NA"
"-73.74","45.47","MONTREAL/PIERRE ELLIOTT TRUDEAU INTL","702S006","2011-11-22 14:00","2011","11","22","14:00","","M","","M","","M","","","26","","6","","","","102.53","","","","","","NA"
"-73.74","45.47","MONTREAL/PIERRE ELLIOTT TRUDEAU INTL","702S006","2011-11-22 15:00","2011","11","22","15:00","","M","","M","","M","","","32","","2","","","","102.46","","","","","","NA"
"-73.74","45.47","MONTREAL/PIERRE ELLIOTT TRUDEAU INTL","702S006","2011-11-22 16:00","2011","11","22","16:00","","M","","M","","M","","","27","","2","","","","102.51","","","","","","NA"
"-73.74","45.47","MONTREAL/PIERRE ELLIOTT TRUDEAU INTL","702S006","2011-11-22 17:00","2011","11","22","17:00","","M","","M","","M","","","10","","9","","","","102.47","","","","","","NA"
"-73.74","45.47","MONTREAL/PIERRE ELLIOTT TRUDEAU INTL","702S006","2011-11-22 18:00","2011","11","22","18:00","","M","","M","","M","","","8","","9","","","","102.41","","","","","","NA"
"-73.74","45.47","MONTREAL/PIERRE ELLIOTT TRUDEAU INTL","702S006","2011-11-22 19:00","2011","11","22","19:00","","M","","M","","M","","","5","","9","","","","102.29","","","","","","NA"
"-73.74","45.47","MONTREAL/PIERRE ELLIOTT TRUDEAU INTL","702S006","2011-11-22 20:00","2011","11","22","20:00","","M","","M","","M","","","8","","11","","","","102.23","","","","","","NA"
"-73.74","45.47","MONTREAL/PIERRE ELLIOTT TRUDEAU INTL","702S006","2011-11-22 21:00","2011","11","22","21:00","","M","","M","","M","","","8","","11","","","","102.16","","","","","","NA"
"-73.74","45.47","MONTREAL/PIERRE ELLIOTT TRUDEAU INTL","702S006","2011-11-22 22:00","2011","11","22","22:00","","M","","M","","M","","","7","","11","","","","102.04","","","","","","NA"
"-73.74","45.47","MONTREAL/PIERRE ELLIOTT TRUDEAU INTL","702S006","2011-11-22 23:00","2011","11","22","23:00","","M","","M","","M","","","4","","20","","","","101.90","","","","","","NA"
"-73.74","45.47","MONTREAL/PIERRE ELLIOTT TRUDEAU INTL","702S006","2011-11-23 00:00","2011","11","23","00:00","","M","","M","","M","","","4","","19","","","","101.71","","","","","","NA"
"-73.74","45.47","MONTREAL/PIERRE ELLIOTT TRUDEAU INTL","702S006","2011-11-23 01:00","2011","11","23","01:00","","M","","M","","M","","","5","","13","","","","101.64","","","","","","NA"
"-73.74","45.47","MONTREAL/PIERRE ELLIOTT TRUDEAU INTL","702S006","2011-11-23 02:00","2011","11","23","02:00","","M","","M","","M","","","4","","17","","","","101.54","","","","","","NA"
"-73.74","45.47","MONTREAL/PIERRE ELLIOTT TRUDEAU INTL","702S006","2011-11-23 03:00","2011","11","23","03:00","","M","","M","","M","","","5","","13","","","","101.42","","","","","","NA"
"-73.74","45.47","MONTREAL/PIERRE ELLIOTT TRUDEAU INTL","702S006","2011-11-23 04:00","2011","11","23","04:00","","M","","M","","M","","","3","","19","","","","101.27","","","","","","NA"
"-73.74","45.47","MONTREAL/PIERRE ELLIOTT TRUDEAU INTL","702S006","2011-11-23 05:00","2011","11","23","05:00","","M","","M","","M","","","3","","20","","","","101.15","","","","","","NA"
"-73.74","45.47","MONTREAL/PIERRE ELLIOTT TRUDEAU INTL","702S006","2011-11-23 06:00","2011","11","23","06:00","","M","","M","","M","","","3","","22","","","","101.10","","","","","","NA"
"-73.74","45.47","MONTREAL/PIERRE ELLIOTT TRUDEAU INTL","702S006","2011-11-23 07:00","2011","11","23","07:00","","M","","M","","M","","","4","","22","","","","101.04","","","","","","NA"
"-73.74","45.47","MONTREAL/PIERRE ELLIOTT TRUDEAU INTL","702S006","2011-11-23 08:00","2011","11","23","08:00","","M","","M","","M","","","4","","19","","","","100.98","","","","","","NA"
"-73.74","45.47","MONTREAL/PIERRE ELLIOTT TRUDEAU INTL","702S006","2011-11-23 09:00","2011","11","23","09:00","","M","","M","","M","","","3","","24","","","","100.96","","","","","","NA"
"-73.74","45.47","MONTREAL/PIERRE ELLIOTT TRUDEAU INTL","702S006","2011-11-23 10:00","2011","11","23","10:00","","M","","M","","M","","","2","","24","","","","100.95","","","","","","NA"
"-73.74","45.47","MONTREAL/PIERRE ELLIOTT TRUDEAU INTL","702S006","2011-11-23 11:00","2011","11","23","11:00","","M","","M","","M","","","3","","22","","","","100.91","","","","","","NA"
"-73.74","45.47","MONTREAL/PIERRE ELLIOTT TRUDEAU INTL","702S006","2011-11-23 12:00","2011","11","23","12:00","","M","","M","","M","","","4","","22","","","","100.88","","","","","","NA"
"-73.74","45.47","MONTREAL/PIERRE ELLIOTT TRUDEAU INTL","702S006","2011-11-23 13:00","2011","11","23","13:00","","M","","M","","M","","","3","","24","","","","100.89","","","","","","NA"
"-73.74","45.47","MONTREAL/PIERRE ELLIOTT TRUDEAU INTL","702S006","2011-11-23 14:00","2011","11","23","14:00","","M","","M","","M","","","2","","26","","","","100.97","","","","","","NA"
"-73.74","45.47","MONTREAL/PIERRE ELLIOTT TRUDEAU INTL","702S006","2011-11-23 15:00","2011","11","23","15:00","","M","","M","","M","","","2","","20","","","","101.06","","","","","","NA"
"-73.74","45.47","MONTREAL/PIERRE ELLIOTT TRUDEAU INTL","702S006","2011-11-23 16:00","2011","11","23","16:00","","M","","M","","M","","","2","","19","","","","101.13","","","","","","NA"
"-73.74","45.47","MONTREAL/PIERRE ELLIOTT TRUDEAU INTL","702S006","2011-11-23 17:00","2011","11","23","17:00","","M","","M","","M","","","1","","19","","","","101.20","","","","","","NA"
"-73.74","45.47","MONTREAL/PIERRE ELLIOTT TRUDEAU INTL","702S006","2011-11-23 18:00","2011","11","23","18:00","","M","","M","","M","","","2","","19","","","","101.26","","","","","","NA"
"-73.74","45.47","MONTREAL/PIERRE ELLIOTT TRUDEAU INTL","702S006","2011-11-23 19:00","2011","11","23","19:00","","M","","M","","M","","","1","","15","","","","101.38","","","","","","NA"
"-73.74","45.47","MONTREAL/PIERRE ELLIOTT TRUDEAU INTL","702S006","2011-11-23 20:00","2011","11","23","20:00","","M","","M","","M","","","2","","13","","","","101.39","","","","","","NA"
"-73.74","45.47","MONTREAL/PIERRE ELLIOTT TRUDEAU INTL","702S006","2011-11-23 21:00","2011","11","23","21:00","","M","","M","","M","","","1","","9","","","","101.46","","","","","","NA"
"-73.74","45.47","MONTREAL/PIERRE ELLIOTT TRUDEAU INTL","702S006","2011-11-23 22:00","2011","11","23","22:00","","M","","M","","M","","","33","","4","","","","101.50","","","","","","NA"
"-73.74","45.47","MONTREAL/PIERRE ELLIOTT TRUDEAU INTL","702S006","2011-11-23 23:00","2011","11","23","23:00","","M","","M","","M","","","4","","4","","","","101.47","","","","","","NA"
"-73.74","45.47","MONTREAL/PIERRE ELLIOTT TRUDEAU INTL","702S006","2011-11-24 00:00","2011","11","24","00:00","","M","","M","","M","","","27","","2","","","","101.44","","","","","","NA"
"-73.74","45.47","MONTREAL/PIERRE ELLIOTT TRUDEAU INTL","702S006","2011-11-24 01:00","2011","11","24","01:00","","M","","M","","M","","","30","","4","","","","101.47","","","","","","NA"
"-73.74","45.47","MONTREAL/PIERRE ELLIOTT TRUDEAU INTL","702S006","2011-11-24 02:00","2011","11","24","02:00","","M","","M","","M","","","16","","6","","","","101.40","","","","","","NA"
"-73.74","45.47","MONTREAL/PIERRE ELLIOTT TRUDEAU INTL","702S006","2011-11-24 03:00","2011","11","24","03:00","","M","","M","","M","","","22","","6","","","","101.36","","","","","","NA"
"-73.74","45.47","MONTREAL/PIERRE ELLIOTT TRUDEAU INTL","702S006","2011-11-24 04:00","2011","11","24","04:00","","M","","M","","M","","","","","0","","","","101.41","","","","","","NA"
"-73.74","45.47","MONTREAL/PIERRE ELLIOTT TRUDEAU INTL","702S006","2011-11-24 05:00","2011","11","24","05:00","","M","","M","","M","","","17","","13","","","","101.37","","","","","","NA"
"-73.74","45.47","MONTREAL/PIERRE ELLIOTT TRUDEAU INTL","702S006","2011-11-24 06:00","2011","11","24","06:00","","M","","M","","M","","","18","","17","","","","101.32","","","","","","NA"
"-73.74","45.47","MONTREAL/PIERRE ELLIOTT TRUDEAU INTL","702S006","2011-11-24 07:00","2011","11","24","07:00","","M","","M","","M","","","20","","11","","","","101.38","","","","","","NA"
"-73.74","45.47","MONTREAL/PIERRE ELLIOTT TRUDEAU INTL","702S006","2011-11-24 08:00","2011","11","24","08:00","","M","","M","","M","","","25","","13","","","","101.42","","","","","","NA"
"-73.74","45.47","MONTREAL/PIERRE ELLIOTT TRUDEAU INTL","702S006","2011-11-24 09:00","2011","11","24","09:00","","M","","M","","M","","","25","","15","","","","101.44","","","","","","NA"
"-73.74","45.47","MONTREAL/PIERRE ELLIOTT TRUDEAU INTL","702S006","2011-11-24 10:00","2011","11","24","10:00","","M","","M","","M","","","25","","11","","","","101.47","","","","","","NA"
"-73.74","45.47","MONTREAL/PIERRE ELLIOTT TRUDEAU INTL","702S006","2011-11-24 11:00","2011","11","24","11:00","","M","","M","","M","","","25","","7","","","","101.46","","","","","","NA"
"-73.74","45.47","MONTREAL/PIERRE ELLIOTT TRUDEAU INTL","702S006","2011-11-24 12:00","2011","11","24","12:00","","M","","M","","M","","","24","","11","","","","101.39","","","","","","NA"
"-73.74","45.47","MONTREAL/PIERRE ELLIOTT TRUDEAU INTL","702S006","2011-11-24 13:00","2011","11","24","13:00","","M","","M","","M","","","24","","13","","","","101.35","","","","","","NA"
"-73.74","45.47","MONTREAL/PIERRE ELLIOTT TRUDEAU INTL","702S006","2011-11-24 14:00","2011","11","24","14:00","","M","","M","","M","","","24","","6","","","","101.34","","","","","","NA"
"-73.74","45.47","MONTREAL/PIERRE ELLIOTT TRUDEAU INTL","702S006","2011-11-24 15:00","2011","11","24","15:00","","M","","M","","M","","","22","","4","","","","101.37","","","","","","NA"
"-73.74","45.47","MONTREAL/PIERRE ELLIOTT TRUDEAU INTL","702S006","2011-11-24 16:00","2011","11","24","16:00","","M","","M","","M","","","24","","6","","","","101.37","","","","","","NA"
"-73.74","45.47","MONTREAL/PIERRE ELLIOTT TRUDEAU INTL","702S006","2011-11-24 17:00","2011","11","24","17:00","","M","","M","","M","","","21","","9","","","","101.36","","","","","","NA"
"-73.74","45.47","MONTREAL/PIERRE ELLIOTT TRUDEAU INTL","702S006","2011-11-24 18:00","2011","11","24","18:00","","M","","M","","M","","","17","","11","","","","101.38","","","","","","NA"
"-73.74","45.47","MONTREAL/PIERRE ELLIOTT TRUDEAU INTL","702S006","2011-11-24 19:00","2011","11","24","19:00","","M","","M","","M","","","21","","9","","","","101.38","","","","","","NA"
"-73.74","45.47","MONTREAL/PIERRE ELLIOTT TRUDEAU INTL","702S006","2011-11-24 20:00","2011","11","24","20:00","","M","","M","","M","","","24","","17","","","","101.34","","","","","","NA"
"-73.74","45.47","MONTREAL/PIERRE ELLIOTT TRUDEAU INTL","702S006","2011-11-24 21:00","2011","11","24","21:00","","M","","M","","M","","","24","","11","","","","101.33","","","","","","NA"
"-73.74","45.47","MONTREAL/PIERRE ELLIOTT TRUDEAU INTL","702S006","2011-11-24 22:00","2011","11","24","22:00","","M","","M","","M","","","24","","20","","","","101.26","","","","","","NA"
"-73.74","45.47","MONTREAL/PIERRE ELLIOTT TRUDEAU INTL","702S006","2011-11-24 23:00","2011","11","24","23:00","","M","","M","","M","","","23","","13","","","","101.24","","","","","","NA"
"-73.74","45.47","MONTREAL/PIERRE ELLIOTT TRUDEAU INTL","702S006","2011-11-25 00:00","2011","11","25","00:00","","M","","M","","M","","","21","","9","","","","101.17","","","","","","NA"
"-73.74","45.47","MONTREAL/PIERRE ELLIOTT TRUDEAU INTL","702S006","2011-11-25 01:00","2011","11","25","01:00","","M","","M","","M","","","17","","11","","","","101.12","","","","","","NA"
"-73.74","45.47","MONTREAL/PIERRE ELLIOTT TRUDEAU INTL","702S006","2011-11-25 02:00","2011","11","25","02:00","","M","","M","","M","","","17","","13","","","","101.08","","","","","","NA"
"-73.74","45.47","MONTREAL/PIERRE ELLIOTT TRUDEAU INTL","702S006","2011-11-25 03:00","2011","11","25","03:00","","M","","M","","M","","","21","","13","","","","101.06","","","","","","NA"
"-73.74","45.47","MONTREAL/PIERRE ELLIOTT TRUDEAU INTL","702S006","2011-11-25 04:00","2011","11","25","04:00","","M","","M","","M","","","24","","11","","","","101.05","","","","","","NA"
"-73.74","45.47","MONTREAL/PIERRE ELLIOTT TRUDEAU INTL","702S006","2011-11-25 05:00","2011","11","25","05:00","","M","","M","","M","","","22","","6","","","","101.06","","","","","","NA"
"-73.74","45.47","MONTREAL/PIERRE ELLIOTT TRUDEAU INTL","702S006","2011-11-25 06:00","2011","11","25","06:00","","M","","M","","M","","","23","","13","","","","101.05","","","","","","NA"
"-73.74","45.47","MONTREAL/PIERRE ELLIOTT TRUDEAU INTL","702S006","2011-11-25 07:00","2011","11","25","07:00","","M","","M","","M","","","26","","28","","","","101.08","","","","","","NA"
"-73.74","45.47","MONTREAL/PIERRE ELLIOTT TRUDEAU INTL","702S006","2011-11-25 08:00","2011","11","25","08:00","","M","","M","","M","","","25","","15","","","","101.09","","","","","","NA"
"-73.74","45.47","MONTREAL/PIERRE ELLIOTT TRUDEAU INTL","702S006","2011-11-25 09:00","2011","11","25","09:00","","M","","M","","M","","","25","","9","","","","101.09","","","","","","NA"
"-73.74","45.47","MONTREAL/PIERRE ELLIOTT TRUDEAU INTL","702S006","2011-11-25 10:00","2011","11","25","10:00","","M","","M","","M","","","21","","7","","","","101.05","","","","","","NA"
"-73.74","45.47","MONTREAL/PIERRE ELLIOTT TRUDEAU INTL","702S006","2011-11-25 11:00","2011","11","25","11:00","","M","","M","","M","","","22","","6","","","","100.97","","","","","","NA"
"-73.74","45.47","MONTREAL/PIERRE ELLIOTT TRUDEAU INTL","702S006","2011-11-25 12:00","2011","11","25","12:00","","M","","M","","M","","","23","","28","","","","100.88","","","","","","NA"
"-73.74","45.47","MONTREAL/PIERRE ELLIOTT TRUDEAU INTL","702S006","2011-11-25 13:00","2011","11","25","13:00","","M","","M","","M","","","23","","24","","","","100.84","","","","","","NA"
"-73.74","45.47","MONTREAL/PIERRE ELLIOTT TRUDEAU INTL","702S006","2011-11-25 14:00","2011","11","25","14:00","","M","","M","","M","","","25","","24","","","","100.79","","","","","","NA"
"-73.74","45.47","MONTREAL/PIERRE ELLIOTT TRUDEAU INTL","702S006","2011-11-25 15:00","2011","11","25","15:00","","M","","M","","M","","","25","","11","","","","100.79","","","","","","NA"
"-73.74","45.47","MONTREAL/PIERRE ELLIOTT TRUDEAU INTL","702S006","2011-11-25 16:00","2011","11","25","16:00","","M","","M","","M","","","23","","9","","","","100.81","","","","","","NA"
"-73.74","45.47","MONTREAL/PIERRE ELLIOTT TRUDEAU INTL","702S006","2011-11-25 17:00","2011","11","25","17:00","","M","","M","","M","","","23","","6","","","","100.85","","","","","","NA"
"-73.74","45.47","MONTREAL/PIERRE ELLIOTT TRUDEAU INTL","702S006","2011-11-25 18:00","2011","11","25","18:00","","M","","M","","M","","","19","","6","","","","100.83","","","","","","NA"
"-73.74","45.47","MONTREAL/PIERRE ELLIOTT TRUDEAU INTL","702S006","2011-11-25 19:00","2011","11","25","19:00","","M","","M","","M","","","11","","7","","","","100.89","","","","","","NA"
"-73.74","45.47","MONTREAL/PIERRE ELLIOTT TRUDEAU INTL","702S006","2011-11-25 20:00","2011","11","25","20:00","","M","","M","","M","","","12","","7","","","","100.88","","","","","","NA"
"-73.74","45.47","MONTREAL/PIERRE ELLIOTT TRUDEAU INTL","702S006","2011-11-25 21:00","2011","11","25","21:00","","M","","M","","M","","","14","","7","","","","100.94","","","","","","NA"
"-73.74","45.47","MONTREAL/PIERRE ELLIOTT TRUDEAU INTL","702S006","2011-11-25 22:00","2011","11","25","22:00","","M","","M","","M","","","14","","7","","","","100.96","","","","","","NA"
"-73.74","45.47","MONTREAL/PIERRE ELLIOTT TRUDEAU INTL","702S006","2011-11-25 23:00","2011","11","25","23:00","","M","","M","","M","","","20","","9","","","","100.99","","","","","","NA"
"-73.74","45.47","MONTREAL/PIERRE ELLIOTT TRUDEAU INTL","702S006","2011-11-26 00:00","2011","11","26","00:00","","M","","M","","M","","","28","","2","","","","101.04","","","","","","NA"
"-73.74","45.47","MONTREAL/PIERRE ELLIOTT TRUDEAU INTL","702S006","2011-11-26 01:00","2011","11","26","01:00","","M","","M","","M","","","25","","13","","","","101.07","","","","","","NA"
"-73.74","45.47","MONTREAL/PIERRE ELLIOTT TRUDEAU INTL","702S006","2011-11-26 02:00","2011","11","26","02:00","","M","","M","","M","","","26","","17","","","","101.18","","","","","","NA"
"-73.74","45.47","MONTREAL/PIERRE ELLIOTT TRUDEAU INTL","702S006","2011-11-26 03:00","2011","11","26","03:00","","M","","M","","M","","","29","","4","","","","101.22","","","","","","NA"
"-73.74","45.47","MONTREAL/PIERRE ELLIOTT TRUDEAU INTL","702S006","2011-11-26 04:00","2011","11","26","04:00","","M","","M","","M","","","27","","7","","","","101.26","","","","","","NA"
"-73.74","45.47","MONTREAL/PIERRE ELLIOTT TRUDEAU INTL","702S006","2011-11-26 05:00","2011","11","26","05:00","","M","","M","","M","","","25","","11","","","","101.32","","","","","","NA"
"-73.74","45.47","MONTREAL/PIERRE ELLIOTT TRUDEAU INTL","702S006","2011-11-26 06:00","2011","11","26","06:00","","M","","M","","M","","","27","","7","","","","101.38","","","","","","NA"
"-73.74","45.47","MONTREAL/PIERRE ELLIOTT TRUDEAU INTL","702S006","2011-11-26 07:00","2011","11","26","07:00","","M","","M","","M","","","","","0","","","","101.48","","","","","","NA"
"-73.74","45.47","MONTREAL/PIERRE ELLIOTT TRUDEAU INTL","702S006","2011-11-26 08:00","2011","11","26","08:00","","M","","M","","M","","","30","","2","","","","101.58","","","","","","NA"
"-73.74","45.47","MONTREAL/PIERRE ELLIOTT TRUDEAU INTL","702S006","2011-11-26 09:00","2011","11","26","09:00","","M","","M","","M","","","","","0","","","","101.60","","","","","","NA"
"-73.74","45.47","MONTREAL/PIERRE ELLIOTT TRUDEAU INTL","702S006","2011-11-26 10:00","2011","11","26","10:00","","M","","M","","M","","","","","0","","","","101.67","","","","","","NA"
"-73.74","45.47","MONTREAL/PIERRE ELLIOTT TRUDEAU INTL","702S006","2011-11-26 11:00","2011","11","26","11:00","","M","","M","","M","","","5","","4","","","","101.64","","","","","","NA"
"-73.74","45.47","MONTREAL/PIERRE ELLIOTT TRUDEAU INTL","702S006","2011-11-26 12:00","2011","11","26","12:00","","M","","M","","M","","","5","","9","","","","101.66","","","","","","NA"
"-73.74","45.47","MONTREAL/PIERRE ELLIOTT TRUDEAU INTL","702S006","2011-11-26 13:00","2011","11","26","13:00","","M","","M","","M","","","4","","15","","","","101.62","","","","","","NA"
"-73.74","45.47","MONTREAL/PIERRE ELLIOTT TRUDEAU INTL","702S006","2011-11-26 14:00","2011","11","26","14:00","","M","","M","","M","","","4","","17","","","","101.65","","","","","","NA"
"-73.74","45.47","MONTREAL/PIERRE ELLIOTT TRUDEAU INTL","702S006","2011-11-26 15:00","2011","11","26","15:00","","M","","M","","M","","","4","","19","","","","101.70","","","","","","NA"
"-73.74","45.47","MONTREAL/PIERRE ELLIOTT TRUDEAU INTL","702S006","2011-11-26 16:00","2011","11","26","16:00","","M","","M","","M","","","5","","17","","","","101.76","","","","","","NA"
"-73.74","45.47","MONTREAL/PIERRE ELLIOTT TRUDEAU INTL","702S006","2011-11-26 17:00","2011","11","26","17:00","","M","","M","","M","","","5","","19","","","","101.75","","","","","","NA"
"-73.74","45.47","MONTREAL/PIERRE ELLIOTT TRUDEAU INTL","702S006","2011-11-26 18:00","2011","11","26","18:00","","M","","M","","M","","","4","","19","","","","101.78","","","","","","NA"
"-73.74","45.47","MONTREAL/PIERRE ELLIOTT TRUDEAU INTL","702S006","2011-11-26 19:00","2011","11","26","19:00","","M","","M","","M","","","5","","17","","","","101.80","","","","","","NA"
"-73.74","45.47","MONTREAL/PIERRE ELLIOTT TRUDEAU INTL","702S006","2011-11-26 20:00","2011","11","26","20:00","","M","","M","","M","","","4","","13","","","","101.76","","","","","","NA"
"-73.74","45.47","MONTREAL/PIERRE ELLIOTT TRUDEAU INTL","702S006","2011-11-26 21:00","2011","11","26","21:00","","M","","M","","M","","","4","","17","","","","101.72","","","","","","NA"
"-73.74","45.47","MONTREAL/PIERRE ELLIOTT TRUDEAU INTL","702S006","2011-11-26 22:00","2011","11","26","22:00","","M","","M","","M","","","4","","17","","","","101.71","","","","","","NA"
"-73.74","45.47","MONTREAL/PIERRE ELLIOTT TRUDEAU INTL","702S006","2011-11-26 23:00","2011","11","26","23:00","","M","","M","","M","","","4","","17","","","","101.67","","","","","","NA"
"-73.74","45.47","MONTREAL/PIERRE ELLIOTT TRUDEAU INTL","702S006","2011-11-27 00:00","2011","11","27","00:00","","M","","M","","M","","","2","","13","","","","101.65","","","","","","NA"
"-73.74","45.47","MONTREAL/PIERRE ELLIOTT TRUDEAU INTL","702S006","2011-11-27 01:00","2011","11","27","01:00","","M","","M","","M","","","1","","13","","","","101.62","","","","","","NA"
"-73.74","45.47","MONTREAL/PIERRE ELLIOTT TRUDEAU INTL","702S006","2011-11-27 02:00","2011","11","27","02:00","","M","","M","","M","","","2","","11","","","","101.58","","","","","","NA"
"-73.74","45.47","MONTREAL/PIERRE ELLIOTT TRUDEAU INTL","702S006","2011-11-27 03:00","2011","11","27","03:00","","M","","M","","M","","","4","","11","","","","101.52","","","","","","NA"
"-73.74","45.47","MONTREAL/PIERRE ELLIOTT TRUDEAU INTL","702S006","2011-11-27 04:00","2011","11","27","04:00","","M","","M","","M","","","3","","11","","","","101.48","","","","","","NA"
"-73.74","45.47","MONTREAL/PIERRE ELLIOTT TRUDEAU INTL","702S006","2011-11-27 05:00","2011","11","27","05:00","","M","","M","","M","","","4","","13","","","","101.43","","","","","","NA"
"-73.74","45.47","MONTREAL/PIERRE ELLIOTT TRUDEAU INTL","702S006","2011-11-27 06:00","2011","11","27","06:00","","M","","M","","M","","","2","","11","","","","101.48","","","","","","NA"
"-73.74","45.47","MONTREAL/PIERRE ELLIOTT TRUDEAU INTL","702S006","2011-11-27 07:00","2011","11","27","07:00","","M","","M","","M","","","4","","13","","","","101.34","","","","","","NA"
"-73.74","45.47","MONTREAL/PIERRE ELLIOTT TRUDEAU INTL","702S006","2011-11-27 08:00","2011","11","27","08:00","","M","","M","","M","","","2","","9","","","","101.34","","","","","","NA"
"-73.74","45.47","MONTREAL/PIERRE ELLIOTT TRUDEAU INTL","702S006","2011-11-27 09:00","2011","11","27","09:00","","M","","M","","M","","","3","","13","","","","101.32","","","","","","NA"
"-73.74","45.47","MONTREAL/PIERRE ELLIOTT TRUDEAU INTL","702S006","2011-11-27 10:00","2011","11","27","10:00","","M","","M","","M","","","3","","11","","","","101.27","","","","","","NA"
"-73.74","45.47","MONTREAL/PIERRE ELLIOTT TRUDEAU INTL","702S006","2011-11-27 11:00","2011","11","27","11:00","","M","","M","","M","","","8","","7","","","","101.20","","","","","","NA"
"-73.74","45.47","MONTREAL/PIERRE ELLIOTT TRUDEAU INTL","702S006","2011-11-27 12:00","2011","11","27","12:00","","M","","M","","M","","","8","","6","","","","101.10","","","","","","NA"
"-73.74","45.47","MONTREAL/PIERRE ELLIOTT TRUDEAU INTL","702S006","2011-11-27 13:00","2011","11","27","13:00","","M","","M","","M","","","15","","9","","","","101.04","","","","","","NA"
"-73.74","45.47","MONTREAL/PIERRE ELLIOTT TRUDEAU INTL","702S006","2011-11-27 14:00","2011","11","27","14:00","","M","","M","","M","","","14","","17","","","","100.87","","","","","","NA"
"-73.74","45.47","MONTREAL/PIERRE ELLIOTT TRUDEAU INTL","702S006","2011-11-27 15:00","2011","11","27","15:00","","M","","M","","M","","","14","","20","","","","100.79","","","","","","NA"
"-73.74","45.47","MONTREAL/PIERRE ELLIOTT TRUDEAU INTL","702S006","2011-11-27 16:00","2011","11","27","16:00","","M","","M","","M","","","15","","22","","","","100.79","","","","","","NA"
"-73.74","45.47","MONTREAL/PIERRE ELLIOTT TRUDEAU INTL","702S006","2011-11-27 17:00","2011","11","27","17:00","","M","","M","","M","","","15","","24","","","","100.75","","","","","","NA"
"-73.74","45.47","MONTREAL/PIERRE ELLIOTT TRUDEAU INTL","702S006","2011-11-27 18:00","2011","11","27","18:00","","M","","M","","M","","","14","","19","","","","100.74","","","","","","NA"
"-73.74","45.47","MONTREAL/PIERRE ELLIOTT TRUDEAU INTL","702S006","2011-11-27 19:00","2011","11","27","19:00","","M","","M","","M","","","15","","17","","","","100.74","","","","","","NA"
"-73.74","45.47","MONTREAL/PIERRE ELLIOTT TRUDEAU INTL","702S006","2011-11-27 20:00","2011","11","27","20:00","","M","","M","","M","","","15","","17","","","","100.75","","","","","","NA"
"-73.74","45.47","MONTREAL/PIERRE ELLIOTT TRUDEAU INTL","702S006","2011-11-27 21:00","2011","11","27","21:00","","M","","M","","M","","","15","","19","","","","100.71","","","","","","NA"
"-73.74","45.47","MONTREAL/PIERRE ELLIOTT TRUDEAU INTL","702S006","2011-11-27 22:00","2011","11","27","22:00","","M","","M","","M","","","15","","20","","","","100.61","","","","","","NA"
"-73.74","45.47","MONTREAL/PIERRE ELLIOTT TRUDEAU INTL","702S006","2011-11-27 23:00","2011","11","27","23:00","","M","","M","","M","","","17","","19","","","","100.64","","","","","","NA"
"-73.74","45.47","MONTREAL/PIERRE ELLIOTT TRUDEAU INTL","702S006","2011-11-28 00:00","2011","11","28","00:00","","M","","M","","M","","","19","","19","","","","100.60","","","","","","NA"
"-73.74","45.47","MONTREAL/PIERRE ELLIOTT TRUDEAU INTL","702S006","2011-11-28 01:00","2011","11","28","01:00","","M","","M","","M","","","21","","26","","","","100.57","","","","","","NA"
"-73.74","45.47","MONTREAL/PIERRE ELLIOTT TRUDEAU INTL","702S006","2011-11-28 02:00","2011","11","28","02:00","","M","","M","","M","","","21","","19","","","","100.59","","","","","","NA"
"-73.74","45.47","MONTREAL/PIERRE ELLIOTT TRUDEAU INTL","702S006","2011-11-28 03:00","2011","11","28","03:00","","M","","M","","M","","","23","","17","","","","100.61","","","","","","NA"
"-73.74","45.47","MONTREAL/PIERRE ELLIOTT TRUDEAU INTL","702S006","2011-11-28 04:00","2011","11","28","04:00","","M","","M","","M","","","22","","19","","","","100.63","","","","","","NA"
"-73.74","45.47","MONTREAL/PIERRE ELLIOTT TRUDEAU INTL","702S006","2011-11-28 05:00","2011","11","28","05:00","","M","","M","","M","","","22","","17","","","","100.67","","","","","","NA"
"-73.74","45.47","MONTREAL/PIERRE ELLIOTT TRUDEAU INTL","702S006","2011-11-28 06:00","2011","11","28","06:00","","M","","M","","M","","","25","","24","","","","100.78","","","","","","NA"
"-73.74","45.47","MONTREAL/PIERRE ELLIOTT TRUDEAU INTL","702S006","2011-11-28 07:00","2011","11","28","07:00","","M","","M","","M","","","27","","20","","","","100.88","","","","","","NA"
"-73.74","45.47","MONTREAL/PIERRE ELLIOTT TRUDEAU INTL","702S006","2011-11-28 08:00","2011","11","28","08:00","","M","","M","","M","","","27","","22","","","","101.02","","","","","","NA"
"-73.74","45.47","MONTREAL/PIERRE ELLIOTT TRUDEAU INTL","702S006","2011-11-28 09:00","2011","11","28","09:00","","M","","M","","M","","","26","","20","","","","101.11","","","","","","NA"
"-73.74","45.47","MONTREAL/PIERRE ELLIOTT TRUDEAU INTL","702S006","2011-11-28 10:00","2011","11","28","10:00","","M","","M","","M","","","27","","24","","","","101.24","","","","","","NA"
"-73.74","45.47","MONTREAL/PIERRE ELLIOTT TRUDEAU INTL","702S006","2011-11-28 11:00","2011","11","28","11:00","","M","","M","","M","","","28","","24","","","","101.28","","","","","","NA"
"-73.74","45.47","MONTREAL/PIERRE ELLIOTT TRUDEAU INTL","702S006","2011-11-28 12:00","2011","11","28","12:00","","M","","M","","M","","","29","","20","","","","101.34","","","","","","NA"
"-73.74","45.47","MONTREAL/PIERRE ELLIOTT TRUDEAU INTL","702S006","2011-11-28 13:00","2011","11","28","13:00","","M","","M","","M","","","29","","20","","","","101.40","","","","","","NA"
"-73.74","45.47","MONTREAL/PIERRE ELLIOTT TRUDEAU INTL","702S006","2011-11-28 14:00","2011","11","28","14:00","","M","","M","","M","","","29","","20","","","","101.39","","","","","","NA"
"-73.74","45.47","MONTREAL/PIERRE ELLIOTT TRUDEAU INTL","702S006","2011-11-28 15:00","2011","11","28","15:00","","M","","M","","M","","","29","","19","","","","101.44","","","","","","NA"
"-73.74","45.47","MONTREAL/PIERRE ELLIOTT TRUDEAU INTL","702S006","2011-11-28 16:00","2011","11","28","16:00","","M","","M","","M","","","27","","19","","","","101.53","","","","","","NA"
"-73.74","45.47","MONTREAL/PIERRE ELLIOTT TRUDEAU INTL","702S006","2011-11-28 17:00","2011","11","28","17:00","","M","","M","","M","","","29","","13","","","","101.58","","","","","","NA"
"-73.74","45.47","MONTREAL/PIERRE ELLIOTT TRUDEAU INTL","702S006","2011-11-28 18:00","2011","11","28","18:00","","M","","M","","M","","","30","","9","","","","101.62","","","","","","NA"
"-73.74","45.47","MONTREAL/PIERRE ELLIOTT TRUDEAU INTL","702S006","2011-11-28 19:00","2011","11","28","19:00","","M","","M","","M","","","32","","11","","","","101.63","","","","","","NA"
"-73.74","45.47","MONTREAL/PIERRE ELLIOTT TRUDEAU INTL","702S006","2011-11-28 20:00","2011","11","28","20:00","","M","","M","","M","","","33","","7","","","","101.62","","","","","","NA"
"-73.74","45.47","MONTREAL/PIERRE ELLIOTT TRUDEAU INTL","702S006","2011-11-28 21:00","2011","11","28","21:00","","M","","M","","M","","","4","","7","","","","101.63","","","","","","NA"
"-73.74","45.47","MONTREAL/PIERRE ELLIOTT TRUDEAU INTL","702S006","2011-11-28 22:00","2011","11","28","22:00","","M","","M","","M","","","6","","6","","","","101.62","","","","","","NA"
"-73.74","45.47","MONTREAL/PIERRE ELLIOTT TRUDEAU INTL","702S006","2011-11-28 23:00","2011","11","28","23:00","","M","","M","","M","","","6","","6","","","","101.57","","","","","","NA"
"-73.74","45.47","MONTREAL/PIERRE ELLIOTT TRUDEAU INTL","702S006","2011-11-29 00:00","2011","11","29","00:00","","M","","M","","M","","","10","","7","","","","101.50","","","","","","NA"
"-73.74","45.47","MONTREAL/PIERRE ELLIOTT TRUDEAU INTL","702S006","2011-11-29 01:00","2011","11","29","01:00","","M","","M","","M","","","3","","11","","","","101.40","","","","","","NA"
"-73.74","45.47","MONTREAL/PIERRE ELLIOTT TRUDEAU INTL","702S006","2011-11-29 02:00","2011","11","29","02:00","","M","","M","","M","","","3","","11","","","","101.41","","","","","","NA"
"-73.74","45.47","MONTREAL/PIERRE ELLIOTT TRUDEAU INTL","702S006","2011-11-29 03:00","2011","11","29","03:00","","M","","M","","M","","","3","","15","","","","101.35","","","","","","NA"
"-73.74","45.47","MONTREAL/PIERRE ELLIOTT TRUDEAU INTL","702S006","2011-11-29 04:00","2011","11","29","04:00","","M","","M","","M","","","4","","13","","","","101.26","","","","","","NA"
"-73.74","45.47","MONTREAL/PIERRE ELLIOTT TRUDEAU INTL","702S006","2011-11-29 05:00","2011","11","29","05:00","","M","","M","","M","","","2","","17","","","","101.25","","","","","","NA"
"-73.74","45.47","MONTREAL/PIERRE ELLIOTT TRUDEAU INTL","702S006","2011-11-29 06:00","2011","11","29","06:00","","M","","M","","M","","","3","","15","","","","101.19","","","","","","NA"
"-73.74","45.47","MONTREAL/PIERRE ELLIOTT TRUDEAU INTL","702S006","2011-11-29 07:00","2011","11","29","07:00","","M","","M","","M","","","2","","19","","","","101.19","","","","","","NA"
"-73.74","45.47","MONTREAL/PIERRE ELLIOTT TRUDEAU INTL","702S006","2011-11-29 08:00","2011","11","29","08:00","","M","","M","","M","","","2","","19","","","","101.18","","","","","","NA"
"-73.74","45.47","MONTREAL/PIERRE ELLIOTT TRUDEAU INTL","702S006","2011-11-29 09:00","2011","11","29","09:00","","M","","M","","M","","","3","","20","","","","101.16","","","","","","NA"
"-73.74","45.47","MONTREAL/PIERRE ELLIOTT TRUDEAU INTL","702S006","2011-11-29 10:00","2011","11","29","10:00","","M","","M","","M","","","3","","20","","","","101.14","","","","","","NA"
"-73.74","45.47","MONTREAL/PIERRE ELLIOTT TRUDEAU INTL","702S006","2011-11-29 11:00","2011","11","29","11:00","","M","","M","","M","","","3","","19","","","","101.10","","","","","","NA"
"-73.74","45.47","MONTREAL/PIERRE ELLIOTT TRUDEAU INTL","702S006","2011-11-29 12:00","2011","11","29","12:00","","M","","M","","M","","","3","","17","","","","101.02","","","","","","NA"
"-73.74","45.47","MONTREAL/PIERRE ELLIOTT TRUDEAU INTL","702S006","2011-11-29 13:00","2011","11","29","13:00","","M","","M","","M","","","2","","24","","","","100.95","","","","","","NA"
"-73.74","45.47","MONTREAL/PIERRE ELLIOTT TRUDEAU INTL","702S006","2011-11-29 14:00","2011","11","29","14:00","","M","","M","","M","","","3","","22","","","","100.89","","","","","","NA"
"-73.74","45.47","MONTREAL/PIERRE ELLIOTT TRUDEAU INTL","702S006","2011-11-29 15:00","2011","11","29","15:00","","M","","M","","M","","","3","","24","","","","100.77","","","","","","NA"
"-73.74","45.47","MONTREAL/PIERRE ELLIOTT TRUDEAU INTL","702S006","2011-11-29 16:00","2011","11","29","16:00","","M","","M","","M","","","3","","19","","","","100.73","","","","","","NA"
"-73.74","45.47","MONTREAL/PIERRE ELLIOTT TRUDEAU INTL","702S006","2011-11-29 17:00","2011","11","29","17:00","","M","","M","","M","","","4","","19","","","","100.74","","","","","","NA"
"-73.74","45.47","MONTREAL/PIERRE ELLIOTT TRUDEAU INTL","702S006","2011-11-29 18:00","2011","11","29","18:00","","M","","M","","M","","","3","","26","","","","100.62","","","","","","NA"
"-73.74","45.47","MONTREAL/PIERRE ELLIOTT TRUDEAU INTL","702S006","2011-11-29 19:00","2011","11","29","19:00","","M","","M","","M","","","4","","22","","","","100.51","","","","","","NA"
"-73.74","45.47","MONTREAL/PIERRE ELLIOTT TRUDEAU INTL","702S006","2011-11-29 20:00","2011","11","29","20:00","","M","","M","","M","","","4","","30","","","","100.43","","","","","","NA"
"-73.74","45.47","MONTREAL/PIERRE ELLIOTT TRUDEAU INTL","702S006","2011-11-29 21:00","2011","11","29","21:00","","M","","M","","M","","","3","","24","","","","100.39","","","","","","NA"
"-73.74","45.47","MONTREAL/PIERRE ELLIOTT TRUDEAU INTL","702S006","2011-11-29 22:00","2011","11","29","22:00","","M","","M","","M","","","3","","30","","","","100.21","","","","","","NA"
"-73.74","45.47","MONTREAL/PIERRE ELLIOTT TRUDEAU INTL","702S006","2011-11-29 23:00","2011","11","29","23:00","","M","","M","","M","","","3","","26","","","","100.05","","","","","","NA"
"-73.74","45.47","MONTREAL/PIERRE ELLIOTT TRUDEAU INTL","702S006","2011-11-30 00:00","2011","11","30","00:00","","M","","M","","M","","","4","","28","","","","99.90","","","","","","NA"
"-73.74","45.47","MONTREAL/PIERRE ELLIOTT TRUDEAU INTL","702S006","2011-11-30 01:00","2011","11","30","01:00","","M","","M","","M","","","3","","28","","","","99.72","","","","","","NA"
"-73.74","45.47","MONTREAL/PIERRE ELLIOTT TRUDEAU INTL","702S006","2011-11-30 02:00","2011","11","30","02:00","","M","","M","","M","","","3","","26","","","","99.52","","","","","","NA"
"-73.74","45.47","MONTREAL/PIERRE ELLIOTT TRUDEAU INTL","702S006","2011-11-30 03:00","2011","11","30","03:00","","M","","M","","M","","","3","","28","","","","99.30","","","","","","NA"
"-73.74","45.47","MONTREAL/PIERRE ELLIOTT TRUDEAU INTL","702S006","2011-11-30 04:00","2011","11","30","04:00","","M","","M","","M","","","3","","22","","","","99.08","","","","","","NA"
"-73.74","45.47","MONTREAL/PIERRE ELLIOTT TRUDEAU INTL","702S006","2011-11-30 05:00","2011","11","30","05:00","","M","","M","","M","","","25","","15","","","","99.07","","","","","","NA"
"-73.74","45.47","MONTREAL/PIERRE ELLIOTT TRUDEAU INTL","702S006","2011-11-30 06:00","2011","11","30","06:00","","M","","M","","M","","","4","","11","","","","98.97","","","","","","NA"
"-73.74","45.47","MONTREAL/PIERRE ELLIOTT TRUDEAU INTL","702S006","2011-11-30 07:00","2011","11","30","07:00","","M","","M","","M","","","24","","17","","","","99.16","","","","","","NA"
"-73.74","45.47","MONTREAL/PIERRE ELLIOTT TRUDEAU INTL","702S006","2011-11-30 08:00","2011","11","30","08:00","","M","","M","","M","","","22","","9","","","","99.25","","","","","","NA"
"-73.74","45.47","MONTREAL/PIERRE ELLIOTT TRUDEAU INTL","702S006","2011-11-30 09:00","2011","11","30","09:00","","M","","M","","M","","","22","","22","","","","99.38","","","","","","NA"
"-73.74","45.47","MONTREAL/PIERRE ELLIOTT TRUDEAU INTL","702S006","2011-11-30 10:00","2011","11","30","10:00","","M","","M","","M","","","22","","17","","","","99.45","","","","","","NA"
"-73.74","45.47","MONTREAL/PIERRE ELLIOTT TRUDEAU INTL","702S006","2011-11-30 11:00","2011","11","30","11:00","","M","","M","","M","","","23","","15","","","","99.44","","","","","","NA"
"-73.74","45.47","MONTREAL/PIERRE ELLIOTT TRUDEAU INTL","702S006","2011-11-30 12:00","2011","11","30","12:00","","M","","M","","M","","","23","","17","","","","99.43","","","","","","NA"
"-73.74","45.47","MONTREAL/PIERRE ELLIOTT TRUDEAU INTL","702S006","2011-11-30 13:00","2011","11","30","13:00","","M","","M","","M","","","24","","28","","","","99.46","","","","","","NA"
"-73.74","45.47","MONTREAL/PIERRE ELLIOTT TRUDEAU INTL","702S006","2011-11-30 14:00","2011","11","30","14:00","","M","","M","","M","","","23","","20","","","","99.49","","","","","","NA"
"-73.74","45.47","MONTREAL/PIERRE ELLIOTT TRUDEAU INTL","702S006","2011-11-30 15:00","2011","11","30","15:00","","M","","M","","M","","","21","","24","","","","99.55","","","","","","NA"
"-73.74","45.47","MONTREAL/PIERRE ELLIOTT TRUDEAU INTL","702S006","2011-11-30 16:00","2011","11","30","16:00","","M","","M","","M","","","21","","24","","","","99.60","","","","","","NA"
"-73.74","45.47","MONTREAL/PIERRE ELLIOTT TRUDEAU INTL","702S006","2011-11-30 17:00","2011","11","30","17:00","","M","","M","","M","","","21","","22","","","","99.74","","","","","","NA"
"-73.74","45.47","MONTREAL/PIERRE ELLIOTT TRUDEAU INTL","702S006","2011-11-30 18:00","2011","11","30","18:00","","M","","M","","M","","","26","","19","","","","99.93","","","","","","NA"
"-73.74","45.47","MONTREAL/PIERRE ELLIOTT TRUDEAU INTL","702S006","2011-11-30 19:00","2011","11","30","19:00","","M","","M","","M","","","25","","22","","","","100.09","","","","","","NA"
"-73.74","45.47","MONTREAL/PIERRE ELLIOTT TRUDEAU INTL","702S006","2011-11-30 20:00","2011","11","30","20:00","","M","","M","","M","","","25","","20","","","","100.24","","","","","","NA"
"-73.74","45.47","MONTREAL/PIERRE ELLIOTT TRUDEAU INTL","702S006","2011-11-30 21:00","2011","11","30","21:00","","M","","M","","M","","","26","","24","","","","100.40","","","","","","NA"
"-73.74","45.47","MONTREAL/PIERRE ELLIOTT TRUDEAU INTL","702S006","2011-11-30 22:00","2011","11","30","22:00","","M","","M","","M","","","28","","22","","","","100.58","","","","","","NA"
"-73.74","45.47","MONTREAL/PIERRE ELLIOTT TRUDEAU INTL","702S006","2011-11-30 23:00","2011","11","30","23:00","","M","","M","","M","","","28","","20","","","","100.76","","","","","","NA"
