"Longitude (x)","Latitude (y)","Station Name","Climate ID","Date/Time (LST)","Year","Month","Day","Time (LST)","Temp (°C)","Temp Flag","Dew Point Temp (°C)","Dew Point Temp Flag","Rel Hum (%)","Rel Hum Flag","Precip. Amount (mm)","Precip. Amount Flag","Wind Dir (10s deg)","Wind Dir Flag","Wind Spd (km/h)","Wind Spd Flag","Visibility (km)","Visibility Flag","Stn Press (kPa)","Stn Press Flag","Hmdx","Hmdx Flag","Wind Chill","Wind Chill Flag","Weather"
"-73.74","45.47","MONTREAL/PIERRE ELLIOTT TRUDEAU INTL","702S006","2009-08-01 00:00","2009","08","01","00:00","20.2","","18.2","","88","","","","","M","11","","","","100.91","","26","","","","NA"
"-73.74","45.47","MONTREAL/PIERRE ELLIOTT TRUDEAU INTL","702S006","2009-08-01 01:00","2009","08","01","01:00","20.2","","18.3","","89","","","","","M","6","","","","100.90","","26","","","","NA"
"-73.74","45.47","MONTREAL/PIERRE ELLIOTT TRUDEAU INTL","702S006","2009-08-01 02:00","2009","08","01","02:00","19.8","","17.6","","87","","","","","M","7","","","","100.88","","","","","","NA"
"-73.74","45.47","MONTREAL/PIERRE ELLIOTT TRUDEAU INTL","702S006","2009-08-01 03:00","2009","08","01","03:00","19.1","","16.8","","87","","","","","M","9","","","","100.90","","","","","","NA"
"-73.74","45.47","MONTREAL/PIERRE ELLIOTT TRUDEAU INTL","702S006","2009-08-01 04:00","2009","08","01","04:00","19.1","","16.6","","85","","","","","M","13","","","","100.95","","","","","","NA"
"-73.74","45.47","MONTREAL/PIERRE ELLIOTT TRUDEAU INTL","702S006","2009-08-01 05:00","2009","08","01","05:00","18.5","","16.4","","88","","","","","M","11","","","","101.03","","","","","","NA"
"-73.74","45.47","MONTREAL/PIERRE ELLIOTT TRUDEAU INTL","702S006","2009-08-01 06:00","2009","08","01","06:00","18.8","","16.6","","87","","","","","M","9","","","","101.11","","","","","","NA"
"-73.74","45.47","MONTREAL/PIERRE ELLIOTT TRUDEAU INTL","702S006","2009-08-01 07:00","2009","08","01","07:00","20.0","","17.4","","85","","","","","M","11","","","","101.11","","26","","","","NA"
"-73.74","45.47","MONTREAL/PIERRE ELLIOTT TRUDEAU INTL","702S006","2009-08-01 08:00","2009","08","01","08:00","21.1","","18.2","","84","","","","","M","11","","","","101.18","","27","","","","NA"
"-73.74","45.47","MONTREAL/PIERRE ELLIOTT TRUDEAU INTL","702S006","2009-08-01 09:00","2009","08","01","09:00","21.7","","18.4","","82","","","","","M","11","","","","101.19","","28","","","","NA"
"-73.74","45.47","MONTREAL/PIERRE ELLIOTT TRUDEAU INTL","702S006","2009-08-01 10:00","2009","08","01","10:00","23.3","","19.4","","79","","","","","M","13","","","","101.23","","30","","","","NA"
"-73.74","45.47","MONTREAL/PIERRE ELLIOTT TRUDEAU INTL","702S006","2009-08-01 11:00","2009","08","01","11:00","24.5","","18.9","","71","","","","","M","17","","","","101.23","","31","","","","NA"
"-73.74","45.47","MONTREAL/PIERRE ELLIOTT TRUDEAU INTL","702S006","2009-08-01 12:00","2009","08","01","12:00","25.3","","17.8","","63","","","","","M","19","","","","101.18","","31","","","","NA"
"-73.74","45.47","MONTREAL/PIERRE ELLIOTT TRUDEAU INTL","702S006","2009-08-01 13:00","2009","08","01","13:00","26.8","","17.0","","55","","","","","M","19","","","","101.17","","32","","","","NA"
"-73.74","45.47","MONTREAL/PIERRE ELLIOTT TRUDEAU INTL","702S006","2009-08-01 14:00","2009","08","01","14:00","27.1","","14.4","","46","","","","","M","19","","","","101.13","","31","","","","NA"
"-73.74","45.47","MONTREAL/PIERRE ELLIOTT TRUDEAU INTL","702S006","2009-08-01 15:00","2009","08","01","15:00","27.3","","13.3","","42","","","","","M","19","","","","101.10","","30","","","","NA"
"-73.74","45.47","MONTREAL/PIERRE ELLIOTT TRUDEAU INTL","702S006","2009-08-01 16:00","2009","08","01","16:00","27.4","","13.4","","42","","","","","M","17","","","","101.05","","30","","","","NA"
"-73.74","45.47","MONTREAL/PIERRE ELLIOTT TRUDEAU INTL","702S006","2009-08-01 17:00","2009","08","01","17:00","27.2","","14.8","","47","","","","","M","15","","","","101.05","","31","","","","NA"
"-73.74","45.47","MONTREAL/PIERRE ELLIOTT TRUDEAU INTL","702S006","2009-08-01 18:00","2009","08","01","18:00","26.7","","14.6","","47","","","","","M","15","","","","101.07","","30","","","","NA"
"-73.74","45.47","MONTREAL/PIERRE ELLIOTT TRUDEAU INTL","702S006","2009-08-01 19:00","2009","08","01","19:00","25.5","","14.3","","50","","","","","M","7","","","","101.10","","29","","","","NA"
"-73.74","45.47","MONTREAL/PIERRE ELLIOTT TRUDEAU INTL","702S006","2009-08-01 20:00","2009","08","01","20:00","23.9","","16.2","","62","","","","","M","9","","","","101.09","","29","","","","NA"
"-73.74","45.47","MONTREAL/PIERRE ELLIOTT TRUDEAU INTL","702S006","2009-08-01 21:00","2009","08","01","21:00","22.3","","16.8","","71","","","","","M","9","","","","101.07","","27","","","","NA"
"-73.74","45.47","MONTREAL/PIERRE ELLIOTT TRUDEAU INTL","702S006","2009-08-01 22:00","2009","08","01","22:00","22.0","","16.7","","72","","","","","M","7","","","","101.03","","27","","","","NA"
"-73.74","45.47","MONTREAL/PIERRE ELLIOTT TRUDEAU INTL","702S006","2009-08-01 23:00","2009","08","01","23:00","21.9","","16.7","","72","","","","","M","9","","","","101.01","","27","","","","NA"
"-73.74","45.47","MONTREAL/PIERRE ELLIOTT TRUDEAU INTL","702S006","2009-08-02 00:00","2009","08","02","00:00","20.6","","16.3","","76","","","","","M","9","","","","100.96","","25","","","","NA"
"-73.74","45.47","MONTREAL/PIERRE ELLIOTT TRUDEAU INTL","702S006","2009-08-02 01:00","2009","08","02","01:00","20.2","","16.9","","81","","","","","M","11","","","","100.89","","25","","","","NA"
"-73.74","45.47","MONTREAL/PIERRE ELLIOTT TRUDEAU INTL","702S006","2009-08-02 02:00","2009","08","02","02:00","21.3","","18.2","","82","","","","","M","15","","","","100.84","","27","","","","NA"
"-73.74","45.47","MONTREAL/PIERRE ELLIOTT TRUDEAU INTL","702S006","2009-08-02 03:00","2009","08","02","03:00","20.1","","16.7","","81","","","","","M","9","","","","100.79","","25","","","","NA"
"-73.74","45.47","MONTREAL/PIERRE ELLIOTT TRUDEAU INTL","702S006","2009-08-02 04:00","2009","08","02","04:00","20.2","","16.6","","80","","","","","M","15","","","","100.73","","25","","","","NA"
"-73.74","45.47","MONTREAL/PIERRE ELLIOTT TRUDEAU INTL","702S006","2009-08-02 05:00","2009","08","02","05:00","20.4","","17.0","","81","","","","","M","15","","","","100.72","","26","","","","NA"
"-73.74","45.47","MONTREAL/PIERRE ELLIOTT TRUDEAU INTL","702S006","2009-08-02 06:00","2009","08","02","06:00","20.8","","17.9","","83","","","","","M","15","","","","100.67","","27","","","","NA"
"-73.74","45.47","MONTREAL/PIERRE ELLIOTT TRUDEAU INTL","702S006","2009-08-02 07:00","2009","08","02","07:00","21.5","","18.3","","82","","","","","M","20","","","","100.65","","28","","","","NA"
"-73.74","45.47","MONTREAL/PIERRE ELLIOTT TRUDEAU INTL","702S006","2009-08-02 08:00","2009","08","02","08:00","21.9","","18.4","","81","","","","","M","9","","","","100.65","","28","","","","NA"
"-73.74","45.47","MONTREAL/PIERRE ELLIOTT TRUDEAU INTL","702S006","2009-08-02 09:00","2009","08","02","09:00","21.8","","18.9","","84","","","","","M","9","","","","100.65","","28","","","","NA"
"-73.74","45.47","MONTREAL/PIERRE ELLIOTT TRUDEAU INTL","702S006","2009-08-02 10:00","2009","08","02","10:00","21.7","","19.3","","86","","","","","M","7","","","","100.61","","29","","","","NA"
"-73.74","45.47","MONTREAL/PIERRE ELLIOTT TRUDEAU INTL","702S006","2009-08-02 11:00","2009","08","02","11:00","21.7","","19.8","","89","","","","","M","7","","","","100.56","","29","","","","NA"
"-73.74","45.47","MONTREAL/PIERRE ELLIOTT TRUDEAU INTL","702S006","2009-08-02 12:00","2009","08","02","12:00","21.8","","20.1","","90","","","","","M","9","","","","100.48","","29","","","","NA"
"-73.74","45.47","MONTREAL/PIERRE ELLIOTT TRUDEAU INTL","702S006","2009-08-02 13:00","2009","08","02","13:00","19.4","","18.0","","92","","","","","M","20","","","","100.48","","","","","","NA"
"-73.74","45.47","MONTREAL/PIERRE ELLIOTT TRUDEAU INTL","702S006","2009-08-02 14:00","2009","08","02","14:00","19.3","","17.6","","90","","","","","M","7","","","","100.39","","","","","","NA"
"-73.74","45.47","MONTREAL/PIERRE ELLIOTT TRUDEAU INTL","702S006","2009-08-02 15:00","2009","08","02","15:00","20.0","","18.3","","90","","","","","M","6","","","","100.38","","26","","","","NA"
"-73.74","45.47","MONTREAL/PIERRE ELLIOTT TRUDEAU INTL","702S006","2009-08-02 16:00","2009","08","02","16:00","20.9","","19.2","","90","","","","","M","13","","","","100.36","","28","","","","NA"
"-73.74","45.47","MONTREAL/PIERRE ELLIOTT TRUDEAU INTL","702S006","2009-08-02 17:00","2009","08","02","17:00","22.0","","19.5","","86","","","","","M","13","","","","100.33","","29","","","","NA"
"-73.74","45.47","MONTREAL/PIERRE ELLIOTT TRUDEAU INTL","702S006","2009-08-02 18:00","2009","08","02","18:00","21.9","","19.7","","87","","","","","M","11","","","","100.35","","29","","","","NA"
"-73.74","45.47","MONTREAL/PIERRE ELLIOTT TRUDEAU INTL","702S006","2009-08-02 19:00","2009","08","02","19:00","21.6","","20.1","","91","","","","","M","17","","","","100.36","","29","","","","NA"
"-73.74","45.47","MONTREAL/PIERRE ELLIOTT TRUDEAU INTL","702S006","2009-08-02 20:00","2009","08","02","20:00","21.7","","18.7","","83","","","","","M","13","","","","100.43","","28","","","","NA"
"-73.74","45.47","MONTREAL/PIERRE ELLIOTT TRUDEAU INTL","702S006","2009-08-02 21:00","2009","08","02","21:00","20.9","","18.3","","85","","","","","M","6","","","","100.49","","27","","","","NA"
"-73.74","45.47","MONTREAL/PIERRE ELLIOTT TRUDEAU INTL","702S006","2009-08-02 22:00","2009","08","02","22:00","20.4","","18.2","","87","","","","","M","6","","","","100.50","","27","","","","NA"
"-73.74","45.47","MONTREAL/PIERRE ELLIOTT TRUDEAU INTL","702S006","2009-08-02 23:00","2009","08","02","23:00","20.4","","18.0","","86","","","","","M","11","","","","100.55","","26","","","","NA"
"-73.74","45.47","MONTREAL/PIERRE ELLIOTT TRUDEAU INTL","702S006","2009-08-03 00:00","2009","08","03","00:00","19.2","","17.3","","89","","","","","M","15","","","","100.61","","","","","","NA"
"-73.74","45.47","MONTREAL/PIERRE ELLIOTT TRUDEAU INTL","702S006","2009-08-03 01:00","2009","08","03","01:00","18.1","","15.7","","86","","","","","M","17","","","","100.66","","","","","","NA"
"-73.74","45.47","MONTREAL/PIERRE ELLIOTT TRUDEAU INTL","702S006","2009-08-03 02:00","2009","08","03","02:00","16.8","","13.8","","82","","","","","M","13","","","","100.68","","","","","","NA"
"-73.74","45.47","MONTREAL/PIERRE ELLIOTT TRUDEAU INTL","702S006","2009-08-03 03:00","2009","08","03","03:00","15.4","","12.6","","83","","","","","M","7","","","","100.73","","","","","","NA"
"-73.74","45.47","MONTREAL/PIERRE ELLIOTT TRUDEAU INTL","702S006","2009-08-03 04:00","2009","08","03","04:00","14.6","","11.7","","83","","","","","M","9","","","","100.80","","","","","","NA"
"-73.74","45.47","MONTREAL/PIERRE ELLIOTT TRUDEAU INTL","702S006","2009-08-03 05:00","2009","08","03","05:00","14.1","","11.5","","84","","","","","M","15","","","","100.85","","","","","","NA"
"-73.74","45.47","MONTREAL/PIERRE ELLIOTT TRUDEAU INTL","702S006","2009-08-03 06:00","2009","08","03","06:00","15.0","","11.8","","81","","","","","M","7","","","","100.93","","","","","","NA"
"-73.74","45.47","MONTREAL/PIERRE ELLIOTT TRUDEAU INTL","702S006","2009-08-03 07:00","2009","08","03","07:00","16.4","","12.3","","77","","","","","M","11","","","","101.00","","","","","","NA"
"-73.74","45.47","MONTREAL/PIERRE ELLIOTT TRUDEAU INTL","702S006","2009-08-03 08:00","2009","08","03","08:00","18.1","","13.1","","73","","","","","M","11","","","","101.07","","","","","","NA"
"-73.74","45.47","MONTREAL/PIERRE ELLIOTT TRUDEAU INTL","702S006","2009-08-03 09:00","2009","08","03","09:00","18.8","","13.5","","71","","","","","M","13","","","","101.10","","","","","","NA"
"-73.74","45.47","MONTREAL/PIERRE ELLIOTT TRUDEAU INTL","702S006","2009-08-03 10:00","2009","08","03","10:00","20.1","","13.9","","67","","","","","M","13","","","","101.15","","","","","","NA"
"-73.74","45.47","MONTREAL/PIERRE ELLIOTT TRUDEAU INTL","702S006","2009-08-03 11:00","2009","08","03","11:00","21.3","","14.4","","65","","","","","M","15","","","","101.16","","25","","","","NA"
"-73.74","45.47","MONTREAL/PIERRE ELLIOTT TRUDEAU INTL","702S006","2009-08-03 12:00","2009","08","03","12:00","22.3","","11.9","","52","","","","","M","19","","","","101.13","","25","","","","NA"
"-73.74","45.47","MONTREAL/PIERRE ELLIOTT TRUDEAU INTL","702S006","2009-08-03 13:00","2009","08","03","13:00","23.3","","11.9","","49","","","","","M","17","","","","101.10","","26","","","","NA"
"-73.74","45.47","MONTREAL/PIERRE ELLIOTT TRUDEAU INTL","702S006","2009-08-03 14:00","2009","08","03","14:00","24.0","","11.6","","46","","","","","M","19","","","","101.07","","26","","","","NA"
"-73.74","45.47","MONTREAL/PIERRE ELLIOTT TRUDEAU INTL","702S006","2009-08-03 15:00","2009","08","03","15:00","24.5","","12.1","","46","","","","","M","19","","","","101.04","","27","","","","NA"
"-73.74","45.47","MONTREAL/PIERRE ELLIOTT TRUDEAU INTL","702S006","2009-08-03 16:00","2009","08","03","16:00","23.9","","12.7","","49","","","","","M","13","","","","101.03","","27","","","","NA"
"-73.74","45.47","MONTREAL/PIERRE ELLIOTT TRUDEAU INTL","702S006","2009-08-03 17:00","2009","08","03","17:00","23.9","","12.7","","49","","","","","M","9","","","","100.99","","27","","","","NA"
"-73.74","45.47","MONTREAL/PIERRE ELLIOTT TRUDEAU INTL","702S006","2009-08-03 18:00","2009","08","03","18:00","23.6","","13.0","","51","","","","","M","9","","","","100.98","","26","","","","NA"
"-73.74","45.47","MONTREAL/PIERRE ELLIOTT TRUDEAU INTL","702S006","2009-08-03 19:00","2009","08","03","19:00","22.4","","14.7","","62","","","","","M","15","","","","101.00","","26","","","","NA"
"-73.74","45.47","MONTREAL/PIERRE ELLIOTT TRUDEAU INTL","702S006","2009-08-03 20:00","2009","08","03","20:00","22.0","","14.6","","63","","","","","M","11","","","","101.01","","26","","","","NA"
"-73.74","45.47","MONTREAL/PIERRE ELLIOTT TRUDEAU INTL","702S006","2009-08-03 21:00","2009","08","03","21:00","21.8","","14.6","","64","","","","","M","11","","","","101.03","","26","","","","NA"
"-73.74","45.47","MONTREAL/PIERRE ELLIOTT TRUDEAU INTL","702S006","2009-08-03 22:00","2009","08","03","22:00","20.8","","15.6","","72","","","","","M","9","","","","100.97","","25","","","","NA"
"-73.74","45.47","MONTREAL/PIERRE ELLIOTT TRUDEAU INTL","702S006","2009-08-03 23:00","2009","08","03","23:00","20.5","","15.9","","75","","","","","M","7","","","","100.95","","25","","","","NA"
"-73.74","45.47","MONTREAL/PIERRE ELLIOTT TRUDEAU INTL","702S006","2009-08-04 00:00","2009","08","04","00:00","20.0","","16.1","","78","","","","","M","7","","","","100.93","","25","","","","NA"
"-73.74","45.47","MONTREAL/PIERRE ELLIOTT TRUDEAU INTL","702S006","2009-08-04 01:00","2009","08","04","01:00","20.2","","15.1","","72","","","","","M","11","","","","100.89","","","","","","NA"
"-73.74","45.47","MONTREAL/PIERRE ELLIOTT TRUDEAU INTL","702S006","2009-08-04 02:00","2009","08","04","02:00","19.1","","15.3","","79","","","","","M","13","","","","100.87","","","","","","NA"
"-73.74","45.47","MONTREAL/PIERRE ELLIOTT TRUDEAU INTL","702S006","2009-08-04 03:00","2009","08","04","03:00","19.7","","14.4","","71","","","","","M","15","","","","100.83","","","","","","NA"
"-73.74","45.47","MONTREAL/PIERRE ELLIOTT TRUDEAU INTL","702S006","2009-08-04 04:00","2009","08","04","04:00","19.6","","14.7","","73","","","","","M","15","","","","100.81","","","","","","NA"
"-73.74","45.47","MONTREAL/PIERRE ELLIOTT TRUDEAU INTL","702S006","2009-08-04 05:00","2009","08","04","05:00","18.4","","14.9","","80","","","","","M","9","","","","100.79","","","","","","NA"
"-73.74","45.47","MONTREAL/PIERRE ELLIOTT TRUDEAU INTL","702S006","2009-08-04 06:00","2009","08","04","06:00","19.4","","15.4","","78","","","","","M","15","","","","100.78","","","","","","NA"
"-73.74","45.47","MONTREAL/PIERRE ELLIOTT TRUDEAU INTL","702S006","2009-08-04 07:00","2009","08","04","07:00","20.4","","15.8","","75","","","","","M","13","","","","100.79","","25","","","","NA"
"-73.74","45.47","MONTREAL/PIERRE ELLIOTT TRUDEAU INTL","702S006","2009-08-04 08:00","2009","08","04","08:00","21.6","","16.3","","72","","","","","M","17","","","","100.78","","26","","","","NA"
"-73.74","45.47","MONTREAL/PIERRE ELLIOTT TRUDEAU INTL","702S006","2009-08-04 09:00","2009","08","04","09:00","21.8","","17.6","","77","","","","","M","13","","","","100.73","","28","","","","NA"
"-73.74","45.47","MONTREAL/PIERRE ELLIOTT TRUDEAU INTL","702S006","2009-08-04 10:00","2009","08","04","10:00","22.4","","18.3","","78","","","","","M","19","","","","100.68","","29","","","","NA"
"-73.74","45.47","MONTREAL/PIERRE ELLIOTT TRUDEAU INTL","702S006","2009-08-04 11:00","2009","08","04","11:00","24.7","","18.6","","69","","","","","M","22","","","","100.59","","31","","","","NA"
"-73.74","45.47","MONTREAL/PIERRE ELLIOTT TRUDEAU INTL","702S006","2009-08-04 12:00","2009","08","04","12:00","26.4","","18.7","","63","","","","","M","19","","","","100.51","","33","","","","NA"
"-73.74","45.47","MONTREAL/PIERRE ELLIOTT TRUDEAU INTL","702S006","2009-08-04 13:00","2009","08","04","13:00","27.4","","18.7","","59","","","","","M","13","","","","100.44","","34","","","","NA"
"-73.74","45.47","MONTREAL/PIERRE ELLIOTT TRUDEAU INTL","702S006","2009-08-04 14:00","2009","08","04","14:00","27.9","","19.2","","59","","","","","M","13","","","","100.37","","35","","","","NA"
"-73.74","45.47","MONTREAL/PIERRE ELLIOTT TRUDEAU INTL","702S006","2009-08-04 15:00","2009","08","04","15:00","28.2","","19.8","","60","","","","","M","9","","","","100.32","","36","","","","NA"
"-73.74","45.47","MONTREAL/PIERRE ELLIOTT TRUDEAU INTL","702S006","2009-08-04 16:00","2009","08","04","16:00","28.2","","20.2","","62","","","","","M","7","","","","100.27","","36","","","","NA"
"-73.74","45.47","MONTREAL/PIERRE ELLIOTT TRUDEAU INTL","702S006","2009-08-04 17:00","2009","08","04","17:00","27.8","","19.3","","60","","","","","M","11","","","","100.21","","35","","","","NA"
"-73.74","45.47","MONTREAL/PIERRE ELLIOTT TRUDEAU INTL","702S006","2009-08-04 18:00","2009","08","04","18:00","27.3","","18.7","","59","","","","","M","15","","","","100.22","","34","","","","NA"
"-73.74","45.47","MONTREAL/PIERRE ELLIOTT TRUDEAU INTL","702S006","2009-08-04 19:00","2009","08","04","19:00","22.2","","17.9","","77","","","","","M","26","","","","100.28","","28","","","","NA"
"-73.74","45.47","MONTREAL/PIERRE ELLIOTT TRUDEAU INTL","702S006","2009-08-04 20:00","2009","08","04","20:00","21.4","","17.6","","79","","","","","M","9","","","","100.31","","27","","","","NA"
"-73.74","45.47","MONTREAL/PIERRE ELLIOTT TRUDEAU INTL","702S006","2009-08-04 21:00","2009","08","04","21:00","19.9","","18.1","","89","","","","","M","9","","","","100.31","","","","","","NA"
"-73.74","45.47","MONTREAL/PIERRE ELLIOTT TRUDEAU INTL","702S006","2009-08-04 22:00","2009","08","04","22:00","20.4","","19.1","","92","","","","","M","24","","","","100.26","","27","","","","NA"
"-73.74","45.47","MONTREAL/PIERRE ELLIOTT TRUDEAU INTL","702S006","2009-08-04 23:00","2009","08","04","23:00","20.7","","19.0","","90","","","","","M","20","","","","100.23","","27","","","","NA"
"-73.74","45.47","MONTREAL/PIERRE ELLIOTT TRUDEAU INTL","702S006","2009-08-05 00:00","2009","08","05","00:00","21.0","","19.3","","90","","","","","M","22","","","","100.19","","28","","","","NA"
"-73.74","45.47","MONTREAL/PIERRE ELLIOTT TRUDEAU INTL","702S006","2009-08-05 01:00","2009","08","05","01:00","21.1","","19.4","","90","","","","","M","9","","","","100.19","","28","","","","NA"
"-73.74","45.47","MONTREAL/PIERRE ELLIOTT TRUDEAU INTL","702S006","2009-08-05 02:00","2009","08","05","02:00","20.4","","19.0","","92","","","","","M","11","","","","100.24","","27","","","","NA"
"-73.74","45.47","MONTREAL/PIERRE ELLIOTT TRUDEAU INTL","702S006","2009-08-05 03:00","2009","08","05","03:00","19.7","","18.1","","90","","","","","M","17","","","","100.28","","","","","","NA"
"-73.74","45.47","MONTREAL/PIERRE ELLIOTT TRUDEAU INTL","702S006","2009-08-05 04:00","2009","08","05","04:00","18.8","","16.8","","88","","","","","M","17","","","","100.34","","","","","","NA"
"-73.74","45.47","MONTREAL/PIERRE ELLIOTT TRUDEAU INTL","702S006","2009-08-05 05:00","2009","08","05","05:00","17.7","","15.8","","89","","","","","M","15","","","","100.44","","","","","","NA"
"-73.74","45.47","MONTREAL/PIERRE ELLIOTT TRUDEAU INTL","702S006","2009-08-05 06:00","2009","08","05","06:00","17.5","","15.3","","87","","","","","M","13","","","","100.55","","","","","","NA"
"-73.74","45.47","MONTREAL/PIERRE ELLIOTT TRUDEAU INTL","702S006","2009-08-05 07:00","2009","08","05","07:00","18.3","","15.6","","84","","","","","M","13","","","","100.61","","","","","","NA"
"-73.74","45.47","MONTREAL/PIERRE ELLIOTT TRUDEAU INTL","702S006","2009-08-05 08:00","2009","08","05","08:00","19.2","","15.4","","79","","","","","M","13","","","","100.66","","","","","","NA"
"-73.74","45.47","MONTREAL/PIERRE ELLIOTT TRUDEAU INTL","702S006","2009-08-05 09:00","2009","08","05","09:00","20.2","","15.3","","73","","","","","M","13","","","","100.68","","","","","","NA"
"-73.74","45.47","MONTREAL/PIERRE ELLIOTT TRUDEAU INTL","702S006","2009-08-05 10:00","2009","08","05","10:00","21.1","","13.8","","63","","","","","M","19","","","","100.75","","","","","","NA"
"-73.74","45.47","MONTREAL/PIERRE ELLIOTT TRUDEAU INTL","702S006","2009-08-05 11:00","2009","08","05","11:00","22.4","","14.5","","61","","","","","M","22","","","","100.74","","26","","","","NA"
"-73.74","45.47","MONTREAL/PIERRE ELLIOTT TRUDEAU INTL","702S006","2009-08-05 12:00","2009","08","05","12:00","22.4","","12.6","","54","","","","","M","26","","","","100.72","","25","","","","NA"
"-73.74","45.47","MONTREAL/PIERRE ELLIOTT TRUDEAU INTL","702S006","2009-08-05 13:00","2009","08","05","13:00","23.1","","11.5","","48","","","","","M","28","","","","100.71","","25","","","","NA"
"-73.74","45.47","MONTREAL/PIERRE ELLIOTT TRUDEAU INTL","702S006","2009-08-05 14:00","2009","08","05","14:00","22.9","","12.8","","53","","","","","M","19","","","","100.73","","26","","","","NA"
"-73.74","45.47","MONTREAL/PIERRE ELLIOTT TRUDEAU INTL","702S006","2009-08-05 15:00","2009","08","05","15:00","23.7","","13.6","","53","","","","","M","22","","","","100.76","","27","","","","NA"
"-73.74","45.47","MONTREAL/PIERRE ELLIOTT TRUDEAU INTL","702S006","2009-08-05 16:00","2009","08","05","16:00","23.6","","12.5","","50","","","","","M","24","","","","100.75","","26","","","","NA"
"-73.74","45.47","MONTREAL/PIERRE ELLIOTT TRUDEAU INTL","702S006","2009-08-05 17:00","2009","08","05","17:00","22.4","","12.4","","53","","","","","M","24","","","","100.79","","25","","","","NA"
"-73.74","45.47","MONTREAL/PIERRE ELLIOTT TRUDEAU INTL","702S006","2009-08-05 18:00","2009","08","05","18:00","22.8","","12.9","","54","","","","","M","19","","","","100.80","","26","","","","NA"
"-73.74","45.47","MONTREAL/PIERRE ELLIOTT TRUDEAU INTL","702S006","2009-08-05 19:00","2009","08","05","19:00","20.7","","12.9","","61","","","","","M","13","","","","100.80","","","","","","NA"
"-73.74","45.47","MONTREAL/PIERRE ELLIOTT TRUDEAU INTL","702S006","2009-08-05 20:00","2009","08","05","20:00","20.5","","13.3","","63","","","","","M","7","","","","100.85","","","","","","NA"
"-73.74","45.47","MONTREAL/PIERRE ELLIOTT TRUDEAU INTL","702S006","2009-08-05 21:00","2009","08","05","21:00","19.5","","13.8","","70","","","","","M","9","","","","100.88","","","","","","NA"
"-73.74","45.47","MONTREAL/PIERRE ELLIOTT TRUDEAU INTL","702S006","2009-08-05 22:00","2009","08","05","22:00","18.6","","14.2","","76","","","","","M","6","","","","100.83","","","","","","NA"
"-73.74","45.47","MONTREAL/PIERRE ELLIOTT TRUDEAU INTL","702S006","2009-08-05 23:00","2009","08","05","23:00","19.5","","15.9","","80","","","","","M","15","","","","100.87","","","","","","NA"
"-73.74","45.47","MONTREAL/PIERRE ELLIOTT TRUDEAU INTL","702S006","2009-08-06 00:00","2009","08","06","00:00","19.2","","16.0","","82","","","","","M","17","","","","100.88","","","","","","NA"
"-73.74","45.47","MONTREAL/PIERRE ELLIOTT TRUDEAU INTL","702S006","2009-08-06 01:00","2009","08","06","01:00","18.9","","16.1","","84","","","","","M","9","","","","100.85","","","","","","NA"
"-73.74","45.47","MONTREAL/PIERRE ELLIOTT TRUDEAU INTL","702S006","2009-08-06 02:00","2009","08","06","02:00","18.4","","15.6","","84","","","","","M","9","","","","100.85","","","","","","NA"
"-73.74","45.47","MONTREAL/PIERRE ELLIOTT TRUDEAU INTL","702S006","2009-08-06 03:00","2009","08","06","03:00","18.3","","15.7","","85","","","","","M","13","","","","100.83","","","","","","NA"
"-73.74","45.47","MONTREAL/PIERRE ELLIOTT TRUDEAU INTL","702S006","2009-08-06 04:00","2009","08","06","04:00","18.1","","15.3","","84","","","","","M","11","","","","100.83","","","","","","NA"
"-73.74","45.47","MONTREAL/PIERRE ELLIOTT TRUDEAU INTL","702S006","2009-08-06 05:00","2009","08","06","05:00","17.9","","14.1","","78","","","","","M","11","","","","100.83","","","","","","NA"
"-73.74","45.47","MONTREAL/PIERRE ELLIOTT TRUDEAU INTL","702S006","2009-08-06 06:00","2009","08","06","06:00","17.8","","15.6","","87","","","","","M","15","","","","100.85","","","","","","NA"
"-73.74","45.47","MONTREAL/PIERRE ELLIOTT TRUDEAU INTL","702S006","2009-08-06 07:00","2009","08","06","07:00","17.9","","15.4","","85","","","","","M","15","","","","100.86","","","","","","NA"
"-73.74","45.47","MONTREAL/PIERRE ELLIOTT TRUDEAU INTL","702S006","2009-08-06 08:00","2009","08","06","08:00","19.0","","15.5","","80","","","","","M","13","","","","100.88","","","","","","NA"
"-73.74","45.47","MONTREAL/PIERRE ELLIOTT TRUDEAU INTL","702S006","2009-08-06 09:00","2009","08","06","09:00","20.5","","15.5","","73","","","","","M","19","","","","100.88","","25","","","","NA"
"-73.74","45.47","MONTREAL/PIERRE ELLIOTT TRUDEAU INTL","702S006","2009-08-06 10:00","2009","08","06","10:00","20.7","","14.7","","68","","","","","M","19","","","","100.90","","","","","","NA"
"-73.74","45.47","MONTREAL/PIERRE ELLIOTT TRUDEAU INTL","702S006","2009-08-06 11:00","2009","08","06","11:00","20.5","","15.2","","72","","","","","M","22","","","","100.86","","25","","","","NA"
"-73.74","45.47","MONTREAL/PIERRE ELLIOTT TRUDEAU INTL","702S006","2009-08-06 12:00","2009","08","06","12:00","21.7","","14.6","","64","","","","","M","20","","","","100.84","","25","","","","NA"
"-73.74","45.47","MONTREAL/PIERRE ELLIOTT TRUDEAU INTL","702S006","2009-08-06 13:00","2009","08","06","13:00","22.0","","16.1","","69","","","","","M","19","","","","100.80","","27","","","","NA"
"-73.74","45.47","MONTREAL/PIERRE ELLIOTT TRUDEAU INTL","702S006","2009-08-06 14:00","2009","08","06","14:00","21.4","","15.4","","69","","","","","M","17","","","","100.77","","26","","","","NA"
"-73.74","45.47","MONTREAL/PIERRE ELLIOTT TRUDEAU INTL","702S006","2009-08-06 15:00","2009","08","06","15:00","16.8","","13.8","","82","","","","","M","22","","","","100.87","","","","","","NA"
"-73.74","45.47","MONTREAL/PIERRE ELLIOTT TRUDEAU INTL","702S006","2009-08-06 16:00","2009","08","06","16:00","18.1","","15.5","","85","","","","","M","9","","","","100.84","","","","","","NA"
"-73.74","45.47","MONTREAL/PIERRE ELLIOTT TRUDEAU INTL","702S006","2009-08-06 17:00","2009","08","06","17:00","20.5","","15.3","","72","","","","","M","11","","","","100.79","","25","","","","NA"
"-73.74","45.47","MONTREAL/PIERRE ELLIOTT TRUDEAU INTL","702S006","2009-08-06 18:00","2009","08","06","18:00","20.1","","15.2","","73","","","","","M","13","","","","100.84","","","","","","NA"
"-73.74","45.47","MONTREAL/PIERRE ELLIOTT TRUDEAU INTL","702S006","2009-08-06 19:00","2009","08","06","19:00","19.4","","15.9","","80","","","","","M","11","","","","100.89","","","","","","NA"
"-73.74","45.47","MONTREAL/PIERRE ELLIOTT TRUDEAU INTL","702S006","2009-08-06 20:00","2009","08","06","20:00","18.3","","15.3","","83","","","","","M","9","","","","100.91","","","","","","NA"
"-73.74","45.47","MONTREAL/PIERRE ELLIOTT TRUDEAU INTL","702S006","2009-08-06 21:00","2009","08","06","21:00","17.5","","15.1","","86","","","","","M","9","","","","100.95","","","","","","NA"
"-73.74","45.47","MONTREAL/PIERRE ELLIOTT TRUDEAU INTL","702S006","2009-08-06 22:00","2009","08","06","22:00","16.9","","15.0","","89","","","","","M","9","","","","100.93","","","","","","NA"
"-73.74","45.47","MONTREAL/PIERRE ELLIOTT TRUDEAU INTL","702S006","2009-08-06 23:00","2009","08","06","23:00","16.8","","14.4","","86","","","","","M","7","","","","100.94","","","","","","NA"
"-73.74","45.47","MONTREAL/PIERRE ELLIOTT TRUDEAU INTL","702S006","2009-08-07 00:00","2009","08","07","00:00","16.6","","14.8","","89","","","","","M","7","","","","100.89","","","","","","NA"
"-73.74","45.47","MONTREAL/PIERRE ELLIOTT TRUDEAU INTL","702S006","2009-08-07 01:00","2009","08","07","01:00","15.4","","13.6","","89","","","","","M","6","","","","100.89","","","","","","NA"
"-73.74","45.47","MONTREAL/PIERRE ELLIOTT TRUDEAU INTL","702S006","2009-08-07 02:00","2009","08","07","02:00","15.8","","13.3","","85","","","","","M","0","","","","100.81","","","","","","NA"
"-73.74","45.47","MONTREAL/PIERRE ELLIOTT TRUDEAU INTL","702S006","2009-08-07 03:00","2009","08","07","03:00","15.3","","13.3","","88","","","","","M","11","","","","100.85","","","","","","NA"
"-73.74","45.47","MONTREAL/PIERRE ELLIOTT TRUDEAU INTL","702S006","2009-08-07 04:00","2009","08","07","04:00","15.7","","13.6","","87","","","","","M","13","","","","100.90","","","","","","NA"
"-73.74","45.47","MONTREAL/PIERRE ELLIOTT TRUDEAU INTL","702S006","2009-08-07 05:00","2009","08","07","05:00","15.4","","13.5","","88","","","","","M","15","","","","100.99","","","","","","NA"
"-73.74","45.47","MONTREAL/PIERRE ELLIOTT TRUDEAU INTL","702S006","2009-08-07 06:00","2009","08","07","06:00","15.2","","13.2","","88","","","","","M","11","","","","101.03","","","","","","NA"
"-73.74","45.47","MONTREAL/PIERRE ELLIOTT TRUDEAU INTL","702S006","2009-08-07 07:00","2009","08","07","07:00","16.2","","13.0","","81","","","","","M","15","","","","101.11","","","","","","NA"
"-73.74","45.47","MONTREAL/PIERRE ELLIOTT TRUDEAU INTL","702S006","2009-08-07 08:00","2009","08","07","08:00","16.5","","12.3","","76","","","","","M","20","","","","101.19","","","","","","NA"
"-73.74","45.47","MONTREAL/PIERRE ELLIOTT TRUDEAU INTL","702S006","2009-08-07 09:00","2009","08","07","09:00","17.4","","12.6","","73","","","","","M","20","","","","101.26","","","","","","NA"
"-73.74","45.47","MONTREAL/PIERRE ELLIOTT TRUDEAU INTL","702S006","2009-08-07 10:00","2009","08","07","10:00","17.3","","11.7","","70","","","","","M","15","","","","101.30","","","","","","NA"
"-73.74","45.47","MONTREAL/PIERRE ELLIOTT TRUDEAU INTL","702S006","2009-08-07 11:00","2009","08","07","11:00","18.1","","13.7","","75","","","","","M","9","","","","101.26","","","","","","NA"
"-73.74","45.47","MONTREAL/PIERRE ELLIOTT TRUDEAU INTL","702S006","2009-08-07 12:00","2009","08","07","12:00","18.9","","10.9","","60","","","","","M","24","","","","101.21","","","","","","NA"
"-73.74","45.47","MONTREAL/PIERRE ELLIOTT TRUDEAU INTL","702S006","2009-08-07 13:00","2009","08","07","13:00","20.8","","10.6","","52","","","","","M","22","","","","101.22","","","","","","NA"
"-73.74","45.47","MONTREAL/PIERRE ELLIOTT TRUDEAU INTL","702S006","2009-08-07 14:00","2009","08","07","14:00","21.7","","11.0","","51","","","","","M","22","","","","101.23","","","","","","NA"
"-73.74","45.47","MONTREAL/PIERRE ELLIOTT TRUDEAU INTL","702S006","2009-08-07 15:00","2009","08","07","15:00","20.1","","10.2","","53","","","","","M","17","","","","101.28","","","","","","NA"
"-73.74","45.47","MONTREAL/PIERRE ELLIOTT TRUDEAU INTL","702S006","2009-08-07 16:00","2009","08","07","16:00","19.9","","11.1","","57","","","","","M","15","","","","101.32","","","","","","NA"
"-73.74","45.47","MONTREAL/PIERRE ELLIOTT TRUDEAU INTL","702S006","2009-08-07 17:00","2009","08","07","17:00","20.5","","9.9","","51","","","","","M","17","","","","101.33","","","","","","NA"
"-73.74","45.47","MONTREAL/PIERRE ELLIOTT TRUDEAU INTL","702S006","2009-08-07 18:00","2009","08","07","18:00","19.7","","7.5","","45","","","","","M","22","","","","101.44","","","","","","NA"
"-73.74","45.47","MONTREAL/PIERRE ELLIOTT TRUDEAU INTL","702S006","2009-08-07 19:00","2009","08","07","19:00","18.1","","7.1","","49","","","","","M","19","","","","101.50","","","","","","NA"
"-73.74","45.47","MONTREAL/PIERRE ELLIOTT TRUDEAU INTL","702S006","2009-08-07 20:00","2009","08","07","20:00","16.7","","6.7","","52","","","","","M","17","","","","101.56","","","","","","NA"
"-73.74","45.47","MONTREAL/PIERRE ELLIOTT TRUDEAU INTL","702S006","2009-08-07 21:00","2009","08","07","21:00","14.5","","7.6","","63","","","","","M","11","","","","101.58","","","","","","NA"
"-73.74","45.47","MONTREAL/PIERRE ELLIOTT TRUDEAU INTL","702S006","2009-08-07 22:00","2009","08","07","22:00","14.0","","7.7","","66","","","","","M","13","","","","101.61","","","","","","NA"
"-73.74","45.47","MONTREAL/PIERRE ELLIOTT TRUDEAU INTL","702S006","2009-08-07 23:00","2009","08","07","23:00","12.9","","7.8","","71","","","","","M","13","","","","101.66","","","","","","NA"
"-73.74","45.47","MONTREAL/PIERRE ELLIOTT TRUDEAU INTL","702S006","2009-08-08 00:00","2009","08","08","00:00","12.1","","8.2","","77","","","","","M","9","","","","101.70","","","","","","NA"
"-73.74","45.47","MONTREAL/PIERRE ELLIOTT TRUDEAU INTL","702S006","2009-08-08 01:00","2009","08","08","01:00","12.1","","8.1","","77","","","","","M","4","","","","101.73","","","","","","NA"
"-73.74","45.47","MONTREAL/PIERRE ELLIOTT TRUDEAU INTL","702S006","2009-08-08 02:00","2009","08","08","02:00","12.4","","7.9","","74","","","","","M","6","","","","101.77","","","","","","NA"
"-73.74","45.47","MONTREAL/PIERRE ELLIOTT TRUDEAU INTL","702S006","2009-08-08 03:00","2009","08","08","03:00","11.9","","8.1","","78","","","","","M","2","","","","101.79","","","","","","NA"
"-73.74","45.47","MONTREAL/PIERRE ELLIOTT TRUDEAU INTL","702S006","2009-08-08 04:00","2009","08","08","04:00","11.2","","8.5","","83","","","","","M","0","","","","101.80","","","","","","NA"
"-73.74","45.47","MONTREAL/PIERRE ELLIOTT TRUDEAU INTL","702S006","2009-08-08 05:00","2009","08","08","05:00","10.6","","8.2","","85","","","","","M","4","","","","101.85","","","","","","NA"
"-73.74","45.47","MONTREAL/PIERRE ELLIOTT TRUDEAU INTL","702S006","2009-08-08 06:00","2009","08","08","06:00","13.0","","10.8","","86","","","","","M","4","","","","101.85","","","","","","NA"
"-73.74","45.47","MONTREAL/PIERRE ELLIOTT TRUDEAU INTL","702S006","2009-08-08 07:00","2009","08","08","07:00","14.8","","11.5","","81","","","","","M","6","","","","101.86","","","","","","NA"
"-73.74","45.47","MONTREAL/PIERRE ELLIOTT TRUDEAU INTL","702S006","2009-08-08 08:00","2009","08","08","08:00","17.4","","11.3","","67","","","","","M","9","","","","102.01","","","","","","NA"
"-73.74","45.47","MONTREAL/PIERRE ELLIOTT TRUDEAU INTL","702S006","2009-08-08 09:00","2009","08","08","09:00","18.7","","9.8","","56","","","","","M","15","","","","101.98","","","","","","NA"
"-73.74","45.47","MONTREAL/PIERRE ELLIOTT TRUDEAU INTL","702S006","2009-08-08 10:00","2009","08","08","10:00","20.3","","9.1","","49","","","","","M","11","","","","101.93","","","","","","NA"
"-73.74","45.47","MONTREAL/PIERRE ELLIOTT TRUDEAU INTL","702S006","2009-08-08 11:00","2009","08","08","11:00","21.2","","8.7","","45","","","","","M","11","","","","101.89","","","","","","NA"
"-73.74","45.47","MONTREAL/PIERRE ELLIOTT TRUDEAU INTL","702S006","2009-08-08 12:00","2009","08","08","12:00","21.4","","9.2","","46","","","","","M","15","","","","101.88","","","","","","NA"
"-73.74","45.47","MONTREAL/PIERRE ELLIOTT TRUDEAU INTL","702S006","2009-08-08 13:00","2009","08","08","13:00","21.6","","8.5","","43","","","","","M","15","","","","101.86","","","","","","NA"
"-73.74","45.47","MONTREAL/PIERRE ELLIOTT TRUDEAU INTL","702S006","2009-08-08 14:00","2009","08","08","14:00","22.5","","8.9","","42","","","","","M","15","","","","101.81","","","","","","NA"
"-73.74","45.47","MONTREAL/PIERRE ELLIOTT TRUDEAU INTL","702S006","2009-08-08 15:00","2009","08","08","15:00","21.7","","9.4","","45","","","","","M","13","","","","101.80","","","","","","NA"
"-73.74","45.47","MONTREAL/PIERRE ELLIOTT TRUDEAU INTL","702S006","2009-08-08 16:00","2009","08","08","16:00","22.4","","9.5","","44","","","","","M","19","","","","101.73","","","","","","NA"
"-73.74","45.47","MONTREAL/PIERRE ELLIOTT TRUDEAU INTL","702S006","2009-08-08 17:00","2009","08","08","17:00","21.5","","9.0","","45","","","","","M","13","","","","101.70","","","","","","NA"
"-73.74","45.47","MONTREAL/PIERRE ELLIOTT TRUDEAU INTL","702S006","2009-08-08 18:00","2009","08","08","18:00","21.1","","8.3","","44","","","","","M","11","","","","101.69","","","","","","NA"
"-73.74","45.47","MONTREAL/PIERRE ELLIOTT TRUDEAU INTL","702S006","2009-08-08 19:00","2009","08","08","19:00","20.4","","8.6","","47","","","","","M","6","","","","101.65","","","","","","NA"
"-73.74","45.47","MONTREAL/PIERRE ELLIOTT TRUDEAU INTL","702S006","2009-08-08 20:00","2009","08","08","20:00","19.3","","9.6","","53","","","","","M","6","","","","101.66","","","","","","NA"
"-73.74","45.47","MONTREAL/PIERRE ELLIOTT TRUDEAU INTL","702S006","2009-08-08 21:00","2009","08","08","21:00","17.5","","10.9","","65","","","","","M","11","","","","101.66","","","","","","NA"
"-73.74","45.47","MONTREAL/PIERRE ELLIOTT TRUDEAU INTL","702S006","2009-08-08 22:00","2009","08","08","22:00","17.9","","11.1","","64","","","","","M","13","","","","101.64","","","","","","NA"
"-73.74","45.47","MONTREAL/PIERRE ELLIOTT TRUDEAU INTL","702S006","2009-08-08 23:00","2009","08","08","23:00","17.2","","11.6","","70","","","","","M","11","","","","101.62","","","","","","NA"
"-73.74","45.47","MONTREAL/PIERRE ELLIOTT TRUDEAU INTL","702S006","2009-08-09 00:00","2009","08","09","00:00","17.6","","11.8","","69","","","","","M","7","","","","101.59","","","","","","NA"
"-73.74","45.47","MONTREAL/PIERRE ELLIOTT TRUDEAU INTL","702S006","2009-08-09 01:00","2009","08","09","01:00","16.5","","11.2","","71","","","","","M","7","","","","101.55","","","","","","NA"
"-73.74","45.47","MONTREAL/PIERRE ELLIOTT TRUDEAU INTL","702S006","2009-08-09 02:00","2009","08","09","02:00","16.6","","12.4","","76","","","","","M","13","","","","101.44","","","","","","NA"
"-73.74","45.47","MONTREAL/PIERRE ELLIOTT TRUDEAU INTL","702S006","2009-08-09 03:00","2009","08","09","03:00","16.0","","12.6","","80","","","","","M","13","","","","101.43","","","","","","NA"
"-73.74","45.47","MONTREAL/PIERRE ELLIOTT TRUDEAU INTL","702S006","2009-08-09 04:00","2009","08","09","04:00","15.6","","12.4","","81","","","","","M","13","","","","101.43","","","","","","NA"
"-73.74","45.47","MONTREAL/PIERRE ELLIOTT TRUDEAU INTL","702S006","2009-08-09 05:00","2009","08","09","05:00","15.9","","13.0","","83","","","","","M","13","","","","101.40","","","","","","NA"
"-73.74","45.47","MONTREAL/PIERRE ELLIOTT TRUDEAU INTL","702S006","2009-08-09 06:00","2009","08","09","06:00","16.6","","13.4","","81","","","","","M","11","","","","101.39","","","","","","NA"
"-73.74","45.47","MONTREAL/PIERRE ELLIOTT TRUDEAU INTL","702S006","2009-08-09 07:00","2009","08","09","07:00","17.6","","13.7","","78","","","","","M","11","","","","101.32","","","","","","NA"
"-73.74","45.47","MONTREAL/PIERRE ELLIOTT TRUDEAU INTL","702S006","2009-08-09 08:00","2009","08","09","08:00","19.5","","14.2","","71","","","","","M","17","","","","101.29","","","","","","NA"
"-73.74","45.47","MONTREAL/PIERRE ELLIOTT TRUDEAU INTL","702S006","2009-08-09 09:00","2009","08","09","09:00","21.2","","15.2","","69","","","","","M","13","","","","101.24","","25","","","","NA"
"-73.74","45.47","MONTREAL/PIERRE ELLIOTT TRUDEAU INTL","702S006","2009-08-09 10:00","2009","08","09","10:00","22.5","","15.4","","64","","","","","M","17","","","","101.15","","27","","","","NA"
"-73.74","45.47","MONTREAL/PIERRE ELLIOTT TRUDEAU INTL","702S006","2009-08-09 11:00","2009","08","09","11:00","23.8","","15.4","","59","","","","","M","15","","","","101.14","","28","","","","NA"
"-73.74","45.47","MONTREAL/PIERRE ELLIOTT TRUDEAU INTL","702S006","2009-08-09 12:00","2009","08","09","12:00","23.2","","15.3","","61","","","","","M","17","","","","101.05","","27","","","","NA"
"-73.74","45.47","MONTREAL/PIERRE ELLIOTT TRUDEAU INTL","702S006","2009-08-09 13:00","2009","08","09","13:00","23.5","","17.0","","67","","","","","M","9","","","","100.98","","29","","","","NA"
"-73.74","45.47","MONTREAL/PIERRE ELLIOTT TRUDEAU INTL","702S006","2009-08-09 14:00","2009","08","09","14:00","23.2","","17.1","","69","","","","","M","17","","","","100.94","","29","","","","NA"
"-73.74","45.47","MONTREAL/PIERRE ELLIOTT TRUDEAU INTL","702S006","2009-08-09 15:00","2009","08","09","15:00","22.9","","17.3","","71","","","","","M","13","","","","100.85","","28","","","","NA"
"-73.74","45.47","MONTREAL/PIERRE ELLIOTT TRUDEAU INTL","702S006","2009-08-09 16:00","2009","08","09","16:00","22.2","","18.1","","78","","","","","M","13","","","","100.75","","28","","","","NA"
"-73.74","45.47","MONTREAL/PIERRE ELLIOTT TRUDEAU INTL","702S006","2009-08-09 17:00","2009","08","09","17:00","21.7","","17.6","","78","","","","","M","11","","","","100.77","","27","","","","NA"
"-73.74","45.47","MONTREAL/PIERRE ELLIOTT TRUDEAU INTL","702S006","2009-08-09 18:00","2009","08","09","18:00","21.7","","17.8","","79","","","","","M","9","","","","100.76","","28","","","","NA"
"-73.74","45.47","MONTREAL/PIERRE ELLIOTT TRUDEAU INTL","702S006","2009-08-09 19:00","2009","08","09","19:00","21.7","","17.9","","79","","","","","M","9","","","","100.76","","28","","","","NA"
"-73.74","45.47","MONTREAL/PIERRE ELLIOTT TRUDEAU INTL","702S006","2009-08-09 20:00","2009","08","09","20:00","21.6","","18.6","","83","","","","","M","7","","","","100.71","","28","","","","NA"
"-73.74","45.47","MONTREAL/PIERRE ELLIOTT TRUDEAU INTL","702S006","2009-08-09 21:00","2009","08","09","21:00","21.3","","18.9","","86","","","","","M","9","","","","100.68","","28","","","","NA"
"-73.74","45.47","MONTREAL/PIERRE ELLIOTT TRUDEAU INTL","702S006","2009-08-09 22:00","2009","08","09","22:00","20.6","","18.9","","90","","","","","M","9","","","","100.65","","27","","","","NA"
"-73.74","45.47","MONTREAL/PIERRE ELLIOTT TRUDEAU INTL","702S006","2009-08-09 23:00","2009","08","09","23:00","20.5","","19.1","","92","","","","","M","7","","","","100.59","","27","","","","NA"
"-73.74","45.47","MONTREAL/PIERRE ELLIOTT TRUDEAU INTL","702S006","2009-08-10 00:00","2009","08","10","00:00","20.4","","18.9","","91","","","","","M","11","","","","100.54","","27","","","","NA"
"-73.74","45.47","MONTREAL/PIERRE ELLIOTT TRUDEAU INTL","702S006","2009-08-10 01:00","2009","08","10","01:00","20.6","","19.2","","92","","","","","M","6","","","","100.56","","28","","","","NA"
"-73.74","45.47","MONTREAL/PIERRE ELLIOTT TRUDEAU INTL","702S006","2009-08-10 02:00","2009","08","10","02:00","20.5","","19.2","","92","","","","","M","6","","","","100.55","","27","","","","NA"
"-73.74","45.47","MONTREAL/PIERRE ELLIOTT TRUDEAU INTL","702S006","2009-08-10 03:00","2009","08","10","03:00","20.7","","19.4","","92","","","","","M","6","","","","100.56","","28","","","","NA"
"-73.74","45.47","MONTREAL/PIERRE ELLIOTT TRUDEAU INTL","702S006","2009-08-10 04:00","2009","08","10","04:00","20.6","","19.4","","93","","","","","M","7","","","","100.48","","28","","","","NA"
"-73.74","45.47","MONTREAL/PIERRE ELLIOTT TRUDEAU INTL","702S006","2009-08-10 05:00","2009","08","10","05:00","20.7","","19.6","","93","","","","","M","9","","","","100.46","","28","","","","NA"
"-73.74","45.47","MONTREAL/PIERRE ELLIOTT TRUDEAU INTL","702S006","2009-08-10 06:00","2009","08","10","06:00","21.0","","19.9","","93","","","","","M","11","","","","100.49","","28","","","","NA"
"-73.74","45.47","MONTREAL/PIERRE ELLIOTT TRUDEAU INTL","702S006","2009-08-10 07:00","2009","08","10","07:00","21.0","","20.3","","96","","","","","M","15","","","","100.44","","29","","","","NA"
"-73.74","45.47","MONTREAL/PIERRE ELLIOTT TRUDEAU INTL","702S006","2009-08-10 08:00","2009","08","10","08:00","21.6","","21.0","","96","","","","","M","11","","","","100.44","","30","","","","NA"
"-73.74","45.47","MONTREAL/PIERRE ELLIOTT TRUDEAU INTL","702S006","2009-08-10 09:00","2009","08","10","09:00","22.3","","21.6","","96","","","","","M","17","","","","100.48","","31","","","","NA"
"-73.74","45.47","MONTREAL/PIERRE ELLIOTT TRUDEAU INTL","702S006","2009-08-10 10:00","2009","08","10","10:00","23.7","","21.9","","90","","","","","M","15","","","","100.48","","33","","","","NA"
"-73.74","45.47","MONTREAL/PIERRE ELLIOTT TRUDEAU INTL","702S006","2009-08-10 11:00","2009","08","10","11:00","25.1","","21.9","","82","","","","","M","15","","","","100.45","","34","","","","NA"
"-73.74","45.47","MONTREAL/PIERRE ELLIOTT TRUDEAU INTL","702S006","2009-08-10 12:00","2009","08","10","12:00","26.4","","22.0","","77","","","","","M","17","","","","100.43","","36","","","","NA"
"-73.74","45.47","MONTREAL/PIERRE ELLIOTT TRUDEAU INTL","702S006","2009-08-10 13:00","2009","08","10","13:00","27.9","","21.2","","67","","","","","M","20","","","","100.41","","36","","","","NA"
"-73.74","45.47","MONTREAL/PIERRE ELLIOTT TRUDEAU INTL","702S006","2009-08-10 14:00","2009","08","10","14:00","28.2","","19.8","","60","","","","","M","26","","","","100.40","","36","","","","NA"
"-73.74","45.47","MONTREAL/PIERRE ELLIOTT TRUDEAU INTL","702S006","2009-08-10 15:00","2009","08","10","15:00","29.3","","20.5","","59","","","","","M","24","","","","100.37","","37","","","","NA"
"-73.74","45.47","MONTREAL/PIERRE ELLIOTT TRUDEAU INTL","702S006","2009-08-10 16:00","2009","08","10","16:00","26.8","","20.7","","69","","","","","M","17","","","","100.36","","35","","","","NA"
"-73.74","45.47","MONTREAL/PIERRE ELLIOTT TRUDEAU INTL","702S006","2009-08-10 17:00","2009","08","10","17:00","25.7","","19.5","","69","","","","","M","9","","","","100.35","","33","","","","NA"
"-73.74","45.47","MONTREAL/PIERRE ELLIOTT TRUDEAU INTL","702S006","2009-08-10 18:00","2009","08","10","18:00","25.0","","20.8","","78","","","","","M","11","","","","100.35","","33","","","","NA"
"-73.74","45.47","MONTREAL/PIERRE ELLIOTT TRUDEAU INTL","702S006","2009-08-10 19:00","2009","08","10","19:00","24.7","","20.4","","77","","","","","M","2","","","","100.35","","33","","","","NA"
"-73.74","45.47","MONTREAL/PIERRE ELLIOTT TRUDEAU INTL","702S006","2009-08-10 20:00","2009","08","10","20:00","23.9","","20.4","","81","","","","","M","6","","","","100.42","","32","","","","NA"
"-73.74","45.47","MONTREAL/PIERRE ELLIOTT TRUDEAU INTL","702S006","2009-08-10 21:00","2009","08","10","21:00","23.7","","20.2","","81","","","","","M","4","","","","100.44","","31","","","","NA"
"-73.74","45.47","MONTREAL/PIERRE ELLIOTT TRUDEAU INTL","702S006","2009-08-10 22:00","2009","08","10","22:00","24.3","","18.2","","69","","","","","M","11","","","","100.46","","30","","","","NA"
"-73.74","45.47","MONTREAL/PIERRE ELLIOTT TRUDEAU INTL","702S006","2009-08-10 23:00","2009","08","10","23:00","24.0","","18.4","","71","","","","","M","13","","","","100.48","","30","","","","NA"
"-73.74","45.47","MONTREAL/PIERRE ELLIOTT TRUDEAU INTL","702S006","2009-08-11 00:00","2009","08","11","00:00","22.9","","18.7","","77","","","","","M","15","","","","100.46","","29","","","","NA"
"-73.74","45.47","MONTREAL/PIERRE ELLIOTT TRUDEAU INTL","702S006","2009-08-11 01:00","2009","08","11","01:00","22.2","","18.7","","81","","","","","M","11","","","","100.44","","29","","","","NA"
"-73.74","45.47","MONTREAL/PIERRE ELLIOTT TRUDEAU INTL","702S006","2009-08-11 02:00","2009","08","11","02:00","21.9","","18.5","","81","","","","","M","11","","","","100.47","","28","","","","NA"
"-73.74","45.47","MONTREAL/PIERRE ELLIOTT TRUDEAU INTL","702S006","2009-08-11 03:00","2009","08","11","03:00","20.6","","18.0","","85","","","","","M","9","","","","100.44","","27","","","","NA"
"-73.74","45.47","MONTREAL/PIERRE ELLIOTT TRUDEAU INTL","702S006","2009-08-11 04:00","2009","08","11","04:00","19.4","","17.7","","90","","","","","M","7","","","","100.47","","","","","","NA"
"-73.74","45.47","MONTREAL/PIERRE ELLIOTT TRUDEAU INTL","702S006","2009-08-11 05:00","2009","08","11","05:00","19.5","","17.8","","90","","","","","M","7","","","","100.53","","","","","","NA"
"-73.74","45.47","MONTREAL/PIERRE ELLIOTT TRUDEAU INTL","702S006","2009-08-11 06:00","2009","08","11","06:00","20.7","","17.9","","84","","","","","M","7","","","","100.57","","27","","","","NA"
"-73.74","45.47","MONTREAL/PIERRE ELLIOTT TRUDEAU INTL","702S006","2009-08-11 07:00","2009","08","11","07:00","21.1","","17.4","","79","","","","","M","15","","","","100.63","","27","","","","NA"
"-73.74","45.47","MONTREAL/PIERRE ELLIOTT TRUDEAU INTL","702S006","2009-08-11 08:00","2009","08","11","08:00","18.8","","17.3","","91","","","","","M","7","","","","100.70","","","","","","NA"
"-73.74","45.47","MONTREAL/PIERRE ELLIOTT TRUDEAU INTL","702S006","2009-08-11 09:00","2009","08","11","09:00","20.0","","18.2","","89","","","","","M","9","","","","100.68","","26","","","","NA"
"-73.74","45.47","MONTREAL/PIERRE ELLIOTT TRUDEAU INTL","702S006","2009-08-11 10:00","2009","08","11","10:00","21.7","","19.0","","85","","","","","M","6","","","","100.71","","28","","","","NA"
"-73.74","45.47","MONTREAL/PIERRE ELLIOTT TRUDEAU INTL","702S006","2009-08-11 11:00","2009","08","11","11:00","22.8","","18.8","","78","","","","","M","4","","","","100.73","","29","","","","NA"
"-73.74","45.47","MONTREAL/PIERRE ELLIOTT TRUDEAU INTL","702S006","2009-08-11 12:00","2009","08","11","12:00","23.8","","18.7","","73","","","","","M","9","","","","100.69","","30","","","","NA"
"-73.74","45.47","MONTREAL/PIERRE ELLIOTT TRUDEAU INTL","702S006","2009-08-11 13:00","2009","08","11","13:00","25.3","","19.3","","69","","","","","M","6","","","","100.67","","32","","","","NA"
"-73.74","45.47","MONTREAL/PIERRE ELLIOTT TRUDEAU INTL","702S006","2009-08-11 14:00","2009","08","11","14:00","25.1","","19.0","","69","","","","","M","6","","","","100.65","","32","","","","NA"
"-73.74","45.47","MONTREAL/PIERRE ELLIOTT TRUDEAU INTL","702S006","2009-08-11 15:00","2009","08","11","15:00","20.8","","17.6","","82","","","","","M","6","","","","100.65","","27","","","","NA"
"-73.74","45.47","MONTREAL/PIERRE ELLIOTT TRUDEAU INTL","702S006","2009-08-11 16:00","2009","08","11","16:00","22.7","","19.6","","83","","","","","M","4","","","","100.67","","30","","","","NA"
"-73.74","45.47","MONTREAL/PIERRE ELLIOTT TRUDEAU INTL","702S006","2009-08-11 17:00","2009","08","11","17:00","23.5","","19.1","","76","","","","","M","4","","","","100.63","","30","","","","NA"
"-73.74","45.47","MONTREAL/PIERRE ELLIOTT TRUDEAU INTL","702S006","2009-08-11 18:00","2009","08","11","18:00","21.8","","19.1","","85","","","","","M","6","","","","100.72","","29","","","","NA"
"-73.74","45.47","MONTREAL/PIERRE ELLIOTT TRUDEAU INTL","702S006","2009-08-11 19:00","2009","08","11","19:00","22.0","","19.1","","84","","","","","M","6","","","","100.73","","29","","","","NA"
"-73.74","45.47","MONTREAL/PIERRE ELLIOTT TRUDEAU INTL","702S006","2009-08-11 20:00","2009","08","11","20:00","21.0","","18.7","","87","","","","","M","6","","","","100.77","","28","","","","NA"
"-73.74","45.47","MONTREAL/PIERRE ELLIOTT TRUDEAU INTL","702S006","2009-08-11 21:00","2009","08","11","21:00","20.0","","18.4","","91","","","","","M","7","","","","100.83","","26","","","","NA"
"-73.74","45.47","MONTREAL/PIERRE ELLIOTT TRUDEAU INTL","702S006","2009-08-11 22:00","2009","08","11","22:00","20.6","","19.2","","92","","","","","M","4","","","","100.85","","28","","","","NA"
"-73.74","45.47","MONTREAL/PIERRE ELLIOTT TRUDEAU INTL","702S006","2009-08-11 23:00","2009","08","11","23:00","19.9","","18.9","","94","","","","","M","6","","","","100.85","","","","","","NA"
"-73.74","45.47","MONTREAL/PIERRE ELLIOTT TRUDEAU INTL","702S006","2009-08-12 00:00","2009","08","12","00:00","19.6","","18.9","","96","","","","","M","6","","","","100.84","","","","","","NA"
"-73.74","45.47","MONTREAL/PIERRE ELLIOTT TRUDEAU INTL","702S006","2009-08-12 01:00","2009","08","12","01:00","19.1","","18.4","","96","","","","","M","2","","","","100.90","","","","","","NA"
"-73.74","45.47","MONTREAL/PIERRE ELLIOTT TRUDEAU INTL","702S006","2009-08-12 02:00","2009","08","12","02:00","19.3","","18.5","","95","","","","","M","4","","","","100.95","","","","","","NA"
"-73.74","45.47","MONTREAL/PIERRE ELLIOTT TRUDEAU INTL","702S006","2009-08-12 03:00","2009","08","12","03:00","18.7","","18.1","","96","","","","","M","6","","","","100.98","","","","","","NA"
"-73.74","45.47","MONTREAL/PIERRE ELLIOTT TRUDEAU INTL","702S006","2009-08-12 04:00","2009","08","12","04:00","18.4","","17.8","","96","","","","","M","4","","","","100.97","","","","","","NA"
"-73.74","45.47","MONTREAL/PIERRE ELLIOTT TRUDEAU INTL","702S006","2009-08-12 05:00","2009","08","12","05:00","18.2","","17.4","","95","","","","","M","6","","","","101.05","","","","","","NA"
"-73.74","45.47","MONTREAL/PIERRE ELLIOTT TRUDEAU INTL","702S006","2009-08-12 06:00","2009","08","12","06:00","18.1","","17.1","","94","","","","","M","11","","","","101.12","","","","","","NA"
"-73.74","45.47","MONTREAL/PIERRE ELLIOTT TRUDEAU INTL","702S006","2009-08-12 07:00","2009","08","12","07:00","19.0","","17.3","","90","","","","","M","9","","","","101.18","","","","","","NA"
"-73.74","45.47","MONTREAL/PIERRE ELLIOTT TRUDEAU INTL","702S006","2009-08-12 08:00","2009","08","12","08:00","20.4","","17.7","","84","","","","","M","11","","","","101.22","","26","","","","NA"
"-73.74","45.47","MONTREAL/PIERRE ELLIOTT TRUDEAU INTL","702S006","2009-08-12 09:00","2009","08","12","09:00","22.5","","18.8","","80","","","","","M","7","","","","101.26","","29","","","","NA"
"-73.74","45.47","MONTREAL/PIERRE ELLIOTT TRUDEAU INTL","702S006","2009-08-12 10:00","2009","08","12","10:00","24.1","","18.2","","70","","","","","M","7","","","","101.29","","30","","","","NA"
"-73.74","45.47","MONTREAL/PIERRE ELLIOTT TRUDEAU INTL","702S006","2009-08-12 11:00","2009","08","12","11:00","25.3","","18.9","","68","","","","","M","6","","","","101.30","","32","","","","NA"
"-73.74","45.47","MONTREAL/PIERRE ELLIOTT TRUDEAU INTL","702S006","2009-08-12 12:00","2009","08","12","12:00","25.7","","17.4","","60","","","","","M","6","","","","101.29","","31","","","","NA"
"-73.74","45.47","MONTREAL/PIERRE ELLIOTT TRUDEAU INTL","702S006","2009-08-12 13:00","2009","08","12","13:00","26.0","","17.9","","61","","","","","M","4","","","","101.26","","32","","","","NA"
"-73.74","45.47","MONTREAL/PIERRE ELLIOTT TRUDEAU INTL","702S006","2009-08-12 14:00","2009","08","12","14:00","27.4","","17.3","","54","","","","","M","7","","","","101.24","","33","","","","NA"
"-73.74","45.47","MONTREAL/PIERRE ELLIOTT TRUDEAU INTL","702S006","2009-08-12 15:00","2009","08","12","15:00","27.5","","16.8","","52","","","","","M","7","","","","101.24","","33","","","","NA"
"-73.74","45.47","MONTREAL/PIERRE ELLIOTT TRUDEAU INTL","702S006","2009-08-12 16:00","2009","08","12","16:00","27.8","","15.7","","48","","","","","M","6","","","","101.22","","32","","","","NA"
"-73.74","45.47","MONTREAL/PIERRE ELLIOTT TRUDEAU INTL","702S006","2009-08-12 17:00","2009","08","12","17:00","27.3","","17.0","","53","","","","","M","9","","","","101.20","","33","","","","NA"
"-73.74","45.47","MONTREAL/PIERRE ELLIOTT TRUDEAU INTL","702S006","2009-08-12 18:00","2009","08","12","18:00","26.6","","15.6","","51","","","","","M","7","","","","101.22","","31","","","","NA"
"-73.74","45.47","MONTREAL/PIERRE ELLIOTT TRUDEAU INTL","702S006","2009-08-12 19:00","2009","08","12","19:00","24.6","","16.4","","60","","","","","M","9","","","","101.28","","29","","","","NA"
"-73.74","45.47","MONTREAL/PIERRE ELLIOTT TRUDEAU INTL","702S006","2009-08-12 20:00","2009","08","12","20:00","24.1","","16.6","","63","","","","","M","6","","","","101.31","","29","","","","NA"
"-73.74","45.47","MONTREAL/PIERRE ELLIOTT TRUDEAU INTL","702S006","2009-08-12 21:00","2009","08","12","21:00","22.9","","16.7","","68","","","","","M","4","","","","101.34","","28","","","","NA"
"-73.74","45.47","MONTREAL/PIERRE ELLIOTT TRUDEAU INTL","702S006","2009-08-12 22:00","2009","08","12","22:00","20.5","","16.5","","78","","","","","M","0","","","","101.33","","25","","","","NA"
"-73.74","45.47","MONTREAL/PIERRE ELLIOTT TRUDEAU INTL","702S006","2009-08-12 23:00","2009","08","12","23:00","20.0","","17.2","","84","","","","","M","4","","","","101.33","","25","","","","NA"
"-73.74","45.47","MONTREAL/PIERRE ELLIOTT TRUDEAU INTL","702S006","2009-08-13 00:00","2009","08","13","00:00","19.1","","16.6","","85","","","","","M","0","","","","101.34","","","","","","NA"
"-73.74","45.47","MONTREAL/PIERRE ELLIOTT TRUDEAU INTL","702S006","2009-08-13 01:00","2009","08","13","01:00","19.1","","16.8","","87","","","","","M","2","","","","101.33","","","","","","NA"
"-73.74","45.47","MONTREAL/PIERRE ELLIOTT TRUDEAU INTL","702S006","2009-08-13 02:00","2009","08","13","02:00","18.2","","15.9","","86","","","","","M","0","","","","101.37","","","","","","NA"
"-73.74","45.47","MONTREAL/PIERRE ELLIOTT TRUDEAU INTL","702S006","2009-08-13 03:00","2009","08","13","03:00","17.4","","16.1","","92","","","","","M","6","","","","101.39","","","","","","NA"
"-73.74","45.47","MONTREAL/PIERRE ELLIOTT TRUDEAU INTL","702S006","2009-08-13 04:00","2009","08","13","04:00","18.5","","17.5","","94","","","","","M","6","","","","101.41","","","","","","NA"
"-73.74","45.47","MONTREAL/PIERRE ELLIOTT TRUDEAU INTL","702S006","2009-08-13 05:00","2009","08","13","05:00","18.4","","17.0","","92","","","","","M","7","","","","101.45","","","","","","NA"
"-73.74","45.47","MONTREAL/PIERRE ELLIOTT TRUDEAU INTL","702S006","2009-08-13 06:00","2009","08","13","06:00","18.5","","17.4","","93","","","","","M","2","","","","101.48","","","","","","NA"
"-73.74","45.47","MONTREAL/PIERRE ELLIOTT TRUDEAU INTL","702S006","2009-08-13 07:00","2009","08","13","07:00","20.6","","18.4","","87","","","","","M","2","","","","101.52","","27","","","","NA"
"-73.74","45.47","MONTREAL/PIERRE ELLIOTT TRUDEAU INTL","702S006","2009-08-13 08:00","2009","08","13","08:00","22.4","","18.9","","81","","","","","M","2","","","","101.54","","29","","","","NA"
"-73.74","45.47","MONTREAL/PIERRE ELLIOTT TRUDEAU INTL","702S006","2009-08-13 09:00","2009","08","13","09:00","24.6","","19.1","","71","","","","","M","4","","","","101.55","","31","","","","NA"
"-73.74","45.47","MONTREAL/PIERRE ELLIOTT TRUDEAU INTL","702S006","2009-08-13 10:00","2009","08","13","10:00","26.1","","19.9","","69","","","","","M","4","","","","101.56","","34","","","","NA"
"-73.74","45.47","MONTREAL/PIERRE ELLIOTT TRUDEAU INTL","702S006","2009-08-13 11:00","2009","08","13","11:00","26.7","","19.1","","63","","","","","M","4","","","","101.56","","34","","","","NA"
"-73.74","45.47","MONTREAL/PIERRE ELLIOTT TRUDEAU INTL","702S006","2009-08-13 12:00","2009","08","13","12:00","27.7","","18.1","","56","","","","","M","7","","","","101.55","","34","","","","NA"
"-73.74","45.47","MONTREAL/PIERRE ELLIOTT TRUDEAU INTL","702S006","2009-08-13 13:00","2009","08","13","13:00","27.9","","18.0","","55","","","","","M","11","","","","101.54","","34","","","","NA"
"-73.74","45.47","MONTREAL/PIERRE ELLIOTT TRUDEAU INTL","702S006","2009-08-13 14:00","2009","08","13","14:00","28.5","","17.0","","50","","","","","M","13","","","","101.49","","34","","","","NA"
"-73.74","45.47","MONTREAL/PIERRE ELLIOTT TRUDEAU INTL","702S006","2009-08-13 15:00","2009","08","13","15:00","28.3","","14.4","","43","","","","","M","13","","","","101.45","","32","","","","NA"
"-73.74","45.47","MONTREAL/PIERRE ELLIOTT TRUDEAU INTL","702S006","2009-08-13 16:00","2009","08","13","16:00","28.4","","12.7","","38","","","","","M","13","","","","101.44","","31","","","","NA"
"-73.74","45.47","MONTREAL/PIERRE ELLIOTT TRUDEAU INTL","702S006","2009-08-13 17:00","2009","08","13","17:00","28.5","","15.0","","44","","","","","M","9","","","","101.42","","32","","","","NA"
"-73.74","45.47","MONTREAL/PIERRE ELLIOTT TRUDEAU INTL","702S006","2009-08-13 18:00","2009","08","13","18:00","27.8","","14.3","","44","","","","","M","9","","","","101.43","","31","","","","NA"
"-73.74","45.47","MONTREAL/PIERRE ELLIOTT TRUDEAU INTL","702S006","2009-08-13 19:00","2009","08","13","19:00","26.7","","16.2","","53","","","","","M","11","","","","101.43","","31","","","","NA"
"-73.74","45.47","MONTREAL/PIERRE ELLIOTT TRUDEAU INTL","702S006","2009-08-13 20:00","2009","08","13","20:00","25.6","","18.9","","67","","","","","M","11","","","","101.44","","32","","","","NA"
"-73.74","45.47","MONTREAL/PIERRE ELLIOTT TRUDEAU INTL","702S006","2009-08-13 21:00","2009","08","13","21:00","24.3","","19.7","","76","","","","","M","7","","","","101.48","","32","","","","NA"
"-73.74","45.47","MONTREAL/PIERRE ELLIOTT TRUDEAU INTL","702S006","2009-08-13 22:00","2009","08","13","22:00","24.2","","20.0","","77","","","","","M","6","","","","101.51","","32","","","","NA"
"-73.74","45.47","MONTREAL/PIERRE ELLIOTT TRUDEAU INTL","702S006","2009-08-13 23:00","2009","08","13","23:00","22.4","","19.7","","85","","","","","M","6","","","","101.52","","30","","","","NA"
"-73.74","45.47","MONTREAL/PIERRE ELLIOTT TRUDEAU INTL","702S006","2009-08-14 00:00","2009","08","14","00:00","22.1","","19.2","","84","","","","","M","4","","","","101.52","","29","","","","NA"
"-73.74","45.47","MONTREAL/PIERRE ELLIOTT TRUDEAU INTL","702S006","2009-08-14 01:00","2009","08","14","01:00","21.5","","19.1","","86","","","","","M","6","","","","101.56","","28","","","","NA"
"-73.74","45.47","MONTREAL/PIERRE ELLIOTT TRUDEAU INTL","702S006","2009-08-14 02:00","2009","08","14","02:00","20.9","","17.3","","80","","","","","M","6","","","","101.57","","26","","","","NA"
"-73.74","45.47","MONTREAL/PIERRE ELLIOTT TRUDEAU INTL","702S006","2009-08-14 03:00","2009","08","14","03:00","21.5","","18.7","","84","","","","","M","7","","","","101.54","","28","","","","NA"
"-73.74","45.47","MONTREAL/PIERRE ELLIOTT TRUDEAU INTL","702S006","2009-08-14 04:00","2009","08","14","04:00","21.0","","18.5","","86","","","","","M","9","","","","101.52","","27","","","","NA"
"-73.74","45.47","MONTREAL/PIERRE ELLIOTT TRUDEAU INTL","702S006","2009-08-14 05:00","2009","08","14","05:00","20.6","","17.9","","85","","","","","M","11","","","","101.58","","27","","","","NA"
"-73.74","45.47","MONTREAL/PIERRE ELLIOTT TRUDEAU INTL","702S006","2009-08-14 06:00","2009","08","14","06:00","20.5","","18.1","","86","","","","","M","9","","","","101.63","","27","","","","NA"
"-73.74","45.47","MONTREAL/PIERRE ELLIOTT TRUDEAU INTL","702S006","2009-08-14 07:00","2009","08","14","07:00","22.2","","18.6","","80","","","","","M","15","","","","101.64","","29","","","","NA"
"-73.74","45.47","MONTREAL/PIERRE ELLIOTT TRUDEAU INTL","702S006","2009-08-14 08:00","2009","08","14","08:00","23.1","","18.7","","76","","","","","M","9","","","","101.68","","30","","","","NA"
"-73.74","45.47","MONTREAL/PIERRE ELLIOTT TRUDEAU INTL","702S006","2009-08-14 09:00","2009","08","14","09:00","25.0","","20.1","","74","","","","","M","9","","","","101.71","","33","","","","NA"
"-73.74","45.47","MONTREAL/PIERRE ELLIOTT TRUDEAU INTL","702S006","2009-08-14 10:00","2009","08","14","10:00","25.6","","20.4","","73","","","","","M","13","","","","101.71","","34","","","","NA"
"-73.74","45.47","MONTREAL/PIERRE ELLIOTT TRUDEAU INTL","702S006","2009-08-14 11:00","2009","08","14","11:00","26.9","","20.1","","66","","","","","M","11","","","","101.68","","35","","","","NA"
"-73.74","45.47","MONTREAL/PIERRE ELLIOTT TRUDEAU INTL","702S006","2009-08-14 12:00","2009","08","14","12:00","28.0","","20.3","","63","","","","","M","13","","","","101.68","","36","","","","NA"
"-73.74","45.47","MONTREAL/PIERRE ELLIOTT TRUDEAU INTL","702S006","2009-08-14 13:00","2009","08","14","13:00","28.7","","20.2","","60","","","","","M","19","","","","101.62","","36","","","","NA"
"-73.74","45.47","MONTREAL/PIERRE ELLIOTT TRUDEAU INTL","702S006","2009-08-14 14:00","2009","08","14","14:00","29.9","","19.8","","55","","","","","M","17","","","","101.57","","37","","","","NA"
"-73.74","45.47","MONTREAL/PIERRE ELLIOTT TRUDEAU INTL","702S006","2009-08-14 15:00","2009","08","14","15:00","29.4","","19.9","","57","","","","","M","15","","","","101.53","","37","","","","NA"
"-73.74","45.47","MONTREAL/PIERRE ELLIOTT TRUDEAU INTL","702S006","2009-08-14 16:00","2009","08","14","16:00","30.0","","19.9","","55","","","","","M","15","","","","101.54","","37","","","","NA"
"-73.74","45.47","MONTREAL/PIERRE ELLIOTT TRUDEAU INTL","702S006","2009-08-14 17:00","2009","08","14","17:00","29.7","","18.2","","50","","","","","M","17","","","","101.53","","36","","","","NA"
"-73.74","45.47","MONTREAL/PIERRE ELLIOTT TRUDEAU INTL","702S006","2009-08-14 18:00","2009","08","14","18:00","28.9","","17.4","","50","","","","","M","17","","","","101.55","","34","","","","NA"
"-73.74","45.47","MONTREAL/PIERRE ELLIOTT TRUDEAU INTL","702S006","2009-08-14 19:00","2009","08","14","19:00","27.2","","16.8","","53","","","","","M","11","","","","101.55","","32","","","","NA"
"-73.74","45.47","MONTREAL/PIERRE ELLIOTT TRUDEAU INTL","702S006","2009-08-14 20:00","2009","08","14","20:00","26.3","","18.0","","60","","","","","M","7","","","","101.57","","32","","","","NA"
"-73.74","45.47","MONTREAL/PIERRE ELLIOTT TRUDEAU INTL","702S006","2009-08-14 21:00","2009","08","14","21:00","25.4","","18.9","","67","","","","","M","6","","","","101.56","","32","","","","NA"
"-73.74","45.47","MONTREAL/PIERRE ELLIOTT TRUDEAU INTL","702S006","2009-08-14 22:00","2009","08","14","22:00","24.0","","20.0","","78","","","","","M","9","","","","101.59","","32","","","","NA"
"-73.74","45.47","MONTREAL/PIERRE ELLIOTT TRUDEAU INTL","702S006","2009-08-14 23:00","2009","08","14","23:00","23.4","","19.5","","79","","","","","M","9","","","","101.56","","31","","","","NA"
"-73.74","45.47","MONTREAL/PIERRE ELLIOTT TRUDEAU INTL","702S006","2009-08-15 00:00","2009","08","15","00:00","23.3","","19.2","","78","","","","","M","9","","","","101.55","","30","","","","NA"
"-73.74","45.47","MONTREAL/PIERRE ELLIOTT TRUDEAU INTL","702S006","2009-08-15 01:00","2009","08","15","01:00","22.9","","18.6","","77","","","","","M","9","","","","101.55","","29","","","","NA"
"-73.74","45.47","MONTREAL/PIERRE ELLIOTT TRUDEAU INTL","702S006","2009-08-15 02:00","2009","08","15","02:00","21.8","","18.2","","80","","","","","M","7","","","","101.56","","28","","","","NA"
"-73.74","45.47","MONTREAL/PIERRE ELLIOTT TRUDEAU INTL","702S006","2009-08-15 03:00","2009","08","15","03:00","21.1","","17.8","","81","","","","","M","9","","","","101.59","","27","","","","NA"
"-73.74","45.47","MONTREAL/PIERRE ELLIOTT TRUDEAU INTL","702S006","2009-08-15 04:00","2009","08","15","04:00","21.0","","17.9","","82","","","","","M","7","","","","101.57","","27","","","","NA"
"-73.74","45.47","MONTREAL/PIERRE ELLIOTT TRUDEAU INTL","702S006","2009-08-15 05:00","2009","08","15","05:00","20.6","","17.6","","83","","","","","M","7","","","","101.59","","26","","","","NA"
"-73.74","45.47","MONTREAL/PIERRE ELLIOTT TRUDEAU INTL","702S006","2009-08-15 06:00","2009","08","15","06:00","21.5","","18.4","","83","","","","","M","9","","","","101.59","","28","","","","NA"
"-73.74","45.47","MONTREAL/PIERRE ELLIOTT TRUDEAU INTL","702S006","2009-08-15 07:00","2009","08","15","07:00","22.4","","17.9","","76","","","","","M","11","","","","101.59","","28","","","","NA"
"-73.74","45.47","MONTREAL/PIERRE ELLIOTT TRUDEAU INTL","702S006","2009-08-15 08:00","2009","08","15","08:00","23.7","","17.7","","69","","","","","M","11","","","","101.61","","29","","","","NA"
"-73.74","45.47","MONTREAL/PIERRE ELLIOTT TRUDEAU INTL","702S006","2009-08-15 09:00","2009","08","15","09:00","25.0","","18.5","","67","","","","","M","13","","","","101.64","","31","","","","NA"
"-73.74","45.47","MONTREAL/PIERRE ELLIOTT TRUDEAU INTL","702S006","2009-08-15 10:00","2009","08","15","10:00","26.3","","19.3","","65","","","","","M","13","","","","101.68","","33","","","","NA"
"-73.74","45.47","MONTREAL/PIERRE ELLIOTT TRUDEAU INTL","702S006","2009-08-15 11:00","2009","08","15","11:00","28.1","","20.5","","63","","","","","M","11","","","","101.63","","36","","","","NA"
"-73.74","45.47","MONTREAL/PIERRE ELLIOTT TRUDEAU INTL","702S006","2009-08-15 12:00","2009","08","15","12:00","28.3","","20.3","","62","","","","","M","19","","","","101.58","","36","","","","NA"
"-73.74","45.47","MONTREAL/PIERRE ELLIOTT TRUDEAU INTL","702S006","2009-08-15 13:00","2009","08","15","13:00","28.6","","20.2","","60","","","","","M","17","","","","101.53","","36","","","","NA"
"-73.74","45.47","MONTREAL/PIERRE ELLIOTT TRUDEAU INTL","702S006","2009-08-15 14:00","2009","08","15","14:00","29.9","","20.9","","59","","","","","M","15","","","","101.46","","38","","","","NA"
"-73.74","45.47","MONTREAL/PIERRE ELLIOTT TRUDEAU INTL","702S006","2009-08-15 15:00","2009","08","15","15:00","29.6","","19.7","","55","","","","","M","20","","","","101.42","","37","","","","NA"
"-73.74","45.47","MONTREAL/PIERRE ELLIOTT TRUDEAU INTL","702S006","2009-08-15 16:00","2009","08","15","16:00","29.7","","19.9","","56","","","","","M","17","","","","101.41","","37","","","","NA"
"-73.74","45.47","MONTREAL/PIERRE ELLIOTT TRUDEAU INTL","702S006","2009-08-15 17:00","2009","08","15","17:00","29.6","","18.9","","53","","","","","M","13","","","","101.43","","36","","","","NA"
"-73.74","45.47","MONTREAL/PIERRE ELLIOTT TRUDEAU INTL","702S006","2009-08-15 18:00","2009","08","15","18:00","28.9","","19.3","","56","","","","","M","13","","","","101.43","","36","","","","NA"
"-73.74","45.47","MONTREAL/PIERRE ELLIOTT TRUDEAU INTL","702S006","2009-08-15 19:00","2009","08","15","19:00","27.0","","19.4","","63","","","","","M","6","","","","101.46","","34","","","","NA"
"-73.74","45.47","MONTREAL/PIERRE ELLIOTT TRUDEAU INTL","702S006","2009-08-15 20:00","2009","08","15","20:00","25.7","","20.3","","72","","","","","M","9","","","","101.49","","34","","","","NA"
"-73.74","45.47","MONTREAL/PIERRE ELLIOTT TRUDEAU INTL","702S006","2009-08-15 21:00","2009","08","15","21:00","26.1","","20.0","","69","","","","","M","7","","","","101.51","","34","","","","NA"
"-73.74","45.47","MONTREAL/PIERRE ELLIOTT TRUDEAU INTL","702S006","2009-08-15 22:00","2009","08","15","22:00","25.3","","20.3","","74","","","","","M","7","","","","101.51","","33","","","","NA"
"-73.74","45.47","MONTREAL/PIERRE ELLIOTT TRUDEAU INTL","702S006","2009-08-15 23:00","2009","08","15","23:00","24.4","","20.8","","80","","","","","M","7","","","","101.50","","33","","","","NA"
"-73.74","45.47","MONTREAL/PIERRE ELLIOTT TRUDEAU INTL","702S006","2009-08-16 00:00","2009","08","16","00:00","24.2","","20.0","","77","","","","","M","7","","","","101.49","","32","","","","NA"
"-73.74","45.47","MONTREAL/PIERRE ELLIOTT TRUDEAU INTL","702S006","2009-08-16 01:00","2009","08","16","01:00","23.6","","19.8","","79","","","","","M","11","","","","101.49","","31","","","","NA"
"-73.74","45.47","MONTREAL/PIERRE ELLIOTT TRUDEAU INTL","702S006","2009-08-16 02:00","2009","08","16","02:00","22.9","","19.6","","82","","","","","M","9","","","","101.48","","30","","","","NA"
"-73.74","45.47","MONTREAL/PIERRE ELLIOTT TRUDEAU INTL","702S006","2009-08-16 03:00","2009","08","16","03:00","22.7","","19.5","","82","","","","","M","9","","","","101.48","","30","","","","NA"
"-73.74","45.47","MONTREAL/PIERRE ELLIOTT TRUDEAU INTL","702S006","2009-08-16 04:00","2009","08","16","04:00","22.4","","19.5","","84","","","","","M","6","","","","101.50","","30","","","","NA"
"-73.74","45.47","MONTREAL/PIERRE ELLIOTT TRUDEAU INTL","702S006","2009-08-16 05:00","2009","08","16","05:00","21.6","","18.8","","84","","","","","M","7","","","","101.55","","28","","","","NA"
"-73.74","45.47","MONTREAL/PIERRE ELLIOTT TRUDEAU INTL","702S006","2009-08-16 06:00","2009","08","16","06:00","22.4","","18.9","","81","","","","","M","11","","","","101.56","","29","","","","NA"
"-73.74","45.47","MONTREAL/PIERRE ELLIOTT TRUDEAU INTL","702S006","2009-08-16 07:00","2009","08","16","07:00","23.0","","18.9","","78","","","","","M","9","","","","101.61","","30","","","","NA"
"-73.74","45.47","MONTREAL/PIERRE ELLIOTT TRUDEAU INTL","702S006","2009-08-16 08:00","2009","08","16","08:00","23.9","","19.3","","75","","","","","M","9","","","","101.64","","31","","","","NA"
"-73.74","45.47","MONTREAL/PIERRE ELLIOTT TRUDEAU INTL","702S006","2009-08-16 09:00","2009","08","16","09:00","24.8","","19.9","","74","","","","","M","13","","","","101.64","","32","","","","NA"
"-73.74","45.47","MONTREAL/PIERRE ELLIOTT TRUDEAU INTL","702S006","2009-08-16 10:00","2009","08","16","10:00","26.1","","20.7","","72","","","","","M","11","","","","101.65","","34","","","","NA"
"-73.74","45.47","MONTREAL/PIERRE ELLIOTT TRUDEAU INTL","702S006","2009-08-16 11:00","2009","08","16","11:00","27.0","","20.5","","68","","","","","M","19","","","","101.60","","35","","","","NA"
"-73.74","45.47","MONTREAL/PIERRE ELLIOTT TRUDEAU INTL","702S006","2009-08-16 12:00","2009","08","16","12:00","28.3","","21.1","","65","","","","","M","13","","","","101.55","","37","","","","NA"
"-73.74","45.47","MONTREAL/PIERRE ELLIOTT TRUDEAU INTL","702S006","2009-08-16 13:00","2009","08","16","13:00","29.2","","20.4","","59","","","","","M","17","","","","101.51","","37","","","","NA"
"-73.74","45.47","MONTREAL/PIERRE ELLIOTT TRUDEAU INTL","702S006","2009-08-16 14:00","2009","08","16","14:00","29.6","","19.8","","56","","","","","M","17","","","","101.50","","37","","","","NA"
"-73.74","45.47","MONTREAL/PIERRE ELLIOTT TRUDEAU INTL","702S006","2009-08-16 15:00","2009","08","16","15:00","29.4","","20.3","","58","","","","","M","17","","","","101.46","","37","","","","NA"
"-73.74","45.47","MONTREAL/PIERRE ELLIOTT TRUDEAU INTL","702S006","2009-08-16 16:00","2009","08","16","16:00","30.0","","21.2","","59","","","","","M","17","","","","101.44","","39","","","","NA"
"-73.74","45.47","MONTREAL/PIERRE ELLIOTT TRUDEAU INTL","702S006","2009-08-16 17:00","2009","08","16","17:00","29.7","","21.0","","60","","","","","M","13","","","","101.41","","38","","","","NA"
"-73.74","45.47","MONTREAL/PIERRE ELLIOTT TRUDEAU INTL","702S006","2009-08-16 18:00","2009","08","16","18:00","29.3","","20.9","","61","","","","","M","11","","","","101.39","","38","","","","NA"
"-73.74","45.47","MONTREAL/PIERRE ELLIOTT TRUDEAU INTL","702S006","2009-08-16 19:00","2009","08","16","19:00","28.4","","20.6","","63","","","","","M","7","","","","101.41","","36","","","","NA"
"-73.74","45.47","MONTREAL/PIERRE ELLIOTT TRUDEAU INTL","702S006","2009-08-16 20:00","2009","08","16","20:00","26.4","","21.5","","74","","","","","M","9","","","","101.45","","35","","","","NA"
"-73.74","45.47","MONTREAL/PIERRE ELLIOTT TRUDEAU INTL","702S006","2009-08-16 21:00","2009","08","16","21:00","25.9","","21.0","","74","","","","","M","11","","","","101.47","","34","","","","NA"
"-73.74","45.47","MONTREAL/PIERRE ELLIOTT TRUDEAU INTL","702S006","2009-08-16 22:00","2009","08","16","22:00","26.1","","20.9","","73","","","","","M","13","","","","101.46","","34","","","","NA"
"-73.74","45.47","MONTREAL/PIERRE ELLIOTT TRUDEAU INTL","702S006","2009-08-16 23:00","2009","08","16","23:00","25.1","","20.7","","77","","","","","M","13","","","","101.46","","33","","","","NA"
"-73.74","45.47","MONTREAL/PIERRE ELLIOTT TRUDEAU INTL","702S006","2009-08-17 00:00","2009","08","17","00:00","24.5","","20.2","","77","","","","","M","9","","","","101.47","","32","","","","NA"
"-73.74","45.47","MONTREAL/PIERRE ELLIOTT TRUDEAU INTL","702S006","2009-08-17 01:00","2009","08","17","01:00","24.1","","20.0","","78","","","","","M","9","","","","101.46","","32","","","","NA"
"-73.74","45.47","MONTREAL/PIERRE ELLIOTT TRUDEAU INTL","702S006","2009-08-17 02:00","2009","08","17","02:00","23.5","","19.5","","78","","","","","M","9","","","","101.45","","31","","","","NA"
"-73.74","45.47","MONTREAL/PIERRE ELLIOTT TRUDEAU INTL","702S006","2009-08-17 03:00","2009","08","17","03:00","23.1","","19.3","","79","","","","","M","9","","","","101.47","","30","","","","NA"
"-73.74","45.47","MONTREAL/PIERRE ELLIOTT TRUDEAU INTL","702S006","2009-08-17 04:00","2009","08","17","04:00","22.0","","18.9","","83","","","","","M","7","","","","101.48","","29","","","","NA"
"-73.74","45.47","MONTREAL/PIERRE ELLIOTT TRUDEAU INTL","702S006","2009-08-17 05:00","2009","08","17","05:00","21.9","","18.6","","82","","","","","M","9","","","","101.50","","28","","","","NA"
"-73.74","45.47","MONTREAL/PIERRE ELLIOTT TRUDEAU INTL","702S006","2009-08-17 06:00","2009","08","17","06:00","22.1","","18.5","","80","","","","","M","11","","","","101.51","","28","","","","NA"
"-73.74","45.47","MONTREAL/PIERRE ELLIOTT TRUDEAU INTL","702S006","2009-08-17 07:00","2009","08","17","07:00","23.7","","18.8","","74","","","","","M","11","","","","101.51","","30","","","","NA"
"-73.74","45.47","MONTREAL/PIERRE ELLIOTT TRUDEAU INTL","702S006","2009-08-17 08:00","2009","08","17","08:00","24.8","","18.9","","70","","","","","M","9","","","","101.50","","31","","","","NA"
"-73.74","45.47","MONTREAL/PIERRE ELLIOTT TRUDEAU INTL","702S006","2009-08-17 09:00","2009","08","17","09:00","25.8","","19.3","","67","","","","","M","11","","","","101.50","","33","","","","NA"
"-73.74","45.47","MONTREAL/PIERRE ELLIOTT TRUDEAU INTL","702S006","2009-08-17 10:00","2009","08","17","10:00","26.1","","20.4","","71","","","","","M","13","","","","101.52","","34","","","","NA"
"-73.74","45.47","MONTREAL/PIERRE ELLIOTT TRUDEAU INTL","702S006","2009-08-17 11:00","2009","08","17","11:00","26.7","","21.1","","71","","","","","M","9","","","","101.49","","35","","","","NA"
"-73.74","45.47","MONTREAL/PIERRE ELLIOTT TRUDEAU INTL","702S006","2009-08-17 12:00","2009","08","17","12:00","27.6","","21.6","","70","","","","","M","11","","","","101.42","","37","","","","NA"
"-73.74","45.47","MONTREAL/PIERRE ELLIOTT TRUDEAU INTL","702S006","2009-08-17 13:00","2009","08","17","13:00","30.8","","22.5","","61","","","","","M","17","","","","101.36","","41","","","","NA"
"-73.74","45.47","MONTREAL/PIERRE ELLIOTT TRUDEAU INTL","702S006","2009-08-17 14:00","2009","08","17","14:00","31.4","","22.1","","58","","","","","M","15","","","","101.28","","41","","","","NA"
"-73.74","45.47","MONTREAL/PIERRE ELLIOTT TRUDEAU INTL","702S006","2009-08-17 15:00","2009","08","17","15:00","32.3","","22.0","","55","","","","","M","17","","","","101.18","","42","","","","NA"
"-73.74","45.47","MONTREAL/PIERRE ELLIOTT TRUDEAU INTL","702S006","2009-08-17 16:00","2009","08","17","16:00","32.5","","21.7","","53","","","","","M","19","","","","101.15","","42","","","","NA"
"-73.74","45.47","MONTREAL/PIERRE ELLIOTT TRUDEAU INTL","702S006","2009-08-17 17:00","2009","08","17","17:00","31.8","","20.9","","53","","","","","M","20","","","","101.08","","40","","","","NA"
"-73.74","45.47","MONTREAL/PIERRE ELLIOTT TRUDEAU INTL","702S006","2009-08-17 18:00","2009","08","17","18:00","30.3","","20.9","","57","","","","","M","20","","","","101.11","","39","","","","NA"
"-73.74","45.47","MONTREAL/PIERRE ELLIOTT TRUDEAU INTL","702S006","2009-08-17 19:00","2009","08","17","19:00","26.2","","21.1","","74","","","","","M","13","","","","101.18","","35","","","","NA"
"-73.74","45.47","MONTREAL/PIERRE ELLIOTT TRUDEAU INTL","702S006","2009-08-17 20:00","2009","08","17","20:00","24.9","","20.8","","78","","","","","M","15","","","","101.20","","33","","","","NA"
"-73.74","45.47","MONTREAL/PIERRE ELLIOTT TRUDEAU INTL","702S006","2009-08-17 21:00","2009","08","17","21:00","25.2","","21.1","","78","","","","","M","9","","","","101.18","","34","","","","NA"
"-73.74","45.47","MONTREAL/PIERRE ELLIOTT TRUDEAU INTL","702S006","2009-08-17 22:00","2009","08","17","22:00","25.5","","21.1","","77","","","","","M","9","","","","101.18","","34","","","","NA"
"-73.74","45.47","MONTREAL/PIERRE ELLIOTT TRUDEAU INTL","702S006","2009-08-17 23:00","2009","08","17","23:00","25.4","","21.0","","77","","","","","M","9","","","","101.15","","34","","","","NA"
"-73.74","45.47","MONTREAL/PIERRE ELLIOTT TRUDEAU INTL","702S006","2009-08-18 00:00","2009","08","18","00:00","24.6","","21.3","","82","","","","","M","7","","","","101.15","","33","","","","NA"
"-73.74","45.47","MONTREAL/PIERRE ELLIOTT TRUDEAU INTL","702S006","2009-08-18 01:00","2009","08","18","01:00","24.4","","21.3","","83","","","","","M","7","","","","101.11","","33","","","","NA"
"-73.74","45.47","MONTREAL/PIERRE ELLIOTT TRUDEAU INTL","702S006","2009-08-18 02:00","2009","08","18","02:00","22.9","","20.7","","87","","","","","M","4","","","","101.09","","31","","","","NA"
"-73.74","45.47","MONTREAL/PIERRE ELLIOTT TRUDEAU INTL","702S006","2009-08-18 03:00","2009","08","18","03:00","22.6","","20.7","","89","","","","","M","0","","","","101.07","","31","","","","NA"
"-73.74","45.47","MONTREAL/PIERRE ELLIOTT TRUDEAU INTL","702S006","2009-08-18 04:00","2009","08","18","04:00","22.3","","20.3","","88","","","","","M","7","","","","101.06","","30","","","","NA"
"-73.74","45.47","MONTREAL/PIERRE ELLIOTT TRUDEAU INTL","702S006","2009-08-18 05:00","2009","08","18","05:00","22.8","","20.5","","87","","","","","M","6","","","","101.00","","31","","","","NA"
"-73.74","45.47","MONTREAL/PIERRE ELLIOTT TRUDEAU INTL","702S006","2009-08-18 06:00","2009","08","18","06:00","23.6","","20.7","","84","","","","","M","9","","","","100.99","","32","","","","NA"
"-73.74","45.47","MONTREAL/PIERRE ELLIOTT TRUDEAU INTL","702S006","2009-08-18 07:00","2009","08","18","07:00","25.1","","20.8","","77","","","","","M","13","","","","100.94","","33","","","","NA"
"-73.74","45.47","MONTREAL/PIERRE ELLIOTT TRUDEAU INTL","702S006","2009-08-18 08:00","2009","08","18","08:00","26.4","","20.7","","71","","","","","M","15","","","","100.91","","35","","","","NA"
"-73.74","45.47","MONTREAL/PIERRE ELLIOTT TRUDEAU INTL","702S006","2009-08-18 09:00","2009","08","18","09:00","28.1","","20.9","","65","","","","","M","20","","","","100.89","","36","","","","NA"
"-73.74","45.47","MONTREAL/PIERRE ELLIOTT TRUDEAU INTL","702S006","2009-08-18 10:00","2009","08","18","10:00","27.9","","21.2","","67","","","","","M","19","","","","100.86","","36","","","","NA"
"-73.74","45.47","MONTREAL/PIERRE ELLIOTT TRUDEAU INTL","702S006","2009-08-18 11:00","2009","08","18","11:00","29.0","","21.6","","64","","","","","M","17","","","","100.81","","38","","","","NA"
"-73.74","45.47","MONTREAL/PIERRE ELLIOTT TRUDEAU INTL","702S006","2009-08-18 12:00","2009","08","18","12:00","29.1","","21.3","","63","","","","","M","24","","","","100.74","","38","","","","NA"
"-73.74","45.47","MONTREAL/PIERRE ELLIOTT TRUDEAU INTL","702S006","2009-08-18 13:00","2009","08","18","13:00","29.2","","21.5","","63","","","","","M","22","","","","100.69","","38","","","","NA"
"-73.74","45.47","MONTREAL/PIERRE ELLIOTT TRUDEAU INTL","702S006","2009-08-18 14:00","2009","08","18","14:00","30.2","","21.5","","60","","","","","M","28","","","","100.64","","39","","","","NA"
"-73.74","45.47","MONTREAL/PIERRE ELLIOTT TRUDEAU INTL","702S006","2009-08-18 15:00","2009","08","18","15:00","27.8","","22.8","","74","","","","","M","15","","","","100.57","","38","","","","NA"
"-73.74","45.47","MONTREAL/PIERRE ELLIOTT TRUDEAU INTL","702S006","2009-08-18 16:00","2009","08","18","16:00","29.1","","21.6","","64","","","","","M","22","","","","100.53","","38","","","","NA"
"-73.74","45.47","MONTREAL/PIERRE ELLIOTT TRUDEAU INTL","702S006","2009-08-18 17:00","2009","08","18","17:00","28.7","","21.2","","64","","","","","M","22","","","","100.52","","37","","","","NA"
"-73.74","45.47","MONTREAL/PIERRE ELLIOTT TRUDEAU INTL","702S006","2009-08-18 18:00","2009","08","18","18:00","28.2","","21.3","","66","","","","","M","20","","","","100.51","","37","","","","NA"
"-73.74","45.47","MONTREAL/PIERRE ELLIOTT TRUDEAU INTL","702S006","2009-08-18 19:00","2009","08","18","19:00","27.1","","21.0","","69","","","","","M","22","","","","100.49","","36","","","","NA"
"-73.74","45.47","MONTREAL/PIERRE ELLIOTT TRUDEAU INTL","702S006","2009-08-18 20:00","2009","08","18","20:00","27.0","","21.5","","72","","","","","M","9","","","","100.51","","36","","","","NA"
"-73.74","45.47","MONTREAL/PIERRE ELLIOTT TRUDEAU INTL","702S006","2009-08-18 21:00","2009","08","18","21:00","26.4","","21.6","","75","","","","","M","13","","","","100.52","","35","","","","NA"
"-73.74","45.47","MONTREAL/PIERRE ELLIOTT TRUDEAU INTL","702S006","2009-08-18 22:00","2009","08","18","22:00","25.4","","21.1","","77","","","","","M","20","","","","100.51","","34","","","","NA"
"-73.74","45.47","MONTREAL/PIERRE ELLIOTT TRUDEAU INTL","702S006","2009-08-18 23:00","2009","08","18","23:00","24.6","","20.3","","77","","","","","M","24","","","","100.53","","32","","","","NA"
"-73.74","45.47","MONTREAL/PIERRE ELLIOTT TRUDEAU INTL","702S006","2009-08-19 00:00","2009","08","19","00:00","23.1","","19.5","","80","","","","","M","20","","","","100.56","","30","","","","NA"
"-73.74","45.47","MONTREAL/PIERRE ELLIOTT TRUDEAU INTL","702S006","2009-08-19 01:00","2009","08","19","01:00","22.1","","19.2","","84","","","","","M","15","","","","100.59","","29","","","","NA"
"-73.74","45.47","MONTREAL/PIERRE ELLIOTT TRUDEAU INTL","702S006","2009-08-19 02:00","2009","08","19","02:00","21.0","","18.8","","87","","","","","M","13","","","","100.62","","28","","","","NA"
"-73.74","45.47","MONTREAL/PIERRE ELLIOTT TRUDEAU INTL","702S006","2009-08-19 03:00","2009","08","19","03:00","20.3","","18.6","","90","","","","","M","9","","","","100.64","","27","","","","NA"
"-73.74","45.47","MONTREAL/PIERRE ELLIOTT TRUDEAU INTL","702S006","2009-08-19 04:00","2009","08","19","04:00","21.0","","19.0","","88","","","","","M","11","","","","100.67","","28","","","","NA"
"-73.74","45.47","MONTREAL/PIERRE ELLIOTT TRUDEAU INTL","702S006","2009-08-19 05:00","2009","08","19","05:00","20.2","","17.9","","87","","","","","M","11","","","","100.68","","26","","","","NA"
"-73.74","45.47","MONTREAL/PIERRE ELLIOTT TRUDEAU INTL","702S006","2009-08-19 06:00","2009","08","19","06:00","20.4","","18.1","","87","","","","","M","13","","","","100.72","","26","","","","NA"
"-73.74","45.47","MONTREAL/PIERRE ELLIOTT TRUDEAU INTL","702S006","2009-08-19 07:00","2009","08","19","07:00","21.8","","18.6","","82","","","","","M","9","","","","100.75","","28","","","","NA"
"-73.74","45.47","MONTREAL/PIERRE ELLIOTT TRUDEAU INTL","702S006","2009-08-19 08:00","2009","08","19","08:00","23.4","","18.9","","76","","","","","M","17","","","","100.77","","30","","","","NA"
"-73.74","45.47","MONTREAL/PIERRE ELLIOTT TRUDEAU INTL","702S006","2009-08-19 09:00","2009","08","19","09:00","24.0","","17.0","","65","","","","","M","19","","","","100.76","","29","","","","NA"
"-73.74","45.47","MONTREAL/PIERRE ELLIOTT TRUDEAU INTL","702S006","2009-08-19 10:00","2009","08","19","10:00","24.6","","15.0","","55","","","","","M","22","","","","100.80","","29","","","","NA"
"-73.74","45.47","MONTREAL/PIERRE ELLIOTT TRUDEAU INTL","702S006","2009-08-19 11:00","2009","08","19","11:00","24.9","","13.8","","50","","","","","M","22","","","","100.83","","28","","","","NA"
"-73.74","45.47","MONTREAL/PIERRE ELLIOTT TRUDEAU INTL","702S006","2009-08-19 12:00","2009","08","19","12:00","24.7","","13.2","","49","","","","","M","20","","","","100.85","","28","","","","NA"
"-73.74","45.47","MONTREAL/PIERRE ELLIOTT TRUDEAU INTL","702S006","2009-08-19 13:00","2009","08","19","13:00","24.4","","13.6","","51","","","","","M","24","","","","100.90","","28","","","","NA"
"-73.74","45.47","MONTREAL/PIERRE ELLIOTT TRUDEAU INTL","702S006","2009-08-19 14:00","2009","08","19","14:00","25.4","","13.4","","47","","","","","M","24","","","","100.90","","28","","","","NA"
"-73.74","45.47","MONTREAL/PIERRE ELLIOTT TRUDEAU INTL","702S006","2009-08-19 15:00","2009","08","19","15:00","25.8","","13.3","","46","","","","","M","20","","","","100.88","","29","","","","NA"
"-73.74","45.47","MONTREAL/PIERRE ELLIOTT TRUDEAU INTL","702S006","2009-08-19 16:00","2009","08","19","16:00","25.5","","13.8","","48","","","","","M","26","","","","100.88","","29","","","","NA"
"-73.74","45.47","MONTREAL/PIERRE ELLIOTT TRUDEAU INTL","702S006","2009-08-19 17:00","2009","08","19","17:00","25.5","","13.2","","46","","","","","M","22","","","","100.89","","28","","","","NA"
"-73.74","45.47","MONTREAL/PIERRE ELLIOTT TRUDEAU INTL","702S006","2009-08-19 18:00","2009","08","19","18:00","24.1","","13.3","","51","","","","","M","19","","","","100.89","","27","","","","NA"
"-73.74","45.47","MONTREAL/PIERRE ELLIOTT TRUDEAU INTL","702S006","2009-08-19 19:00","2009","08","19","19:00","22.5","","13.4","","56","","","","","M","11","","","","100.92","","26","","","","NA"
"-73.74","45.47","MONTREAL/PIERRE ELLIOTT TRUDEAU INTL","702S006","2009-08-19 20:00","2009","08","19","20:00","21.5","","14.1","","63","","","","","M","6","","","","100.94","","25","","","","NA"
"-73.74","45.47","MONTREAL/PIERRE ELLIOTT TRUDEAU INTL","702S006","2009-08-19 21:00","2009","08","19","21:00","20.6","","14.5","","68","","","","","M","4","","","","100.99","","","","","","NA"
"-73.74","45.47","MONTREAL/PIERRE ELLIOTT TRUDEAU INTL","702S006","2009-08-19 22:00","2009","08","19","22:00","20.5","","14.2","","67","","","","","M","2","","","","100.98","","","","","","NA"
"-73.74","45.47","MONTREAL/PIERRE ELLIOTT TRUDEAU INTL","702S006","2009-08-19 23:00","2009","08","19","23:00","17.8","","14.8","","83","","","","","M","7","","","","101.01","","","","","","NA"
"-73.74","45.47","MONTREAL/PIERRE ELLIOTT TRUDEAU INTL","702S006","2009-08-20 00:00","2009","08","20","00:00","19.2","","14.7","","75","","","","","M","0","","","","101.01","","","","","","NA"
"-73.74","45.47","MONTREAL/PIERRE ELLIOTT TRUDEAU INTL","702S006","2009-08-20 01:00","2009","08","20","01:00","16.8","","13.4","","80","","","","","M","4","","","","100.99","","","","","","NA"
"-73.74","45.47","MONTREAL/PIERRE ELLIOTT TRUDEAU INTL","702S006","2009-08-20 02:00","2009","08","20","02:00","17.1","","14.7","","86","","","","","M","2","","","","101.00","","","","","","NA"
"-73.74","45.47","MONTREAL/PIERRE ELLIOTT TRUDEAU INTL","702S006","2009-08-20 03:00","2009","08","20","03:00","18.4","","16.4","","88","","","","","M","6","","","","100.99","","","","","","NA"
"-73.74","45.47","MONTREAL/PIERRE ELLIOTT TRUDEAU INTL","702S006","2009-08-20 04:00","2009","08","20","04:00","18.0","","15.9","","88","","","","","M","4","","","","100.99","","","","","","NA"
"-73.74","45.47","MONTREAL/PIERRE ELLIOTT TRUDEAU INTL","702S006","2009-08-20 05:00","2009","08","20","05:00","16.2","","14.5","","90","","","","","M","4","","","","100.99","","","","","","NA"
"-73.74","45.47","MONTREAL/PIERRE ELLIOTT TRUDEAU INTL","702S006","2009-08-20 06:00","2009","08","20","06:00","17.6","","15.2","","86","","","","","M","7","","","","101.02","","","","","","NA"
"-73.74","45.47","MONTREAL/PIERRE ELLIOTT TRUDEAU INTL","702S006","2009-08-20 07:00","2009","08","20","07:00","19.5","","15.8","","79","","","","","M","9","","","","101.05","","","","","","NA"
"-73.74","45.47","MONTREAL/PIERRE ELLIOTT TRUDEAU INTL","702S006","2009-08-20 08:00","2009","08","20","08:00","22.0","","15.4","","66","","","","","M","7","","","","101.02","","26","","","","NA"
"-73.74","45.47","MONTREAL/PIERRE ELLIOTT TRUDEAU INTL","702S006","2009-08-20 09:00","2009","08","20","09:00","23.1","","15.8","","63","","","","","M","11","","","","100.99","","28","","","","NA"
"-73.74","45.47","MONTREAL/PIERRE ELLIOTT TRUDEAU INTL","702S006","2009-08-20 10:00","2009","08","20","10:00","23.9","","16.6","","64","","","","","M","19","","","","100.95","","29","","","","NA"
"-73.74","45.47","MONTREAL/PIERRE ELLIOTT TRUDEAU INTL","702S006","2009-08-20 11:00","2009","08","20","11:00","24.6","","16.1","","59","","","","","M","22","","","","100.92","","29","","","","NA"
"-73.74","45.47","MONTREAL/PIERRE ELLIOTT TRUDEAU INTL","702S006","2009-08-20 12:00","2009","08","20","12:00","24.0","","16.2","","62","","","","","M","17","","","","100.92","","29","","","","NA"
"-73.74","45.47","MONTREAL/PIERRE ELLIOTT TRUDEAU INTL","702S006","2009-08-20 13:00","2009","08","20","13:00","23.7","","16.5","","64","","","","","M","15","","","","100.95","","29","","","","NA"
"-73.74","45.47","MONTREAL/PIERRE ELLIOTT TRUDEAU INTL","702S006","2009-08-20 14:00","2009","08","20","14:00","21.3","","18.4","","84","","","","","M","11","","","","100.88","","28","","","","NA"
"-73.74","45.47","MONTREAL/PIERRE ELLIOTT TRUDEAU INTL","702S006","2009-08-20 15:00","2009","08","20","15:00","21.3","","19.0","","87","","","","","M","17","","","","100.79","","28","","","","NA"
"-73.74","45.47","MONTREAL/PIERRE ELLIOTT TRUDEAU INTL","702S006","2009-08-20 16:00","2009","08","20","16:00","20.8","","19.0","","89","","","","","M","13","","","","100.73","","28","","","","NA"
"-73.74","45.47","MONTREAL/PIERRE ELLIOTT TRUDEAU INTL","702S006","2009-08-20 17:00","2009","08","20","17:00","21.9","","19.7","","87","","","","","M","9","","","","100.67","","29","","","","NA"
"-73.74","45.47","MONTREAL/PIERRE ELLIOTT TRUDEAU INTL","702S006","2009-08-20 18:00","2009","08","20","18:00","22.0","","18.8","","82","","","","","M","13","","","","100.64","","29","","","","NA"
"-73.74","45.47","MONTREAL/PIERRE ELLIOTT TRUDEAU INTL","702S006","2009-08-20 19:00","2009","08","20","19:00","21.6","","18.3","","82","","","","","M","13","","","","100.59","","28","","","","NA"
"-73.74","45.47","MONTREAL/PIERRE ELLIOTT TRUDEAU INTL","702S006","2009-08-20 20:00","2009","08","20","20:00","21.4","","18.2","","82","","","","","M","13","","","","100.56","","28","","","","NA"
"-73.74","45.47","MONTREAL/PIERRE ELLIOTT TRUDEAU INTL","702S006","2009-08-20 21:00","2009","08","20","21:00","21.1","","18.0","","82","","","","","M","13","","","","100.60","","27","","","","NA"
"-73.74","45.47","MONTREAL/PIERRE ELLIOTT TRUDEAU INTL","702S006","2009-08-20 22:00","2009","08","20","22:00","20.8","","18.0","","84","","","","","M","13","","","","100.57","","27","","","","NA"
"-73.74","45.47","MONTREAL/PIERRE ELLIOTT TRUDEAU INTL","702S006","2009-08-20 23:00","2009","08","20","23:00","20.5","","18.2","","87","","","","","M","11","","","","100.54","","27","","","","NA"
"-73.74","45.47","MONTREAL/PIERRE ELLIOTT TRUDEAU INTL","702S006","2009-08-21 00:00","2009","08","21","00:00","20.5","","18.4","","88","","","","","M","11","","","","100.48","","27","","","","NA"
"-73.74","45.47","MONTREAL/PIERRE ELLIOTT TRUDEAU INTL","702S006","2009-08-21 01:00","2009","08","21","01:00","20.3","","18.5","","89","","","","","M","7","","","","100.45","","27","","","","NA"
"-73.74","45.47","MONTREAL/PIERRE ELLIOTT TRUDEAU INTL","702S006","2009-08-21 02:00","2009","08","21","02:00","19.9","","18.4","","91","","","","","M","9","","","","100.43","","","","","","NA"
"-73.74","45.47","MONTREAL/PIERRE ELLIOTT TRUDEAU INTL","702S006","2009-08-21 03:00","2009","08","21","03:00","19.6","","18.4","","93","","","","","M","13","","","","100.51","","","","","","NA"
"-73.74","45.47","MONTREAL/PIERRE ELLIOTT TRUDEAU INTL","702S006","2009-08-21 04:00","2009","08","21","04:00","19.4","","18.7","","96","","","","","M","4","","","","100.51","","","","","","NA"
"-73.74","45.47","MONTREAL/PIERRE ELLIOTT TRUDEAU INTL","702S006","2009-08-21 05:00","2009","08","21","05:00","20.5","","19.8","","96","","","","","M","2","","","","100.49","","28","","","","NA"
"-73.74","45.47","MONTREAL/PIERRE ELLIOTT TRUDEAU INTL","702S006","2009-08-21 06:00","2009","08","21","06:00","21.6","","21.1","","97","","","","","M","11","","","","100.50","","30","","","","NA"
"-73.74","45.47","MONTREAL/PIERRE ELLIOTT TRUDEAU INTL","702S006","2009-08-21 07:00","2009","08","21","07:00","21.9","","21.2","","96","","","","","M","13","","","","100.54","","30","","","","NA"
"-73.74","45.47","MONTREAL/PIERRE ELLIOTT TRUDEAU INTL","702S006","2009-08-21 08:00","2009","08","21","08:00","23.5","","22.5","","94","","","","","M","11","","","","100.54","","33","","","","NA"
"-73.74","45.47","MONTREAL/PIERRE ELLIOTT TRUDEAU INTL","702S006","2009-08-21 09:00","2009","08","21","09:00","24.2","","22.0","","88","","","","","M","11","","","","100.56","","34","","","","NA"
"-73.74","45.47","MONTREAL/PIERRE ELLIOTT TRUDEAU INTL","702S006","2009-08-21 10:00","2009","08","21","10:00","24.7","","22.1","","85","","","","","M","7","","","","100.58","","34","","","","NA"
"-73.74","45.47","MONTREAL/PIERRE ELLIOTT TRUDEAU INTL","702S006","2009-08-21 11:00","2009","08","21","11:00","25.8","","22.4","","82","","","","","M","7","","","","100.52","","35","","","","NA"
"-73.74","45.47","MONTREAL/PIERRE ELLIOTT TRUDEAU INTL","702S006","2009-08-21 12:00","2009","08","21","12:00","26.8","","21.9","","75","","","","","M","11","","","","100.51","","36","","","","NA"
"-73.74","45.47","MONTREAL/PIERRE ELLIOTT TRUDEAU INTL","702S006","2009-08-21 13:00","2009","08","21","13:00","27.0","","21.4","","71","","","","","M","9","","","","100.45","","36","","","","NA"
"-73.74","45.47","MONTREAL/PIERRE ELLIOTT TRUDEAU INTL","702S006","2009-08-21 14:00","2009","08","21","14:00","27.0","","20.7","","68","","","","","M","9","","","","100.40","","35","","","","NA"
"-73.74","45.47","MONTREAL/PIERRE ELLIOTT TRUDEAU INTL","702S006","2009-08-21 15:00","2009","08","21","15:00","26.9","","21.5","","72","","","","","M","7","","","","100.36","","36","","","","NA"
"-73.74","45.47","MONTREAL/PIERRE ELLIOTT TRUDEAU INTL","702S006","2009-08-21 16:00","2009","08","21","16:00","26.6","","21.4","","73","","","","","M","9","","","","100.35","","35","","","","NA"
"-73.74","45.47","MONTREAL/PIERRE ELLIOTT TRUDEAU INTL","702S006","2009-08-21 17:00","2009","08","21","17:00","25.9","","22.5","","82","","","","","M","7","","","","100.32","","36","","","","NA"
"-73.74","45.47","MONTREAL/PIERRE ELLIOTT TRUDEAU INTL","702S006","2009-08-21 18:00","2009","08","21","18:00","26.3","","22.3","","79","","","","","M","9","","","","100.37","","36","","","","NA"
"-73.74","45.47","MONTREAL/PIERRE ELLIOTT TRUDEAU INTL","702S006","2009-08-21 19:00","2009","08","21","19:00","25.4","","22.2","","82","","","","","M","13","","","","100.42","","35","","","","NA"
"-73.74","45.47","MONTREAL/PIERRE ELLIOTT TRUDEAU INTL","702S006","2009-08-21 20:00","2009","08","21","20:00","24.9","","22.3","","86","","","","","M","13","","","","100.47","","35","","","","NA"
"-73.74","45.47","MONTREAL/PIERRE ELLIOTT TRUDEAU INTL","702S006","2009-08-21 21:00","2009","08","21","21:00","24.5","","21.7","","84","","","","","M","17","","","","100.51","","34","","","","NA"
"-73.74","45.47","MONTREAL/PIERRE ELLIOTT TRUDEAU INTL","702S006","2009-08-21 22:00","2009","08","21","22:00","23.7","","21.2","","86","","","","","M","11","","","","100.50","","32","","","","NA"
"-73.74","45.47","MONTREAL/PIERRE ELLIOTT TRUDEAU INTL","702S006","2009-08-21 23:00","2009","08","21","23:00","23.4","","21.0","","86","","","","","M","11","","","","100.52","","32","","","","NA"
"-73.74","45.47","MONTREAL/PIERRE ELLIOTT TRUDEAU INTL","702S006","2009-08-22 00:00","2009","08","22","00:00","21.5","","19.1","","86","","","","","M","7","","","","100.55","","28","","","","NA"
"-73.74","45.47","MONTREAL/PIERRE ELLIOTT TRUDEAU INTL","702S006","2009-08-22 01:00","2009","08","22","01:00","21.2","","19.3","","89","","","","","M","11","","","","100.52","","28","","","","NA"
"-73.74","45.47","MONTREAL/PIERRE ELLIOTT TRUDEAU INTL","702S006","2009-08-22 02:00","2009","08","22","02:00","21.9","","19.7","","87","","","","","M","9","","","","100.57","","29","","","","NA"
"-73.74","45.47","MONTREAL/PIERRE ELLIOTT TRUDEAU INTL","702S006","2009-08-22 03:00","2009","08","22","03:00","21.8","","19.8","","88","","","","","M","0","","","","100.61","","29","","","","NA"
"-73.74","45.47","MONTREAL/PIERRE ELLIOTT TRUDEAU INTL","702S006","2009-08-22 04:00","2009","08","22","04:00","22.5","","19.4","","83","","","","","M","11","","","","100.64","","30","","","","NA"
"-73.74","45.47","MONTREAL/PIERRE ELLIOTT TRUDEAU INTL","702S006","2009-08-22 05:00","2009","08","22","05:00","20.7","","18.0","","85","","","","","M","11","","","","100.66","","27","","","","NA"
"-73.74","45.47","MONTREAL/PIERRE ELLIOTT TRUDEAU INTL","702S006","2009-08-22 06:00","2009","08","22","06:00","20.9","","19.1","","89","","","","","M","4","","","","100.70","","28","","","","NA"
"-73.74","45.47","MONTREAL/PIERRE ELLIOTT TRUDEAU INTL","702S006","2009-08-22 07:00","2009","08","22","07:00","21.8","","19.8","","88","","","","","M","11","","","","100.77","","29","","","","NA"
"-73.74","45.47","MONTREAL/PIERRE ELLIOTT TRUDEAU INTL","702S006","2009-08-22 08:00","2009","08","22","08:00","23.6","","20.2","","81","","","","","M","13","","","","100.78","","31","","","","NA"
"-73.74","45.47","MONTREAL/PIERRE ELLIOTT TRUDEAU INTL","702S006","2009-08-22 09:00","2009","08","22","09:00","24.0","","19.4","","75","","","","","M","11","","","","100.81","","31","","","","NA"
"-73.74","45.47","MONTREAL/PIERRE ELLIOTT TRUDEAU INTL","702S006","2009-08-22 10:00","2009","08","22","10:00","25.6","","19.8","","70","","","","","M","13","","","","100.80","","33","","","","NA"
"-73.74","45.47","MONTREAL/PIERRE ELLIOTT TRUDEAU INTL","702S006","2009-08-22 11:00","2009","08","22","11:00","25.7","","18.5","","64","","","","","M","9","","","","100.81","","32","","","","NA"
"-73.74","45.47","MONTREAL/PIERRE ELLIOTT TRUDEAU INTL","702S006","2009-08-22 12:00","2009","08","22","12:00","26.4","","18.1","","60","","","","","M","11","","","","100.76","","32","","","","NA"
"-73.74","45.47","MONTREAL/PIERRE ELLIOTT TRUDEAU INTL","702S006","2009-08-22 13:00","2009","08","22","13:00","26.3","","17.9","","60","","","","","M","7","","","","100.75","","32","","","","NA"
"-73.74","45.47","MONTREAL/PIERRE ELLIOTT TRUDEAU INTL","702S006","2009-08-22 14:00","2009","08","22","14:00","27.4","","17.8","","56","","","","","M","7","","","","100.69","","33","","","","NA"
"-73.74","45.47","MONTREAL/PIERRE ELLIOTT TRUDEAU INTL","702S006","2009-08-22 15:00","2009","08","22","15:00","27.5","","18.1","","57","","","","","M","6","","","","100.66","","34","","","","NA"
"-73.74","45.47","MONTREAL/PIERRE ELLIOTT TRUDEAU INTL","702S006","2009-08-22 16:00","2009","08","22","16:00","27.8","","18.7","","58","","","","","M","2","","","","100.60","","34","","","","NA"
"-73.74","45.47","MONTREAL/PIERRE ELLIOTT TRUDEAU INTL","702S006","2009-08-22 17:00","2009","08","22","17:00","26.9","","19.5","","64","","","","","M","7","","","","100.61","","34","","","","NA"
"-73.74","45.47","MONTREAL/PIERRE ELLIOTT TRUDEAU INTL","702S006","2009-08-22 18:00","2009","08","22","18:00","26.2","","18.6","","63","","","","","M","7","","","","100.60","","33","","","","NA"
"-73.74","45.47","MONTREAL/PIERRE ELLIOTT TRUDEAU INTL","702S006","2009-08-22 19:00","2009","08","22","19:00","24.7","","20.6","","78","","","","","M","7","","","","100.62","","33","","","","NA"
"-73.74","45.47","MONTREAL/PIERRE ELLIOTT TRUDEAU INTL","702S006","2009-08-22 20:00","2009","08","22","20:00","24.4","","20.9","","81","","","","","M","7","","","","100.67","","33","","","","NA"
"-73.74","45.47","MONTREAL/PIERRE ELLIOTT TRUDEAU INTL","702S006","2009-08-22 21:00","2009","08","22","21:00","23.2","","19.5","","80","","","","","M","9","","","","100.70","","30","","","","NA"
"-73.74","45.47","MONTREAL/PIERRE ELLIOTT TRUDEAU INTL","702S006","2009-08-22 22:00","2009","08","22","22:00","23.9","","19.0","","74","","","","","M","13","","","","100.67","","31","","","","NA"
"-73.74","45.47","MONTREAL/PIERRE ELLIOTT TRUDEAU INTL","702S006","2009-08-22 23:00","2009","08","22","23:00","23.7","","18.2","","71","","","","","M","15","","","","100.64","","30","","","","NA"
"-73.74","45.47","MONTREAL/PIERRE ELLIOTT TRUDEAU INTL","702S006","2009-08-23 00:00","2009","08","23","00:00","22.9","","18.4","","76","","","","","M","13","","","","100.61","","29","","","","NA"
"-73.74","45.47","MONTREAL/PIERRE ELLIOTT TRUDEAU INTL","702S006","2009-08-23 01:00","2009","08","23","01:00","22.4","","18.8","","80","","","","","M","13","","","","100.59","","29","","","","NA"
"-73.74","45.47","MONTREAL/PIERRE ELLIOTT TRUDEAU INTL","702S006","2009-08-23 02:00","2009","08","23","02:00","21.5","","18.6","","84","","","","","M","19","","","","100.54","","28","","","","NA"
"-73.74","45.47","MONTREAL/PIERRE ELLIOTT TRUDEAU INTL","702S006","2009-08-23 03:00","2009","08","23","03:00","21.5","","18.6","","84","","","","","M","15","","","","100.57","","28","","","","NA"
"-73.74","45.47","MONTREAL/PIERRE ELLIOTT TRUDEAU INTL","702S006","2009-08-23 04:00","2009","08","23","04:00","21.2","","18.3","","84","","","","","M","15","","","","100.55","","27","","","","NA"
"-73.74","45.47","MONTREAL/PIERRE ELLIOTT TRUDEAU INTL","702S006","2009-08-23 05:00","2009","08","23","05:00","20.4","","18.2","","87","","","","","M","19","","","","100.59","","27","","","","NA"
"-73.74","45.47","MONTREAL/PIERRE ELLIOTT TRUDEAU INTL","702S006","2009-08-23 06:00","2009","08","23","06:00","20.4","","18.3","","88","","","","","M","19","","","","100.61","","27","","","","NA"
"-73.74","45.47","MONTREAL/PIERRE ELLIOTT TRUDEAU INTL","702S006","2009-08-23 07:00","2009","08","23","07:00","20.7","","18.0","","85","","","","","M","19","","","","100.63","","27","","","","NA"
"-73.74","45.47","MONTREAL/PIERRE ELLIOTT TRUDEAU INTL","702S006","2009-08-23 08:00","2009","08","23","08:00","20.7","","17.5","","82","","","","","M","24","","","","100.67","","26","","","","NA"
"-73.74","45.47","MONTREAL/PIERRE ELLIOTT TRUDEAU INTL","702S006","2009-08-23 09:00","2009","08","23","09:00","22.3","","17.9","","76","","","","","M","20","","","","100.71","","28","","","","NA"
"-73.74","45.47","MONTREAL/PIERRE ELLIOTT TRUDEAU INTL","702S006","2009-08-23 10:00","2009","08","23","10:00","22.5","","18.1","","76","","","","","M","19","","","","100.77","","29","","","","NA"
"-73.74","45.47","MONTREAL/PIERRE ELLIOTT TRUDEAU INTL","702S006","2009-08-23 11:00","2009","08","23","11:00","22.6","","18.2","","76","","","","","M","13","","","","100.80","","29","","","","NA"
"-73.74","45.47","MONTREAL/PIERRE ELLIOTT TRUDEAU INTL","702S006","2009-08-23 12:00","2009","08","23","12:00","23.6","","18.5","","73","","","","","M","9","","","","100.80","","30","","","","NA"
"-73.74","45.47","MONTREAL/PIERRE ELLIOTT TRUDEAU INTL","702S006","2009-08-23 13:00","2009","08","23","13:00","24.7","","18.8","","70","","","","","M","6","","","","100.79","","31","","","","NA"
"-73.74","45.47","MONTREAL/PIERRE ELLIOTT TRUDEAU INTL","702S006","2009-08-23 14:00","2009","08","23","14:00","25.6","","18.8","","66","","","","","M","6","","","","100.79","","32","","","","NA"
"-73.74","45.47","MONTREAL/PIERRE ELLIOTT TRUDEAU INTL","702S006","2009-08-23 15:00","2009","08","23","15:00","25.7","","18.8","","66","","","","","M","6","","","","100.79","","32","","","","NA"
"-73.74","45.47","MONTREAL/PIERRE ELLIOTT TRUDEAU INTL","702S006","2009-08-23 16:00","2009","08","23","16:00","25.1","","19.8","","72","","","","","M","13","","","","100.80","","33","","","","NA"
"-73.74","45.47","MONTREAL/PIERRE ELLIOTT TRUDEAU INTL","702S006","2009-08-23 17:00","2009","08","23","17:00","25.3","","18.8","","67","","","","","M","7","","","","100.80","","32","","","","NA"
"-73.74","45.47","MONTREAL/PIERRE ELLIOTT TRUDEAU INTL","702S006","2009-08-23 18:00","2009","08","23","18:00","24.1","","19.6","","76","","","","","M","11","","","","100.84","","31","","","","NA"
"-73.74","45.47","MONTREAL/PIERRE ELLIOTT TRUDEAU INTL","702S006","2009-08-23 19:00","2009","08","23","19:00","23.0","","19.6","","81","","","","","M","11","","","","100.86","","30","","","","NA"
"-73.74","45.47","MONTREAL/PIERRE ELLIOTT TRUDEAU INTL","702S006","2009-08-23 20:00","2009","08","23","20:00","20.1","","18.8","","92","","","","","M","13","","","","100.97","","27","","","","NA"
"-73.74","45.47","MONTREAL/PIERRE ELLIOTT TRUDEAU INTL","702S006","2009-08-23 21:00","2009","08","23","21:00","20.8","","19.4","","92","","","","","M","6","","","","100.98","","28","","","","NA"
"-73.74","45.47","MONTREAL/PIERRE ELLIOTT TRUDEAU INTL","702S006","2009-08-23 22:00","2009","08","23","22:00","21.2","","20.0","","93","","","","","M","6","","","","101.00","","29","","","","NA"
"-73.74","45.47","MONTREAL/PIERRE ELLIOTT TRUDEAU INTL","702S006","2009-08-23 23:00","2009","08","23","23:00","20.7","","19.9","","95","","","","","M","7","","","","101.03","","28","","","","NA"
"-73.74","45.47","MONTREAL/PIERRE ELLIOTT TRUDEAU INTL","702S006","2009-08-24 00:00","2009","08","24","00:00","20.9","","19.6","","92","","","","","M","7","","","","101.02","","28","","","","NA"
"-73.74","45.47","MONTREAL/PIERRE ELLIOTT TRUDEAU INTL","702S006","2009-08-24 01:00","2009","08","24","01:00","20.6","","19.8","","95","","","","","M","7","","","","101.03","","28","","","","NA"
"-73.74","45.47","MONTREAL/PIERRE ELLIOTT TRUDEAU INTL","702S006","2009-08-24 02:00","2009","08","24","02:00","19.4","","18.1","","92","","","","","M","9","","","","101.05","","","","","","NA"
"-73.74","45.47","MONTREAL/PIERRE ELLIOTT TRUDEAU INTL","702S006","2009-08-24 03:00","2009","08","24","03:00","19.0","","17.6","","92","","","","","M","9","","","","101.07","","","","","","NA"
"-73.74","45.47","MONTREAL/PIERRE ELLIOTT TRUDEAU INTL","702S006","2009-08-24 04:00","2009","08","24","04:00","18.9","","17.1","","89","","","","","M","9","","","","101.11","","","","","","NA"
"-73.74","45.47","MONTREAL/PIERRE ELLIOTT TRUDEAU INTL","702S006","2009-08-24 05:00","2009","08","24","05:00","18.2","","16.5","","90","","","","","M","9","","","","101.17","","","","","","NA"
"-73.74","45.47","MONTREAL/PIERRE ELLIOTT TRUDEAU INTL","702S006","2009-08-24 06:00","2009","08","24","06:00","18.5","","16.3","","87","","","","","M","11","","","","101.23","","","","","","NA"
"-73.74","45.47","MONTREAL/PIERRE ELLIOTT TRUDEAU INTL","702S006","2009-08-24 07:00","2009","08","24","07:00","19.1","","16.7","","86","","","","","M","9","","","","101.25","","","","","","NA"
"-73.74","45.47","MONTREAL/PIERRE ELLIOTT TRUDEAU INTL","702S006","2009-08-24 08:00","2009","08","24","08:00","19.8","","17.3","","86","","","","","M","11","","","","101.29","","","","","","NA"
"-73.74","45.47","MONTREAL/PIERRE ELLIOTT TRUDEAU INTL","702S006","2009-08-24 09:00","2009","08","24","09:00","21.8","","17.6","","77","","","","","M","2","","","","101.31","","28","","","","NA"
"-73.74","45.47","MONTREAL/PIERRE ELLIOTT TRUDEAU INTL","702S006","2009-08-24 10:00","2009","08","24","10:00","22.1","","18.0","","78","","","","","M","4","","","","101.32","","28","","","","NA"
"-73.74","45.47","MONTREAL/PIERRE ELLIOTT TRUDEAU INTL","702S006","2009-08-24 11:00","2009","08","24","11:00","21.6","","17.6","","78","","","","","M","9","","","","101.39","","27","","","","NA"
"-73.74","45.47","MONTREAL/PIERRE ELLIOTT TRUDEAU INTL","702S006","2009-08-24 12:00","2009","08","24","12:00","22.3","","17.8","","76","","","","","M","11","","","","101.39","","28","","","","NA"
"-73.74","45.47","MONTREAL/PIERRE ELLIOTT TRUDEAU INTL","702S006","2009-08-24 13:00","2009","08","24","13:00","23.4","","17.3","","69","","","","","M","7","","","","101.37","","29","","","","NA"
"-73.74","45.47","MONTREAL/PIERRE ELLIOTT TRUDEAU INTL","702S006","2009-08-24 14:00","2009","08","24","14:00","24.7","","18.2","","67","","","","","M","13","","","","101.38","","31","","","","NA"
"-73.74","45.47","MONTREAL/PIERRE ELLIOTT TRUDEAU INTL","702S006","2009-08-24 15:00","2009","08","24","15:00","24.9","","15.8","","57","","","","","M","19","","","","101.34","","29","","","","NA"
"-73.74","45.47","MONTREAL/PIERRE ELLIOTT TRUDEAU INTL","702S006","2009-08-24 16:00","2009","08","24","16:00","24.9","","16.4","","59","","","","","M","19","","","","101.32","","30","","","","NA"
"-73.74","45.47","MONTREAL/PIERRE ELLIOTT TRUDEAU INTL","702S006","2009-08-24 17:00","2009","08","24","17:00","24.4","","15.2","","57","","","","","M","19","","","","101.32","","28","","","","NA"
"-73.74","45.47","MONTREAL/PIERRE ELLIOTT TRUDEAU INTL","702S006","2009-08-24 18:00","2009","08","24","18:00","23.2","","15.6","","62","","","","","M","13","","","","101.33","","28","","","","NA"
"-73.74","45.47","MONTREAL/PIERRE ELLIOTT TRUDEAU INTL","702S006","2009-08-24 19:00","2009","08","24","19:00","21.1","","15.0","","68","","","","","M","11","","","","101.36","","25","","","","NA"
"-73.74","45.47","MONTREAL/PIERRE ELLIOTT TRUDEAU INTL","702S006","2009-08-24 20:00","2009","08","24","20:00","21.3","","15.8","","71","","","","","M","9","","","","101.41","","26","","","","NA"
"-73.74","45.47","MONTREAL/PIERRE ELLIOTT TRUDEAU INTL","702S006","2009-08-24 21:00","2009","08","24","21:00","19.1","","15.1","","78","","","","","M","11","","","","101.45","","","","","","NA"
"-73.74","45.47","MONTREAL/PIERRE ELLIOTT TRUDEAU INTL","702S006","2009-08-24 22:00","2009","08","24","22:00","17.9","","15.0","","83","","","","","M","11","","","","101.48","","","","","","NA"
"-73.74","45.47","MONTREAL/PIERRE ELLIOTT TRUDEAU INTL","702S006","2009-08-24 23:00","2009","08","24","23:00","16.8","","14.3","","85","","","","","M","7","","","","101.48","","","","","","NA"
"-73.74","45.47","MONTREAL/PIERRE ELLIOTT TRUDEAU INTL","702S006","2009-08-25 00:00","2009","08","25","00:00","17.5","","14.1","","80","","","","","M","4","","","","101.47","","","","","","NA"
"-73.74","45.47","MONTREAL/PIERRE ELLIOTT TRUDEAU INTL","702S006","2009-08-25 01:00","2009","08","25","01:00","17.0","","13.9","","82","","","","","M","2","","","","101.48","","","","","","NA"
"-73.74","45.47","MONTREAL/PIERRE ELLIOTT TRUDEAU INTL","702S006","2009-08-25 02:00","2009","08","25","02:00","16.5","","13.3","","81","","","","","M","2","","","","101.49","","","","","","NA"
"-73.74","45.47","MONTREAL/PIERRE ELLIOTT TRUDEAU INTL","702S006","2009-08-25 03:00","2009","08","25","03:00","15.1","","13.4","","90","","","","","M","2","","","","101.52","","","","","","NA"
"-73.74","45.47","MONTREAL/PIERRE ELLIOTT TRUDEAU INTL","702S006","2009-08-25 04:00","2009","08","25","04:00","14.3","","12.6","","90","","","","","M","2","","","","101.56","","","","","","NA"
"-73.74","45.47","MONTREAL/PIERRE ELLIOTT TRUDEAU INTL","702S006","2009-08-25 05:00","2009","08","25","05:00","14.2","","13.0","","92","","","","","M","7","","","","101.61","","","","","","NA"
"-73.74","45.47","MONTREAL/PIERRE ELLIOTT TRUDEAU INTL","702S006","2009-08-25 06:00","2009","08","25","06:00","16.5","","13.9","","85","","","","","M","7","","","","101.62","","","","","","NA"
"-73.74","45.47","MONTREAL/PIERRE ELLIOTT TRUDEAU INTL","702S006","2009-08-25 07:00","2009","08","25","07:00","18.1","","14.4","","79","","","","","M","6","","","","101.60","","","","","","NA"
"-73.74","45.47","MONTREAL/PIERRE ELLIOTT TRUDEAU INTL","702S006","2009-08-25 08:00","2009","08","25","08:00","18.6","","15.3","","81","","","","","M","11","","","","101.56","","","","","","NA"
"-73.74","45.47","MONTREAL/PIERRE ELLIOTT TRUDEAU INTL","702S006","2009-08-25 09:00","2009","08","25","09:00","20.2","","16.7","","80","","","","","M","11","","","","101.55","","25","","","","NA"
"-73.74","45.47","MONTREAL/PIERRE ELLIOTT TRUDEAU INTL","702S006","2009-08-25 10:00","2009","08","25","10:00","22.1","","17.5","","75","","","","","M","7","","","","101.52","","28","","","","NA"
"-73.74","45.47","MONTREAL/PIERRE ELLIOTT TRUDEAU INTL","702S006","2009-08-25 11:00","2009","08","25","11:00","22.9","","16.1","","66","","","","","M","13","","","","101.45","","28","","","","NA"
"-73.74","45.47","MONTREAL/PIERRE ELLIOTT TRUDEAU INTL","702S006","2009-08-25 12:00","2009","08","25","12:00","24.5","","16.7","","62","","","","","M","15","","","","101.39","","30","","","","NA"
"-73.74","45.47","MONTREAL/PIERRE ELLIOTT TRUDEAU INTL","702S006","2009-08-25 13:00","2009","08","25","13:00","25.0","","15.5","","56","","","","","M","19","","","","101.32","","29","","","","NA"
"-73.74","45.47","MONTREAL/PIERRE ELLIOTT TRUDEAU INTL","702S006","2009-08-25 14:00","2009","08","25","14:00","25.3","","14.6","","52","","","","","M","24","","","","101.27","","29","","","","NA"
"-73.74","45.47","MONTREAL/PIERRE ELLIOTT TRUDEAU INTL","702S006","2009-08-25 15:00","2009","08","25","15:00","25.7","","14.1","","49","","","","","M","22","","","","101.16","","29","","","","NA"
"-73.74","45.47","MONTREAL/PIERRE ELLIOTT TRUDEAU INTL","702S006","2009-08-25 16:00","2009","08","25","16:00","25.5","","15.1","","53","","","","","M","24","","","","101.10","","30","","","","NA"
"-73.74","45.47","MONTREAL/PIERRE ELLIOTT TRUDEAU INTL","702S006","2009-08-25 17:00","2009","08","25","17:00","25.3","","15.4","","54","","","","","M","20","","","","101.01","","30","","","","NA"
"-73.74","45.47","MONTREAL/PIERRE ELLIOTT TRUDEAU INTL","702S006","2009-08-25 18:00","2009","08","25","18:00","24.4","","16.3","","61","","","","","M","15","","","","100.98","","29","","","","NA"
"-73.74","45.47","MONTREAL/PIERRE ELLIOTT TRUDEAU INTL","702S006","2009-08-25 19:00","2009","08","25","19:00","23.3","","16.1","","64","","","","","M","15","","","","100.95","","28","","","","NA"
"-73.74","45.47","MONTREAL/PIERRE ELLIOTT TRUDEAU INTL","702S006","2009-08-25 20:00","2009","08","25","20:00","22.9","","16.3","","66","","","","","M","15","","","","100.95","","28","","","","NA"
"-73.74","45.47","MONTREAL/PIERRE ELLIOTT TRUDEAU INTL","702S006","2009-08-25 21:00","2009","08","25","21:00","21.9","","15.9","","69","","","","","M","22","","","","100.88","","26","","","","NA"
"-73.74","45.47","MONTREAL/PIERRE ELLIOTT TRUDEAU INTL","702S006","2009-08-25 22:00","2009","08","25","22:00","21.7","","15.8","","69","","","","","M","20","","","","100.84","","26","","","","NA"
"-73.74","45.47","MONTREAL/PIERRE ELLIOTT TRUDEAU INTL","702S006","2009-08-25 23:00","2009","08","25","23:00","20.8","","16.8","","78","","","","","M","20","","","","100.77","","26","","","","NA"
"-73.74","45.47","MONTREAL/PIERRE ELLIOTT TRUDEAU INTL","702S006","2009-08-26 00:00","2009","08","26","00:00","20.7","","17.1","","80","","","","","M","19","","","","100.70","","26","","","","NA"
"-73.74","45.47","MONTREAL/PIERRE ELLIOTT TRUDEAU INTL","702S006","2009-08-26 01:00","2009","08","26","01:00","20.9","","17.0","","78","","","","","M","22","","","","100.66","","26","","","","NA"
"-73.74","45.47","MONTREAL/PIERRE ELLIOTT TRUDEAU INTL","702S006","2009-08-26 02:00","2009","08","26","02:00","21.0","","17.2","","79","","","","","M","20","","","","100.61","","26","","","","NA"
"-73.74","45.47","MONTREAL/PIERRE ELLIOTT TRUDEAU INTL","702S006","2009-08-26 03:00","2009","08","26","03:00","21.4","","17.6","","79","","","","","M","24","","","","100.54","","27","","","","NA"
"-73.74","45.47","MONTREAL/PIERRE ELLIOTT TRUDEAU INTL","702S006","2009-08-26 04:00","2009","08","26","04:00","21.7","","18.1","","80","","","","","M","22","","","","100.53","","28","","","","NA"
"-73.74","45.47","MONTREAL/PIERRE ELLIOTT TRUDEAU INTL","702S006","2009-08-26 05:00","2009","08","26","05:00","21.9","","18.1","","79","","","","","M","26","","","","100.54","","28","","","","NA"
"-73.74","45.47","MONTREAL/PIERRE ELLIOTT TRUDEAU INTL","702S006","2009-08-26 06:00","2009","08","26","06:00","21.6","","18.1","","80","","","","","M","24","","","","100.56","","28","","","","NA"
"-73.74","45.47","MONTREAL/PIERRE ELLIOTT TRUDEAU INTL","702S006","2009-08-26 07:00","2009","08","26","07:00","21.4","","18.4","","83","","","","","M","20","","","","100.57","","28","","","","NA"
"-73.74","45.47","MONTREAL/PIERRE ELLIOTT TRUDEAU INTL","702S006","2009-08-26 08:00","2009","08","26","08:00","22.2","","18.4","","79","","","","","M","24","","","","100.60","","29","","","","NA"
"-73.74","45.47","MONTREAL/PIERRE ELLIOTT TRUDEAU INTL","702S006","2009-08-26 09:00","2009","08","26","09:00","22.8","","17.4","","72","","","","","M","26","","","","100.61","","28","","","","NA"
"-73.74","45.47","MONTREAL/PIERRE ELLIOTT TRUDEAU INTL","702S006","2009-08-26 10:00","2009","08","26","10:00","22.3","","13.8","","59","","","","","M","32","","","","100.69","","26","","","","NA"
"-73.74","45.47","MONTREAL/PIERRE ELLIOTT TRUDEAU INTL","702S006","2009-08-26 11:00","2009","08","26","11:00","22.2","","13.4","","57","","","","","M","28","","","","100.79","","25","","","","NA"
"-73.74","45.47","MONTREAL/PIERRE ELLIOTT TRUDEAU INTL","702S006","2009-08-26 12:00","2009","08","26","12:00","22.2","","12.2","","53","","","","","M","28","","","","100.81","","25","","","","NA"
"-73.74","45.47","MONTREAL/PIERRE ELLIOTT TRUDEAU INTL","702S006","2009-08-26 13:00","2009","08","26","13:00","21.2","","9.3","","47","","","","","M","30","","","","100.86","","","","","","NA"
"-73.74","45.47","MONTREAL/PIERRE ELLIOTT TRUDEAU INTL","702S006","2009-08-26 14:00","2009","08","26","14:00","21.4","","10.7","","50","","","","","M","24","","","","100.88","","","","","","NA"
"-73.74","45.47","MONTREAL/PIERRE ELLIOTT TRUDEAU INTL","702S006","2009-08-26 15:00","2009","08","26","15:00","21.2","","8.6","","44","","","","","M","24","","","","100.94","","","","","","NA"
"-73.74","45.47","MONTREAL/PIERRE ELLIOTT TRUDEAU INTL","702S006","2009-08-26 16:00","2009","08","26","16:00","20.7","","7.8","","43","","","","","M","22","","","","100.99","","","","","","NA"
"-73.74","45.47","MONTREAL/PIERRE ELLIOTT TRUDEAU INTL","702S006","2009-08-26 17:00","2009","08","26","17:00","20.4","","7.4","","43","","","","","M","19","","","","101.04","","","","","","NA"
"-73.74","45.47","MONTREAL/PIERRE ELLIOTT TRUDEAU INTL","702S006","2009-08-26 18:00","2009","08","26","18:00","19.2","","5.3","","40","","","","","M","20","","","","101.10","","","","","","NA"
"-73.74","45.47","MONTREAL/PIERRE ELLIOTT TRUDEAU INTL","702S006","2009-08-26 19:00","2009","08","26","19:00","17.5","","6.3","","48","","","","","M","19","","","","101.18","","","","","","NA"
"-73.74","45.47","MONTREAL/PIERRE ELLIOTT TRUDEAU INTL","702S006","2009-08-26 20:00","2009","08","26","20:00","16.1","","6.5","","53","","","","","M","19","","","","101.28","","","","","","NA"
"-73.74","45.47","MONTREAL/PIERRE ELLIOTT TRUDEAU INTL","702S006","2009-08-26 21:00","2009","08","26","21:00","15.3","","6.1","","54","","","","","M","19","","","","101.33","","","","","","NA"
"-73.74","45.47","MONTREAL/PIERRE ELLIOTT TRUDEAU INTL","702S006","2009-08-26 22:00","2009","08","26","22:00","13.7","","6.4","","61","","","","","M","11","","","","101.39","","","","","","NA"
"-73.74","45.47","MONTREAL/PIERRE ELLIOTT TRUDEAU INTL","702S006","2009-08-26 23:00","2009","08","26","23:00","11.9","","6.8","","71","","","","","M","11","","","","101.41","","","","","","NA"
"-73.74","45.47","MONTREAL/PIERRE ELLIOTT TRUDEAU INTL","702S006","2009-08-27 00:00","2009","08","27","00:00","11.2","","6.4","","72","","","","","M","13","","","","101.45","","","","","","NA"
"-73.74","45.47","MONTREAL/PIERRE ELLIOTT TRUDEAU INTL","702S006","2009-08-27 01:00","2009","08","27","01:00","10.3","","6.2","","76","","","","","M","13","","","","101.46","","","","","","NA"
"-73.74","45.47","MONTREAL/PIERRE ELLIOTT TRUDEAU INTL","702S006","2009-08-27 02:00","2009","08","27","02:00","10.9","","6.7","","75","","","","","M","6","","","","101.45","","","","","","NA"
"-73.74","45.47","MONTREAL/PIERRE ELLIOTT TRUDEAU INTL","702S006","2009-08-27 03:00","2009","08","27","03:00","10.4","","7.4","","82","","","","","M","4","","","","101.50","","","","","","NA"
"-73.74","45.47","MONTREAL/PIERRE ELLIOTT TRUDEAU INTL","702S006","2009-08-27 04:00","2009","08","27","04:00","8.8","","6.6","","86","","","","","M","4","","","","101.54","","","","","","NA"
"-73.74","45.47","MONTREAL/PIERRE ELLIOTT TRUDEAU INTL","702S006","2009-08-27 05:00","2009","08","27","05:00","8.9","","6.8","","87","","","","","M","7","","","","101.56","","","","","","NA"
"-73.74","45.47","MONTREAL/PIERRE ELLIOTT TRUDEAU INTL","702S006","2009-08-27 06:00","2009","08","27","06:00","10.1","","6.6","","79","","","","","M","6","","","","101.61","","","","","","NA"
"-73.74","45.47","MONTREAL/PIERRE ELLIOTT TRUDEAU INTL","702S006","2009-08-27 07:00","2009","08","27","07:00","11.7","","7.1","","73","","","","","M","11","","","","101.68","","","","","","NA"
"-73.74","45.47","MONTREAL/PIERRE ELLIOTT TRUDEAU INTL","702S006","2009-08-27 08:00","2009","08","27","08:00","13.3","","6.7","","64","","","","","M","13","","","","101.70","","","","","","NA"
"-73.74","45.47","MONTREAL/PIERRE ELLIOTT TRUDEAU INTL","702S006","2009-08-27 09:00","2009","08","27","09:00","14.1","","5.3","","55","","","","","M","9","","","","101.71","","","","","","NA"
"-73.74","45.47","MONTREAL/PIERRE ELLIOTT TRUDEAU INTL","702S006","2009-08-27 10:00","2009","08","27","10:00","14.8","","6.4","","57","","","","","M","9","","","","101.71","","","","","","NA"
"-73.74","45.47","MONTREAL/PIERRE ELLIOTT TRUDEAU INTL","702S006","2009-08-27 11:00","2009","08","27","11:00","15.9","","6.7","","54","","","","","M","11","","","","101.73","","","","","","NA"
"-73.74","45.47","MONTREAL/PIERRE ELLIOTT TRUDEAU INTL","702S006","2009-08-27 12:00","2009","08","27","12:00","16.6","","4.1","","43","","","","","M","9","","","","101.68","","","","","","NA"
"-73.74","45.47","MONTREAL/PIERRE ELLIOTT TRUDEAU INTL","702S006","2009-08-27 13:00","2009","08","27","13:00","16.9","","5.4","","47","","","","","M","13","","","","101.66","","","","","","NA"
"-73.74","45.47","MONTREAL/PIERRE ELLIOTT TRUDEAU INTL","702S006","2009-08-27 14:00","2009","08","27","14:00","18.3","","6.5","","46","","","","","M","9","","","","101.64","","","","","","NA"
"-73.74","45.47","MONTREAL/PIERRE ELLIOTT TRUDEAU INTL","702S006","2009-08-27 15:00","2009","08","27","15:00","19.0","","5.1","","40","","","","","M","11","","","","101.61","","","","","","NA"
"-73.74","45.47","MONTREAL/PIERRE ELLIOTT TRUDEAU INTL","702S006","2009-08-27 16:00","2009","08","27","16:00","19.1","","4.6","","38","","","","","M","20","","","","101.61","","","","","","NA"
"-73.74","45.47","MONTREAL/PIERRE ELLIOTT TRUDEAU INTL","702S006","2009-08-27 17:00","2009","08","27","17:00","17.9","","5.0","","43","","","","","M","17","","","","101.62","","","","","","NA"
"-73.74","45.47","MONTREAL/PIERRE ELLIOTT TRUDEAU INTL","702S006","2009-08-27 18:00","2009","08","27","18:00","17.1","","5.3","","46","","","","","M","17","","","","101.63","","","","","","NA"
"-73.74","45.47","MONTREAL/PIERRE ELLIOTT TRUDEAU INTL","702S006","2009-08-27 19:00","2009","08","27","19:00","15.2","","4.7","","49","","","","","M","13","","","","101.65","","","","","","NA"
"-73.74","45.47","MONTREAL/PIERRE ELLIOTT TRUDEAU INTL","702S006","2009-08-27 20:00","2009","08","27","20:00","14.6","","6.6","","59","","","","","M","13","","","","101.71","","","","","","NA"
"-73.74","45.47","MONTREAL/PIERRE ELLIOTT TRUDEAU INTL","702S006","2009-08-27 21:00","2009","08","27","21:00","12.7","","6.0","","64","","","","","M","11","","","","101.76","","","","","","NA"
"-73.74","45.47","MONTREAL/PIERRE ELLIOTT TRUDEAU INTL","702S006","2009-08-27 22:00","2009","08","27","22:00","12.1","","6.2","","67","","","","","M","9","","","","101.78","","","","","","NA"
"-73.74","45.47","MONTREAL/PIERRE ELLIOTT TRUDEAU INTL","702S006","2009-08-27 23:00","2009","08","27","23:00","11.9","","6.9","","71","","","","","M","7","","","","101.79","","","","","","NA"
"-73.74","45.47","MONTREAL/PIERRE ELLIOTT TRUDEAU INTL","702S006","2009-08-28 00:00","2009","08","28","00:00","11.1","","6.6","","74","","","","","M","7","","","","101.80","","","","","","NA"
"-73.74","45.47","MONTREAL/PIERRE ELLIOTT TRUDEAU INTL","702S006","2009-08-28 01:00","2009","08","28","01:00","11.9","","6.4","","69","","","","","M","9","","","","101.81","","","","","","NA"
"-73.74","45.47","MONTREAL/PIERRE ELLIOTT TRUDEAU INTL","702S006","2009-08-28 02:00","2009","08","28","02:00","11.4","","5.9","","69","","","","","M","9","","","","101.82","","","","","","NA"
"-73.74","45.47","MONTREAL/PIERRE ELLIOTT TRUDEAU INTL","702S006","2009-08-28 03:00","2009","08","28","03:00","11.3","","4.5","","63","","","","","M","7","","","","101.83","","","","","","NA"
"-73.74","45.47","MONTREAL/PIERRE ELLIOTT TRUDEAU INTL","702S006","2009-08-28 04:00","2009","08","28","04:00","10.3","","5.5","","72","","","","","M","7","","","","101.87","","","","","","NA"
"-73.74","45.47","MONTREAL/PIERRE ELLIOTT TRUDEAU INTL","702S006","2009-08-28 05:00","2009","08","28","05:00","10.6","","6.0","","73","","","","","M","6","","","","101.92","","","","","","NA"
"-73.74","45.47","MONTREAL/PIERRE ELLIOTT TRUDEAU INTL","702S006","2009-08-28 06:00","2009","08","28","06:00","10.7","","5.9","","72","","","","","M","9","","","","101.99","","","","","","NA"
"-73.74","45.47","MONTREAL/PIERRE ELLIOTT TRUDEAU INTL","702S006","2009-08-28 07:00","2009","08","28","07:00","12.2","","5.1","","62","","","","","M","13","","","","102.01","","","","","","NA"
"-73.74","45.47","MONTREAL/PIERRE ELLIOTT TRUDEAU INTL","702S006","2009-08-28 08:00","2009","08","28","08:00","13.7","","6.8","","63","","","","","M","11","","","","102.03","","","","","","NA"
"-73.74","45.47","MONTREAL/PIERRE ELLIOTT TRUDEAU INTL","702S006","2009-08-28 09:00","2009","08","28","09:00","15.1","","7.4","","60","","","","","M","11","","","","102.01","","","","","","NA"
"-73.74","45.47","MONTREAL/PIERRE ELLIOTT TRUDEAU INTL","702S006","2009-08-28 10:00","2009","08","28","10:00","15.9","","5.8","","51","","","","","M","9","","","","101.99","","","","","","NA"
"-73.74","45.47","MONTREAL/PIERRE ELLIOTT TRUDEAU INTL","702S006","2009-08-28 11:00","2009","08","28","11:00","16.5","","4.4","","45","","","","","M","11","","","","101.96","","","","","","NA"
"-73.74","45.47","MONTREAL/PIERRE ELLIOTT TRUDEAU INTL","702S006","2009-08-28 12:00","2009","08","28","12:00","17.7","","4.5","","42","","","","","M","7","","","","101.91","","","","","","NA"
"-73.74","45.47","MONTREAL/PIERRE ELLIOTT TRUDEAU INTL","702S006","2009-08-28 13:00","2009","08","28","13:00","18.4","","4.2","","39","","","","","M","7","","","","101.89","","","","","","NA"
"-73.74","45.47","MONTREAL/PIERRE ELLIOTT TRUDEAU INTL","702S006","2009-08-28 14:00","2009","08","28","14:00","18.9","","5.9","","43","","","","","M","6","","","","101.84","","","","","","NA"
"-73.74","45.47","MONTREAL/PIERRE ELLIOTT TRUDEAU INTL","702S006","2009-08-28 15:00","2009","08","28","15:00","18.9","","6.0","","43","","","","","M","9","","","","101.82","","","","","","NA"
"-73.74","45.47","MONTREAL/PIERRE ELLIOTT TRUDEAU INTL","702S006","2009-08-28 16:00","2009","08","28","16:00","19.0","","6.6","","44","","","","","M","9","","","","101.77","","","","","","NA"
"-73.74","45.47","MONTREAL/PIERRE ELLIOTT TRUDEAU INTL","702S006","2009-08-28 17:00","2009","08","28","17:00","18.3","","6.0","","44","","","","","M","11","","","","101.74","","","","","","NA"
"-73.74","45.47","MONTREAL/PIERRE ELLIOTT TRUDEAU INTL","702S006","2009-08-28 18:00","2009","08","28","18:00","17.7","","5.8","","46","","","","","M","11","","","","101.69","","","","","","NA"
"-73.74","45.47","MONTREAL/PIERRE ELLIOTT TRUDEAU INTL","702S006","2009-08-28 19:00","2009","08","28","19:00","17.2","","4.5","","43","","","","","M","15","","","","101.64","","","","","","NA"
"-73.74","45.47","MONTREAL/PIERRE ELLIOTT TRUDEAU INTL","702S006","2009-08-28 20:00","2009","08","28","20:00","16.8","","3.3","","40","","","","","M","13","","","","101.64","","","","","","NA"
"-73.74","45.47","MONTREAL/PIERRE ELLIOTT TRUDEAU INTL","702S006","2009-08-28 21:00","2009","08","28","21:00","16.6","","4.7","","45","","","","","M","13","","","","101.60","","","","","","NA"
"-73.74","45.47","MONTREAL/PIERRE ELLIOTT TRUDEAU INTL","702S006","2009-08-28 22:00","2009","08","28","22:00","16.5","","5.3","","47","","","","","M","13","","","","101.57","","","","","","NA"
"-73.74","45.47","MONTREAL/PIERRE ELLIOTT TRUDEAU INTL","702S006","2009-08-28 23:00","2009","08","28","23:00","16.1","","5.0","","48","","","","","M","19","","","","101.47","","","","","","NA"
"-73.74","45.47","MONTREAL/PIERRE ELLIOTT TRUDEAU INTL","702S006","2009-08-29 00:00","2009","08","29","00:00","15.7","","5.3","","50","","","","","M","19","","","","101.43","","","","","","NA"
"-73.74","45.47","MONTREAL/PIERRE ELLIOTT TRUDEAU INTL","702S006","2009-08-29 01:00","2009","08","29","01:00","15.4","","5.5","","52","","","","","M","19","","","","101.34","","","","","","NA"
"-73.74","45.47","MONTREAL/PIERRE ELLIOTT TRUDEAU INTL","702S006","2009-08-29 02:00","2009","08","29","02:00","15.1","","6.0","","54","","","","","M","15","","","","101.30","","","","","","NA"
"-73.74","45.47","MONTREAL/PIERRE ELLIOTT TRUDEAU INTL","702S006","2009-08-29 03:00","2009","08","29","03:00","14.4","","7.9","","65","","","","","M","13","","","","101.21","","","","","","NA"
"-73.74","45.47","MONTREAL/PIERRE ELLIOTT TRUDEAU INTL","702S006","2009-08-29 04:00","2009","08","29","04:00","13.2","","10.0","","81","","","","","M","13","","","","101.21","","","","","","NA"
"-73.74","45.47","MONTREAL/PIERRE ELLIOTT TRUDEAU INTL","702S006","2009-08-29 05:00","2009","08","29","05:00","12.8","","10.5","","86","","","","","M","19","","","","101.16","","","","","","NA"
"-73.74","45.47","MONTREAL/PIERRE ELLIOTT TRUDEAU INTL","702S006","2009-08-29 06:00","2009","08","29","06:00","13.5","","11.6","","88","","","","","M","15","","","","101.09","","","","","","NA"
"-73.74","45.47","MONTREAL/PIERRE ELLIOTT TRUDEAU INTL","702S006","2009-08-29 07:00","2009","08","29","07:00","14.3","","12.3","","88","","","","","M","13","","","","101.04","","","","","","NA"
"-73.74","45.47","MONTREAL/PIERRE ELLIOTT TRUDEAU INTL","702S006","2009-08-29 08:00","2009","08","29","08:00","14.5","","12.2","","86","","","","","M","15","","","","100.98","","","","","","NA"
"-73.74","45.47","MONTREAL/PIERRE ELLIOTT TRUDEAU INTL","702S006","2009-08-29 09:00","2009","08","29","09:00","14.2","","12.7","","91","","","","","M","17","","","","100.92","","","","","","NA"
"-73.74","45.47","MONTREAL/PIERRE ELLIOTT TRUDEAU INTL","702S006","2009-08-29 10:00","2009","08","29","10:00","14.9","","13.2","","90","","","","","M","19","","","","100.80","","","","","","NA"
"-73.74","45.47","MONTREAL/PIERRE ELLIOTT TRUDEAU INTL","702S006","2009-08-29 11:00","2009","08","29","11:00","15.8","","13.7","","87","","","","","M","17","","","","100.71","","","","","","NA"
"-73.74","45.47","MONTREAL/PIERRE ELLIOTT TRUDEAU INTL","702S006","2009-08-29 12:00","2009","08","29","12:00","16.8","","13.6","","81","","","","","M","17","","","","100.61","","","","","","NA"
"-73.74","45.47","MONTREAL/PIERRE ELLIOTT TRUDEAU INTL","702S006","2009-08-29 13:00","2009","08","29","13:00","16.3","","13.4","","83","","","","","M","15","","","","100.51","","","","","","NA"
"-73.74","45.47","MONTREAL/PIERRE ELLIOTT TRUDEAU INTL","702S006","2009-08-29 14:00","2009","08","29","14:00","16.7","","13.5","","81","","","","","M","15","","","","100.43","","","","","","NA"
"-73.74","45.47","MONTREAL/PIERRE ELLIOTT TRUDEAU INTL","702S006","2009-08-29 15:00","2009","08","29","15:00","16.2","","14.0","","87","","","","","M","13","","","","100.37","","","","","","NA"
"-73.74","45.47","MONTREAL/PIERRE ELLIOTT TRUDEAU INTL","702S006","2009-08-29 16:00","2009","08","29","16:00","15.1","","13.7","","91","","","","","M","13","","","","100.33","","","","","","NA"
"-73.74","45.47","MONTREAL/PIERRE ELLIOTT TRUDEAU INTL","702S006","2009-08-29 17:00","2009","08","29","17:00","14.7","","13.7","","94","","","","","M","11","","","","100.27","","","","","","NA"
"-73.74","45.47","MONTREAL/PIERRE ELLIOTT TRUDEAU INTL","702S006","2009-08-29 18:00","2009","08","29","18:00","14.6","","13.8","","95","","","","","M","11","","","","100.25","","","","","","NA"
"-73.74","45.47","MONTREAL/PIERRE ELLIOTT TRUDEAU INTL","702S006","2009-08-29 19:00","2009","08","29","19:00","14.6","","13.8","","95","","","","","M","13","","","","100.19","","","","","","NA"
"-73.74","45.47","MONTREAL/PIERRE ELLIOTT TRUDEAU INTL","702S006","2009-08-29 20:00","2009","08","29","20:00","14.6","","13.8","","95","","","","","M","11","","","","100.19","","","","","","NA"
"-73.74","45.47","MONTREAL/PIERRE ELLIOTT TRUDEAU INTL","702S006","2009-08-29 21:00","2009","08","29","21:00","14.6","","13.7","","94","","","","","M","13","","","","100.17","","","","","","NA"
"-73.74","45.47","MONTREAL/PIERRE ELLIOTT TRUDEAU INTL","702S006","2009-08-29 22:00","2009","08","29","22:00","14.7","","13.8","","94","","","","","M","7","","","","100.14","","","","","","NA"
"-73.74","45.47","MONTREAL/PIERRE ELLIOTT TRUDEAU INTL","702S006","2009-08-29 23:00","2009","08","29","23:00","14.9","","14.0","","94","","","","","M","6","","","","100.12","","","","","","NA"
"-73.74","45.47","MONTREAL/PIERRE ELLIOTT TRUDEAU INTL","702S006","2009-08-30 00:00","2009","08","30","00:00","14.4","","13.7","","96","","","","","M","9","","","","100.15","","","","","","NA"
"-73.74","45.47","MONTREAL/PIERRE ELLIOTT TRUDEAU INTL","702S006","2009-08-30 01:00","2009","08","30","01:00","14.2","","13.6","","96","","","","","M","7","","","","100.18","","","","","","NA"
"-73.74","45.47","MONTREAL/PIERRE ELLIOTT TRUDEAU INTL","702S006","2009-08-30 02:00","2009","08","30","02:00","13.9","","13.3","","96","","","","","M","9","","","","100.21","","","","","","NA"
"-73.74","45.47","MONTREAL/PIERRE ELLIOTT TRUDEAU INTL","702S006","2009-08-30 03:00","2009","08","30","03:00","13.2","","12.7","","97","","","","","M","6","","","","100.25","","","","","","NA"
"-73.74","45.47","MONTREAL/PIERRE ELLIOTT TRUDEAU INTL","702S006","2009-08-30 04:00","2009","08","30","04:00","13.4","","13.0","","97","","","","","M","4","","","","100.28","","","","","","NA"
"-73.74","45.47","MONTREAL/PIERRE ELLIOTT TRUDEAU INTL","702S006","2009-08-30 05:00","2009","08","30","05:00","13.6","","13.1","","97","","","","","M","4","","","","100.31","","","","","","NA"
"-73.74","45.47","MONTREAL/PIERRE ELLIOTT TRUDEAU INTL","702S006","2009-08-30 06:00","2009","08","30","06:00","13.4","","12.9","","97","","","","","M","4","","","","100.34","","","","","","NA"
"-73.74","45.47","MONTREAL/PIERRE ELLIOTT TRUDEAU INTL","702S006","2009-08-30 07:00","2009","08","30","07:00","16.2","","15.6","","96","","","","","M","9","","","","100.37","","","","","","NA"
"-73.74","45.47","MONTREAL/PIERRE ELLIOTT TRUDEAU INTL","702S006","2009-08-30 08:00","2009","08","30","08:00","18.0","","16.4","","90","","","","","M","9","","","","100.38","","","","","","NA"
"-73.74","45.47","MONTREAL/PIERRE ELLIOTT TRUDEAU INTL","702S006","2009-08-30 09:00","2009","08","30","09:00","19.9","","15.9","","78","","","","","M","24","","","","100.40","","","","","","NA"
"-73.74","45.47","MONTREAL/PIERRE ELLIOTT TRUDEAU INTL","702S006","2009-08-30 10:00","2009","08","30","10:00","21.1","","14.7","","67","","","","","M","22","","","","100.41","","25","","","","NA"
"-73.74","45.47","MONTREAL/PIERRE ELLIOTT TRUDEAU INTL","702S006","2009-08-30 11:00","2009","08","30","11:00","21.0","","13.4","","62","","","","","M","24","","","","100.43","","","","","","NA"
"-73.74","45.47","MONTREAL/PIERRE ELLIOTT TRUDEAU INTL","702S006","2009-08-30 12:00","2009","08","30","12:00","21.6","","14.2","","63","","","","","M","19","","","","100.39","","25","","","","NA"
"-73.74","45.47","MONTREAL/PIERRE ELLIOTT TRUDEAU INTL","702S006","2009-08-30 13:00","2009","08","30","13:00","21.7","","13.4","","59","","","","","M","20","","","","100.42","","25","","","","NA"
"-73.74","45.47","MONTREAL/PIERRE ELLIOTT TRUDEAU INTL","702S006","2009-08-30 14:00","2009","08","30","14:00","18.7","","17.1","","90","","","","","M","17","","","","100.44","","","","","","NA"
"-73.74","45.47","MONTREAL/PIERRE ELLIOTT TRUDEAU INTL","702S006","2009-08-30 15:00","2009","08","30","15:00","19.6","","15.6","","78","","","","","M","15","","","","100.42","","","","","","NA"
"-73.74","45.47","MONTREAL/PIERRE ELLIOTT TRUDEAU INTL","702S006","2009-08-30 16:00","2009","08","30","16:00","19.7","","15.3","","76","","","","","M","19","","","","100.46","","","","","","NA"
"-73.74","45.47","MONTREAL/PIERRE ELLIOTT TRUDEAU INTL","702S006","2009-08-30 17:00","2009","08","30","17:00","17.1","","15.0","","87","","","","","M","17","","","","100.54","","","","","","NA"
"-73.74","45.47","MONTREAL/PIERRE ELLIOTT TRUDEAU INTL","702S006","2009-08-30 18:00","2009","08","30","18:00","16.1","","14.6","","91","","","","","M","13","","","","100.60","","","","","","NA"
"-73.74","45.47","MONTREAL/PIERRE ELLIOTT TRUDEAU INTL","702S006","2009-08-30 19:00","2009","08","30","19:00","16.0","","14.1","","88","","","","","M","15","","","","100.65","","","","","","NA"
"-73.74","45.47","MONTREAL/PIERRE ELLIOTT TRUDEAU INTL","702S006","2009-08-30 20:00","2009","08","30","20:00","15.6","","13.8","","89","","","","","M","19","","","","100.71","","","","","","NA"
"-73.74","45.47","MONTREAL/PIERRE ELLIOTT TRUDEAU INTL","702S006","2009-08-30 21:00","2009","08","30","21:00","15.5","","13.9","","90","","","","","M","19","","","","100.79","","","","","","NA"
"-73.74","45.47","MONTREAL/PIERRE ELLIOTT TRUDEAU INTL","702S006","2009-08-30 22:00","2009","08","30","22:00","14.4","","12.1","","86","","","","","M","17","","","","100.91","","","","","","NA"
"-73.74","45.47","MONTREAL/PIERRE ELLIOTT TRUDEAU INTL","702S006","2009-08-30 23:00","2009","08","30","23:00","13.7","","11.3","","85","","","","","M","15","","","","101.01","","","","","","NA"
"-73.74","45.47","MONTREAL/PIERRE ELLIOTT TRUDEAU INTL","702S006","2009-08-31 00:00","2009","08","31","00:00","12.6","","10.3","","86","","","","","M","15","","","","101.11","","","","","","NA"
"-73.74","45.47","MONTREAL/PIERRE ELLIOTT TRUDEAU INTL","702S006","2009-08-31 01:00","2009","08","31","01:00","12.5","","10.3","","86","","","","","M","15","","","","101.16","","","","","","NA"
"-73.74","45.47","MONTREAL/PIERRE ELLIOTT TRUDEAU INTL","702S006","2009-08-31 02:00","2009","08","31","02:00","11.5","","9.1","","85","","","","","M","17","","","","101.24","","","","","","NA"
"-73.74","45.47","MONTREAL/PIERRE ELLIOTT TRUDEAU INTL","702S006","2009-08-31 03:00","2009","08","31","03:00","10.8","","8.9","","88","","","","","M","15","","","","101.29","","","","","","NA"
"-73.74","45.47","MONTREAL/PIERRE ELLIOTT TRUDEAU INTL","702S006","2009-08-31 04:00","2009","08","31","04:00","9.9","","8.4","","90","","","","","M","9","","","","101.35","","","","","","NA"
"-73.74","45.47","MONTREAL/PIERRE ELLIOTT TRUDEAU INTL","702S006","2009-08-31 05:00","2009","08","31","05:00","9.4","","8.0","","91","","","","","M","6","","","","101.41","","","","","","NA"
"-73.74","45.47","MONTREAL/PIERRE ELLIOTT TRUDEAU INTL","702S006","2009-08-31 06:00","2009","08","31","06:00","10.2","","9.0","","92","","","","","M","6","","","","101.47","","","","","","NA"
"-73.74","45.47","MONTREAL/PIERRE ELLIOTT TRUDEAU INTL","702S006","2009-08-31 07:00","2009","08","31","07:00","12.6","","9.8","","83","","","","","M","7","","","","101.57","","","","","","NA"
"-73.74","45.47","MONTREAL/PIERRE ELLIOTT TRUDEAU INTL","702S006","2009-08-31 08:00","2009","08","31","08:00","13.5","","9.9","","79","","","","","M","11","","","","101.61","","","","","","NA"
"-73.74","45.47","MONTREAL/PIERRE ELLIOTT TRUDEAU INTL","702S006","2009-08-31 09:00","2009","08","31","09:00","14.6","","10.1","","74","","","","","M","9","","","","101.65","","","","","","NA"
"-73.74","45.47","MONTREAL/PIERRE ELLIOTT TRUDEAU INTL","702S006","2009-08-31 10:00","2009","08","31","10:00","16.1","","10.7","","70","","","","","M","13","","","","101.67","","","","","","NA"
"-73.74","45.47","MONTREAL/PIERRE ELLIOTT TRUDEAU INTL","702S006","2009-08-31 11:00","2009","08","31","11:00","17.4","","10.8","","65","","","","","M","15","","","","101.68","","","","","","NA"
"-73.74","45.47","MONTREAL/PIERRE ELLIOTT TRUDEAU INTL","702S006","2009-08-31 12:00","2009","08","31","12:00","18.1","","9.8","","58","","","","","M","17","","","","101.65","","","","","","NA"
"-73.74","45.47","MONTREAL/PIERRE ELLIOTT TRUDEAU INTL","702S006","2009-08-31 13:00","2009","08","31","13:00","19.2","","10.6","","57","","","","","M","15","","","","101.64","","","","","","NA"
"-73.74","45.47","MONTREAL/PIERRE ELLIOTT TRUDEAU INTL","702S006","2009-08-31 14:00","2009","08","31","14:00","19.3","","9.2","","52","","","","","M","17","","","","101.65","","","","","","NA"
"-73.74","45.47","MONTREAL/PIERRE ELLIOTT TRUDEAU INTL","702S006","2009-08-31 15:00","2009","08","31","15:00","19.4","","8.6","","50","","","","","M","17","","","","101.64","","","","","","NA"
"-73.74","45.47","MONTREAL/PIERRE ELLIOTT TRUDEAU INTL","702S006","2009-08-31 16:00","2009","08","31","16:00","19.5","","7.8","","47","","","","","M","19","","","","101.64","","","","","","NA"
"-73.74","45.47","MONTREAL/PIERRE ELLIOTT TRUDEAU INTL","702S006","2009-08-31 17:00","2009","08","31","17:00","18.7","","7.2","","47","","","","","M","20","","","","101.65","","","","","","NA"
"-73.74","45.47","MONTREAL/PIERRE ELLIOTT TRUDEAU INTL","702S006","2009-08-31 18:00","2009","08","31","18:00","17.7","","6.2","","47","","","","","M","19","","","","101.70","","","","","","NA"
"-73.74","45.47","MONTREAL/PIERRE ELLIOTT TRUDEAU INTL","702S006","2009-08-31 19:00","2009","08","31","19:00","15.8","","7.4","","57","","","","","M","11","","","","101.73","","","","","","NA"
"-73.74","45.47","MONTREAL/PIERRE ELLIOTT TRUDEAU INTL","702S006","2009-08-31 20:00","2009","08","31","20:00","14.6","","8.2","","65","","","","","M","7","","","","101.80","","","","","","NA"
"-73.74","45.47","MONTREAL/PIERRE ELLIOTT TRUDEAU INTL","702S006","2009-08-31 21:00","2009","08","31","21:00","13.2","","8.1","","71","","","","","M","6","","","","101.84","","","","","","NA"
"-73.74","45.47","MONTREAL/PIERRE ELLIOTT TRUDEAU INTL","702S006","2009-08-31 22:00","2009","08","31","22:00","11.9","","8.8","","81","","","","","M","4","","","","101.86","","","","","","NA"
"-73.74","45.47","MONTREAL/PIERRE ELLIOTT TRUDEAU INTL","702S006","2009-08-31 23:00","2009","08","31","23:00","11.5","","8.7","","83","","","","","M","2","","","","101.87","","","","","","NA"
