"Longitude (x)","Latitude (y)","Station Name","Climate ID","Date/Time (LST)","Year","Month","Day","Time (LST)","Temp (°C)","Temp Flag","Dew Point Temp (°C)","Dew Point Temp Flag","Rel Hum (%)","Rel Hum Flag","Precip. Amount (mm)","Precip. Amount Flag","Wind Dir (10s deg)","Wind Dir Flag","Wind Spd (km/h)","Wind Spd Flag","Visibility (km)","Visibility Flag","Stn Press (kPa)","Stn Press Flag","Hmdx","Hmdx Flag","Wind Chill","Wind Chill Flag","Weather"
"-73.74","45.47","MONTREAL/PIERRE ELLIOTT TRUDEAU INTL","702S006","2010-01-01 00:00","2010","01","01","00:00","-3.8","","-5.0","","91","","","","4","","11","","","","101.09","","","","-8","","NA"
"-73.74","45.47","MONTREAL/PIERRE ELLIOTT TRUDEAU INTL","702S006","2010-01-01 01:00","2010","01","01","01:00","-4.5","","-5.4","","93","","","","2","","13","","","","101.03","","","","-10","","NA"
"-73.74","45.47","MONTREAL/PIERRE ELLIOTT TRUDEAU INTL","702S006","2010-01-01 02:00","2010","01","01","02:00","-4.5","","-5.2","","95","","","","3","","13","","","","101.03","","","","-10","","NA"
"-73.74","45.47","MONTREAL/PIERRE ELLIOTT TRUDEAU INTL","702S006","2010-01-01 03:00","2010","01","01","03:00","-4.5","","-5.2","","95","","","","3","","15","","","","101.00","","","","-10","","NA"
"-73.74","45.47","MONTREAL/PIERRE ELLIOTT TRUDEAU INTL","702S006","2010-01-01 04:00","2010","01","01","04:00","-4.8","","-5.6","","94","","","","2","","15","","","","100.97","","","","-10","","NA"
"-73.74","45.47","MONTREAL/PIERRE ELLIOTT TRUDEAU INTL","702S006","2010-01-01 05:00","2010","01","01","05:00","-4.8","","-5.6","","94","","","","3","","11","","","","100.93","","","","-9","","NA"
"-73.74","45.47","MONTREAL/PIERRE ELLIOTT TRUDEAU INTL","702S006","2010-01-01 06:00","2010","01","01","06:00","-5.0","","-5.8","","94","","","","2","","15","","","","100.93","","","","-11","","NA"
"-73.74","45.47","MONTREAL/PIERRE ELLIOTT TRUDEAU INTL","702S006","2010-01-01 07:00","2010","01","01","07:00","-5.0","","-5.8","","94","","","","2","","15","","","","100.91","","","","-11","","NA"
"-73.74","45.47","MONTREAL/PIERRE ELLIOTT TRUDEAU INTL","702S006","2010-01-01 08:00","2010","01","01","08:00","-5.1","","-6.0","","93","","","","2","","13","","","","100.92","","","","-10","","NA"
"-73.74","45.47","MONTREAL/PIERRE ELLIOTT TRUDEAU INTL","702S006","2010-01-01 09:00","2010","01","01","09:00","-4.8","","-5.8","","93","","","","3","","13","","","","100.90","","","","-10","","NA"
"-73.74","45.47","MONTREAL/PIERRE ELLIOTT TRUDEAU INTL","702S006","2010-01-01 10:00","2010","01","01","10:00","-4.3","","-5.4","","92","","","","4","","13","","","","100.88","","","","-9","","NA"
"-73.74","45.47","MONTREAL/PIERRE ELLIOTT TRUDEAU INTL","702S006","2010-01-01 11:00","2010","01","01","11:00","-3.9","","-5.2","","91","","","","2","","11","","","","100.80","","","","-8","","NA"
"-73.74","45.47","MONTREAL/PIERRE ELLIOTT TRUDEAU INTL","702S006","2010-01-01 12:00","2010","01","01","12:00","-3.4","","-5.0","","89","","","","4","","11","","","","100.74","","","","-8","","NA"
"-73.74","45.47","MONTREAL/PIERRE ELLIOTT TRUDEAU INTL","702S006","2010-01-01 13:00","2010","01","01","13:00","-3.3","","-4.8","","89","","","","2","","13","","","","100.68","","","","-8","","NA"
"-73.74","45.47","MONTREAL/PIERRE ELLIOTT TRUDEAU INTL","702S006","2010-01-01 14:00","2010","01","01","14:00","-2.9","","-4.5","","89","","","","3","","13","","","","100.65","","","","-8","","NA"
"-73.74","45.47","MONTREAL/PIERRE ELLIOTT TRUDEAU INTL","702S006","2010-01-01 15:00","2010","01","01","15:00","-3.0","","-4.3","","91","","","","4","","13","","","","100.65","","","","-8","","NA"
"-73.74","45.47","MONTREAL/PIERRE ELLIOTT TRUDEAU INTL","702S006","2010-01-01 16:00","2010","01","01","16:00","-3.1","","-4.1","","93","","","","3","","9","","","","100.63","","","","-7","","NA"
"-73.74","45.47","MONTREAL/PIERRE ELLIOTT TRUDEAU INTL","702S006","2010-01-01 17:00","2010","01","01","17:00","-3.2","","-4.1","","93","","","","4","","9","","","","100.63","","","","-7","","NA"
"-73.74","45.47","MONTREAL/PIERRE ELLIOTT TRUDEAU INTL","702S006","2010-01-01 18:00","2010","01","01","18:00","-3.3","","-4.1","","94","","","","5","","9","","","","100.59","","","","-7","","NA"
"-73.74","45.47","MONTREAL/PIERRE ELLIOTT TRUDEAU INTL","702S006","2010-01-01 19:00","2010","01","01","19:00","-3.2","","-4.2","","93","","","","4","","11","","","","100.56","","","","-7","","NA"
"-73.74","45.47","MONTREAL/PIERRE ELLIOTT TRUDEAU INTL","702S006","2010-01-01 20:00","2010","01","01","20:00","-3.6","","-4.3","","95","","","","2","","9","","","","100.52","","","","-7","","NA"
"-73.74","45.47","MONTREAL/PIERRE ELLIOTT TRUDEAU INTL","702S006","2010-01-01 21:00","2010","01","01","21:00","-3.7","","-4.4","","95","","","","2","","9","","","","100.46","","","","-7","","NA"
"-73.74","45.47","MONTREAL/PIERRE ELLIOTT TRUDEAU INTL","702S006","2010-01-01 22:00","2010","01","01","22:00","-3.9","","-4.7","","94","","","","2","","9","","","","100.41","","","","-8","","NA"
"-73.74","45.47","MONTREAL/PIERRE ELLIOTT TRUDEAU INTL","702S006","2010-01-01 23:00","2010","01","01","23:00","-3.9","","-4.7","","94","","","","2","","9","","","","100.38","","","","-8","","NA"
"-73.74","45.47","MONTREAL/PIERRE ELLIOTT TRUDEAU INTL","702S006","2010-01-02 00:00","2010","01","02","00:00","-3.9","","-4.7","","94","","","","1","","7","","","","100.34","","","","-7","","NA"
"-73.74","45.47","MONTREAL/PIERRE ELLIOTT TRUDEAU INTL","702S006","2010-01-02 01:00","2010","01","02","01:00","-4.1","","-5.0","","93","","","","36","","7","","","","100.27","","","","-7","","NA"
"-73.74","45.47","MONTREAL/PIERRE ELLIOTT TRUDEAU INTL","702S006","2010-01-02 02:00","2010","01","02","02:00","-4.1","","-5.0","","93","","","","35","","7","","","","100.29","","","","-7","","NA"
"-73.74","45.47","MONTREAL/PIERRE ELLIOTT TRUDEAU INTL","702S006","2010-01-02 03:00","2010","01","02","03:00","-4.0","","-4.8","","94","","","","35","","9","","","","100.29","","","","-8","","NA"
"-73.74","45.47","MONTREAL/PIERRE ELLIOTT TRUDEAU INTL","702S006","2010-01-02 04:00","2010","01","02","04:00","-4.2","","-5.0","","94","","","","34","","11","","","","100.27","","","","-9","","NA"
"-73.74","45.47","MONTREAL/PIERRE ELLIOTT TRUDEAU INTL","702S006","2010-01-02 05:00","2010","01","02","05:00","-4.2","","-5.1","","93","","","","36","","11","","","","100.26","","","","-9","","NA"
"-73.74","45.47","MONTREAL/PIERRE ELLIOTT TRUDEAU INTL","702S006","2010-01-02 06:00","2010","01","02","06:00","-4.5","","-5.4","","93","","","","36","","13","","","","100.27","","","","-10","","NA"
"-73.74","45.47","MONTREAL/PIERRE ELLIOTT TRUDEAU INTL","702S006","2010-01-02 07:00","2010","01","02","07:00","-4.8","","-5.6","","94","","","","34","","13","","","","100.28","","","","-10","","NA"
"-73.74","45.47","MONTREAL/PIERRE ELLIOTT TRUDEAU INTL","702S006","2010-01-02 08:00","2010","01","02","08:00","-5.0","","-5.9","","93","","","","33","","13","","","","100.29","","","","-10","","NA"
"-73.74","45.47","MONTREAL/PIERRE ELLIOTT TRUDEAU INTL","702S006","2010-01-02 09:00","2010","01","02","09:00","-4.9","","-5.7","","94","","","","34","","9","","","","100.33","","","","-9","","NA"
"-73.74","45.47","MONTREAL/PIERRE ELLIOTT TRUDEAU INTL","702S006","2010-01-02 10:00","2010","01","02","10:00","-4.9","","-6.3","","90","","","","35","","11","","","","100.34","","","","-9","","NA"
"-73.74","45.47","MONTREAL/PIERRE ELLIOTT TRUDEAU INTL","702S006","2010-01-02 11:00","2010","01","02","11:00","-4.7","","-6.3","","89","","","","35","","9","","","","100.29","","","","-9","","NA"
"-73.74","45.47","MONTREAL/PIERRE ELLIOTT TRUDEAU INTL","702S006","2010-01-02 12:00","2010","01","02","12:00","-7.5","","-8.8","","90","","","","26","","17","","","","100.28","","","","-14","","NA"
"-73.74","45.47","MONTREAL/PIERRE ELLIOTT TRUDEAU INTL","702S006","2010-01-02 13:00","2010","01","02","13:00","-8.3","","-9.6","","90","","","","25","","15","","","","100.28","","","","-15","","NA"
"-73.74","45.47","MONTREAL/PIERRE ELLIOTT TRUDEAU INTL","702S006","2010-01-02 14:00","2010","01","02","14:00","-9.2","","-10.8","","88","","","","23","","15","","","","100.31","","","","-16","","NA"
"-73.74","45.47","MONTREAL/PIERRE ELLIOTT TRUDEAU INTL","702S006","2010-01-02 15:00","2010","01","02","15:00","-9.9","","-11.4","","89","","","","24","","17","","","","100.30","","","","-17","","NA"
"-73.74","45.47","MONTREAL/PIERRE ELLIOTT TRUDEAU INTL","702S006","2010-01-02 16:00","2010","01","02","16:00","-10.5","","-12.2","","87","","","","25","","19","","","","100.30","","","","-18","","NA"
"-73.74","45.47","MONTREAL/PIERRE ELLIOTT TRUDEAU INTL","702S006","2010-01-02 17:00","2010","01","02","17:00","-10.7","","-12.5","","87","","","","25","","20","","","","100.27","","","","-19","","NA"
"-73.74","45.47","MONTREAL/PIERRE ELLIOTT TRUDEAU INTL","702S006","2010-01-02 18:00","2010","01","02","18:00","-10.9","","-12.6","","87","","","","26","","24","","","","100.22","","","","-20","","NA"
"-73.74","45.47","MONTREAL/PIERRE ELLIOTT TRUDEAU INTL","702S006","2010-01-02 19:00","2010","01","02","19:00","-11.1","","-12.8","","87","","","","26","","20","","","","100.21","","","","-19","","NA"
"-73.74","45.47","MONTREAL/PIERRE ELLIOTT TRUDEAU INTL","702S006","2010-01-02 20:00","2010","01","02","20:00","-10.0","","-11.8","","87","","","","27","","24","","","","100.07","","","","-19","","NA"
"-73.74","45.47","MONTREAL/PIERRE ELLIOTT TRUDEAU INTL","702S006","2010-01-02 21:00","2010","01","02","21:00","-9.8","","-11.8","","85","","","","27","","24","","","","99.97","","","","-18","","NA"
"-73.74","45.47","MONTREAL/PIERRE ELLIOTT TRUDEAU INTL","702S006","2010-01-02 22:00","2010","01","02","22:00","-10.3","","-11.7","","89","","","","27","","24","","","","99.91","","","","-19","","NA"
"-73.74","45.47","MONTREAL/PIERRE ELLIOTT TRUDEAU INTL","702S006","2010-01-02 23:00","2010","01","02","23:00","-10.7","","-11.9","","91","","","","27","","26","","","","99.85","","","","-20","","NA"
"-73.74","45.47","MONTREAL/PIERRE ELLIOTT TRUDEAU INTL","702S006","2010-01-03 00:00","2010","01","03","00:00","-10.9","","-12.0","","92","","","","27","","26","","","","99.64","","","","-20","","NA"
"-73.74","45.47","MONTREAL/PIERRE ELLIOTT TRUDEAU INTL","702S006","2010-01-03 01:00","2010","01","03","01:00","-11.1","","-12.3","","91","","","","27","","30","","","","99.49","","","","-21","","NA"
"-73.74","45.47","MONTREAL/PIERRE ELLIOTT TRUDEAU INTL","702S006","2010-01-03 02:00","2010","01","03","02:00","-11.4","","-12.6","","91","","","","27","","30","","","","99.43","","","","-21","","NA"
"-73.74","45.47","MONTREAL/PIERRE ELLIOTT TRUDEAU INTL","702S006","2010-01-03 03:00","2010","01","03","03:00","-11.5","","-12.7","","91","","","","27","","28","","","","99.40","","","","-21","","NA"
"-73.74","45.47","MONTREAL/PIERRE ELLIOTT TRUDEAU INTL","702S006","2010-01-03 04:00","2010","01","03","04:00","-11.7","","-12.9","","91","","","","27","","30","","","","99.32","","","","-22","","NA"
"-73.74","45.47","MONTREAL/PIERRE ELLIOTT TRUDEAU INTL","702S006","2010-01-03 05:00","2010","01","03","05:00","-11.6","","-12.8","","91","","","","27","","28","","","","99.31","","","","-21","","NA"
"-73.74","45.47","MONTREAL/PIERRE ELLIOTT TRUDEAU INTL","702S006","2010-01-03 06:00","2010","01","03","06:00","-11.3","","-12.5","","91","","","","26","","28","","","","99.29","","","","-21","","NA"
"-73.74","45.47","MONTREAL/PIERRE ELLIOTT TRUDEAU INTL","702S006","2010-01-03 07:00","2010","01","03","07:00","-11.0","","-12.2","","91","","","","26","","26","","","","99.29","","","","-20","","NA"
"-73.74","45.47","MONTREAL/PIERRE ELLIOTT TRUDEAU INTL","702S006","2010-01-03 08:00","2010","01","03","08:00","-10.7","","-11.9","","91","","","","26","","22","","","","99.33","","","","-19","","NA"
"-73.74","45.47","MONTREAL/PIERRE ELLIOTT TRUDEAU INTL","702S006","2010-01-03 09:00","2010","01","03","09:00","-9.9","","-11.1","","91","","","","26","","20","","","","99.35","","","","-18","","NA"
"-73.74","45.47","MONTREAL/PIERRE ELLIOTT TRUDEAU INTL","702S006","2010-01-03 10:00","2010","01","03","10:00","-9.2","","-10.3","","92","","","","25","","17","","","","99.39","","","","-16","","NA"
"-73.74","45.47","MONTREAL/PIERRE ELLIOTT TRUDEAU INTL","702S006","2010-01-03 11:00","2010","01","03","11:00","-8.7","","-9.9","","91","","","","23","","19","","","","99.39","","","","-16","","NA"
"-73.74","45.47","MONTREAL/PIERRE ELLIOTT TRUDEAU INTL","702S006","2010-01-03 12:00","2010","01","03","12:00","-8.4","","-9.5","","92","","","","24","","15","","","","99.41","","","","-15","","NA"
"-73.74","45.47","MONTREAL/PIERRE ELLIOTT TRUDEAU INTL","702S006","2010-01-03 13:00","2010","01","03","13:00","-7.6","","-8.6","","93","","","","23","","13","","","","99.41","","","","-13","","NA"
"-73.74","45.47","MONTREAL/PIERRE ELLIOTT TRUDEAU INTL","702S006","2010-01-03 14:00","2010","01","03","14:00","-6.7","","-7.7","","93","","","","24","","22","","","","99.47","","","","-14","","NA"
"-73.74","45.47","MONTREAL/PIERRE ELLIOTT TRUDEAU INTL","702S006","2010-01-03 15:00","2010","01","03","15:00","-6.4","","-7.3","","93","","","","24","","20","","","","99.56","","","","-13","","NA"
"-73.74","45.47","MONTREAL/PIERRE ELLIOTT TRUDEAU INTL","702S006","2010-01-03 16:00","2010","01","03","16:00","-6.3","","-7.1","","94","","","","24","","15","","","","99.63","","","","-12","","NA"
"-73.74","45.47","MONTREAL/PIERRE ELLIOTT TRUDEAU INTL","702S006","2010-01-03 17:00","2010","01","03","17:00","-5.9","","-6.6","","95","","","","24","","15","","","","99.70","","","","-12","","NA"
"-73.74","45.47","MONTREAL/PIERRE ELLIOTT TRUDEAU INTL","702S006","2010-01-03 18:00","2010","01","03","18:00","-5.3","","-6.0","","95","","","","24","","11","","","","99.76","","","","-10","","NA"
"-73.74","45.47","MONTREAL/PIERRE ELLIOTT TRUDEAU INTL","702S006","2010-01-03 19:00","2010","01","03","19:00","-5.4","","-6.3","","93","","","","23","","17","","","","99.81","","","","-11","","NA"
"-73.74","45.47","MONTREAL/PIERRE ELLIOTT TRUDEAU INTL","702S006","2010-01-03 20:00","2010","01","03","20:00","-5.1","","-6.4","","91","","","","24","","17","","","","99.83","","","","-11","","NA"
"-73.74","45.47","MONTREAL/PIERRE ELLIOTT TRUDEAU INTL","702S006","2010-01-03 21:00","2010","01","03","21:00","-4.9","","-6.7","","87","","","","23","","15","","","","99.83","","","","-10","","NA"
"-73.74","45.47","MONTREAL/PIERRE ELLIOTT TRUDEAU INTL","702S006","2010-01-03 22:00","2010","01","03","22:00","-4.7","","-6.5","","87","","","","25","","17","","","","99.86","","","","-11","","NA"
"-73.74","45.47","MONTREAL/PIERRE ELLIOTT TRUDEAU INTL","702S006","2010-01-03 23:00","2010","01","03","23:00","-5.0","","-6.8","","87","","","","24","","17","","","","99.88","","","","-11","","NA"
"-73.74","45.47","MONTREAL/PIERRE ELLIOTT TRUDEAU INTL","702S006","2010-01-04 00:00","2010","01","04","00:00","-5.3","","-7.0","","88","","","","24","","15","","","","99.90","","","","-11","","NA"
"-73.74","45.47","MONTREAL/PIERRE ELLIOTT TRUDEAU INTL","702S006","2010-01-04 01:00","2010","01","04","01:00","-5.4","","-7.3","","86","","","","26","","20","","","","99.88","","","","-12","","NA"
"-73.74","45.47","MONTREAL/PIERRE ELLIOTT TRUDEAU INTL","702S006","2010-01-04 02:00","2010","01","04","02:00","-5.9","","-7.9","","86","","","","27","","20","","","","99.93","","","","-13","","NA"
"-73.74","45.47","MONTREAL/PIERRE ELLIOTT TRUDEAU INTL","702S006","2010-01-04 03:00","2010","01","04","03:00","-6.4","","-8.5","","85","","","","28","","24","","","","99.94","","","","-14","","NA"
"-73.74","45.47","MONTREAL/PIERRE ELLIOTT TRUDEAU INTL","702S006","2010-01-04 04:00","2010","01","04","04:00","-7.5","","-9.7","","84","","","","27","","22","","","","99.95","","","","-15","","NA"
"-73.74","45.47","MONTREAL/PIERRE ELLIOTT TRUDEAU INTL","702S006","2010-01-04 05:00","2010","01","04","05:00","-7.7","","-10.1","","83","","","","27","","22","","","","99.98","","","","-15","","NA"
"-73.74","45.47","MONTREAL/PIERRE ELLIOTT TRUDEAU INTL","702S006","2010-01-04 06:00","2010","01","04","06:00","-7.9","","-10.6","","81","","","","27","","22","","","","100.02","","","","-16","","NA"
"-73.74","45.47","MONTREAL/PIERRE ELLIOTT TRUDEAU INTL","702S006","2010-01-04 07:00","2010","01","04","07:00","-8.5","","-11.1","","81","","","","27","","19","","","","100.09","","","","-16","","NA"
"-73.74","45.47","MONTREAL/PIERRE ELLIOTT TRUDEAU INTL","702S006","2010-01-04 08:00","2010","01","04","08:00","-8.4","","-11.0","","81","","","","26","","20","","","","100.14","","","","-16","","NA"
"-73.74","45.47","MONTREAL/PIERRE ELLIOTT TRUDEAU INTL","702S006","2010-01-04 09:00","2010","01","04","09:00","-7.9","","-10.7","","80","","","","26","","24","","","","100.17","","","","-16","","NA"
"-73.74","45.47","MONTREAL/PIERRE ELLIOTT TRUDEAU INTL","702S006","2010-01-04 10:00","2010","01","04","10:00","-7.7","","-10.4","","81","","","","26","","24","","","","100.16","","","","-16","","NA"
"-73.74","45.47","MONTREAL/PIERRE ELLIOTT TRUDEAU INTL","702S006","2010-01-04 11:00","2010","01","04","11:00","-7.2","","-10.0","","80","","","","26","","22","","","","100.16","","","","-15","","NA"
"-73.74","45.47","MONTREAL/PIERRE ELLIOTT TRUDEAU INTL","702S006","2010-01-04 12:00","2010","01","04","12:00","-7.3","","-10.5","","78","","","","26","","24","","","","100.11","","","","-15","","NA"
"-73.74","45.47","MONTREAL/PIERRE ELLIOTT TRUDEAU INTL","702S006","2010-01-04 13:00","2010","01","04","13:00","-7.0","","-10.2","","78","","","","26","","24","","","","100.10","","","","-15","","NA"
"-73.74","45.47","MONTREAL/PIERRE ELLIOTT TRUDEAU INTL","702S006","2010-01-04 14:00","2010","01","04","14:00","-6.7","","-10.0","","77","","","","25","","19","","","","100.11","","","","-14","","NA"
"-73.74","45.47","MONTREAL/PIERRE ELLIOTT TRUDEAU INTL","702S006","2010-01-04 15:00","2010","01","04","15:00","-6.5","","-9.7","","78","","","","25","","19","","","","100.15","","","","-13","","NA"
"-73.74","45.47","MONTREAL/PIERRE ELLIOTT TRUDEAU INTL","702S006","2010-01-04 16:00","2010","01","04","16:00","-6.9","","-9.1","","84","","","","25","","19","","","","100.20","","","","-14","","NA"
"-73.74","45.47","MONTREAL/PIERRE ELLIOTT TRUDEAU INTL","702S006","2010-01-04 17:00","2010","01","04","17:00","-7.5","","-9.6","","85","","","","25","","22","","","","100.20","","","","-15","","NA"
"-73.74","45.47","MONTREAL/PIERRE ELLIOTT TRUDEAU INTL","702S006","2010-01-04 18:00","2010","01","04","18:00","-8.1","","-9.9","","87","","","","26","","22","","","","100.28","","","","-16","","NA"
"-73.74","45.47","MONTREAL/PIERRE ELLIOTT TRUDEAU INTL","702S006","2010-01-04 19:00","2010","01","04","19:00","-8.3","","-10.0","","88","","","","25","","20","","","","100.29","","","","-16","","NA"
"-73.74","45.47","MONTREAL/PIERRE ELLIOTT TRUDEAU INTL","702S006","2010-01-04 20:00","2010","01","04","20:00","-8.2","","-10.0","","87","","","","25","","20","","","","100.28","","","","-16","","NA"
"-73.74","45.47","MONTREAL/PIERRE ELLIOTT TRUDEAU INTL","702S006","2010-01-04 21:00","2010","01","04","21:00","-7.9","","-9.7","","87","","","","25","","17","","","","100.28","","","","-15","","NA"
"-73.74","45.47","MONTREAL/PIERRE ELLIOTT TRUDEAU INTL","702S006","2010-01-04 22:00","2010","01","04","22:00","-7.7","","-9.3","","88","","","","25","","17","","","","100.27","","","","-14","","NA"
"-73.74","45.47","MONTREAL/PIERRE ELLIOTT TRUDEAU INTL","702S006","2010-01-04 23:00","2010","01","04","23:00","-7.8","","-9.0","","91","","","","25","","19","","","","100.26","","","","-15","","NA"
"-73.74","45.47","MONTREAL/PIERRE ELLIOTT TRUDEAU INTL","702S006","2010-01-05 00:00","2010","01","05","00:00","-7.9","","-9.1","","91","","","","25","","15","","","","100.21","","","","-14","","NA"
"-73.74","45.47","MONTREAL/PIERRE ELLIOTT TRUDEAU INTL","702S006","2010-01-05 01:00","2010","01","05","01:00","-7.7","","-9.2","","89","","","","25","","19","","","","100.20","","","","-15","","NA"
"-73.74","45.47","MONTREAL/PIERRE ELLIOTT TRUDEAU INTL","702S006","2010-01-05 02:00","2010","01","05","02:00","-7.9","","-9.4","","89","","","","25","","17","","","","100.20","","","","-15","","NA"
"-73.74","45.47","MONTREAL/PIERRE ELLIOTT TRUDEAU INTL","702S006","2010-01-05 03:00","2010","01","05","03:00","-7.8","","-9.4","","88","","","","25","","19","","","","100.21","","","","-15","","NA"
"-73.74","45.47","MONTREAL/PIERRE ELLIOTT TRUDEAU INTL","702S006","2010-01-05 04:00","2010","01","05","04:00","-8.1","","-9.8","","88","","","","25","","17","","","","100.17","","","","-15","","NA"
"-73.74","45.47","MONTREAL/PIERRE ELLIOTT TRUDEAU INTL","702S006","2010-01-05 05:00","2010","01","05","05:00","-8.3","","-9.6","","90","","","","25","","17","","","","100.16","","","","-15","","NA"
"-73.74","45.47","MONTREAL/PIERRE ELLIOTT TRUDEAU INTL","702S006","2010-01-05 06:00","2010","01","05","06:00","-8.3","","-9.6","","90","","","","25","","17","","","","100.18","","","","-15","","NA"
"-73.74","45.47","MONTREAL/PIERRE ELLIOTT TRUDEAU INTL","702S006","2010-01-05 07:00","2010","01","05","07:00","-8.3","","-9.6","","90","","","","25","","19","","","","100.18","","","","-16","","NA"
"-73.74","45.47","MONTREAL/PIERRE ELLIOTT TRUDEAU INTL","702S006","2010-01-05 08:00","2010","01","05","08:00","-8.6","","-10.2","","88","","","","25","","19","","","","100.19","","","","-16","","NA"
"-73.74","45.47","MONTREAL/PIERRE ELLIOTT TRUDEAU INTL","702S006","2010-01-05 09:00","2010","01","05","09:00","-8.4","","-10.4","","85","","","","25","","22","","","","100.22","","","","-16","","NA"
"-73.74","45.47","MONTREAL/PIERRE ELLIOTT TRUDEAU INTL","702S006","2010-01-05 10:00","2010","01","05","10:00","-8.1","","-10.3","","84","","","","25","","22","","","","100.20","","","","-16","","NA"
"-73.74","45.47","MONTREAL/PIERRE ELLIOTT TRUDEAU INTL","702S006","2010-01-05 11:00","2010","01","05","11:00","-7.7","","-9.9","","84","","","","24","","17","","","","100.16","","","","-14","","NA"
"-73.74","45.47","MONTREAL/PIERRE ELLIOTT TRUDEAU INTL","702S006","2010-01-05 12:00","2010","01","05","12:00","-7.6","","-9.3","","88","","","","25","","22","","","","100.07","","","","-15","","NA"
"-73.74","45.47","MONTREAL/PIERRE ELLIOTT TRUDEAU INTL","702S006","2010-01-05 13:00","2010","01","05","13:00","-6.7","","-9.2","","82","","","","25","","19","","","","100.04","","","","-14","","NA"
"-73.74","45.47","MONTREAL/PIERRE ELLIOTT TRUDEAU INTL","702S006","2010-01-05 14:00","2010","01","05","14:00","-6.6","","-9.1","","82","","","","25","","20","","","","100.03","","","","-14","","NA"
"-73.74","45.47","MONTREAL/PIERRE ELLIOTT TRUDEAU INTL","702S006","2010-01-05 15:00","2010","01","05","15:00","-6.6","","-8.8","","84","","","","26","","20","","","","100.04","","","","-14","","NA"
"-73.74","45.47","MONTREAL/PIERRE ELLIOTT TRUDEAU INTL","702S006","2010-01-05 16:00","2010","01","05","16:00","-6.8","","-8.1","","90","","","","25","","17","","","","100.08","","","","-13","","NA"
"-73.74","45.47","MONTREAL/PIERRE ELLIOTT TRUDEAU INTL","702S006","2010-01-05 17:00","2010","01","05","17:00","-6.6","","-7.5","","93","","","","25","","15","","","","100.08","","","","-13","","NA"
"-73.74","45.47","MONTREAL/PIERRE ELLIOTT TRUDEAU INTL","702S006","2010-01-05 18:00","2010","01","05","18:00","-6.4","","-7.4","","93","","","","25","","15","","","","100.10","","","","-12","","NA"
"-73.74","45.47","MONTREAL/PIERRE ELLIOTT TRUDEAU INTL","702S006","2010-01-05 19:00","2010","01","05","19:00","-6.4","","-7.4","","93","","","","25","","15","","","","100.07","","","","-12","","NA"
"-73.74","45.47","MONTREAL/PIERRE ELLIOTT TRUDEAU INTL","702S006","2010-01-05 20:00","2010","01","05","20:00","-6.2","","-7.4","","91","","","","26","","22","","","","100.04","","","","-13","","NA"
"-73.74","45.47","MONTREAL/PIERRE ELLIOTT TRUDEAU INTL","702S006","2010-01-05 21:00","2010","01","05","21:00","-6.0","","-7.2","","91","","","","27","","19","","","","100.06","","","","-13","","NA"
"-73.74","45.47","MONTREAL/PIERRE ELLIOTT TRUDEAU INTL","702S006","2010-01-05 22:00","2010","01","05","22:00","-5.7","","-6.8","","92","","","","25","","15","","","","100.04","","","","-11","","NA"
"-73.74","45.47","MONTREAL/PIERRE ELLIOTT TRUDEAU INTL","702S006","2010-01-05 23:00","2010","01","05","23:00","-5.0","","-6.4","","90","","","","27","","19","","","","100.02","","","","-11","","NA"
"-73.74","45.47","MONTREAL/PIERRE ELLIOTT TRUDEAU INTL","702S006","2010-01-06 00:00","2010","01","06","00:00","-5.0","","-6.5","","89","","","","27","","19","","","","99.98","","","","-11","","NA"
"-73.74","45.47","MONTREAL/PIERRE ELLIOTT TRUDEAU INTL","702S006","2010-01-06 01:00","2010","01","06","01:00","-4.9","","-6.5","","89","","","","27","","15","","","","99.96","","","","-10","","NA"
"-73.74","45.47","MONTREAL/PIERRE ELLIOTT TRUDEAU INTL","702S006","2010-01-06 02:00","2010","01","06","02:00","-4.8","","-6.5","","88","","","","27","","17","","","","100.01","","","","-11","","NA"
"-73.74","45.47","MONTREAL/PIERRE ELLIOTT TRUDEAU INTL","702S006","2010-01-06 03:00","2010","01","06","03:00","-4.8","","-6.5","","88","","","","27","","19","","","","100.00","","","","-11","","NA"
"-73.74","45.47","MONTREAL/PIERRE ELLIOTT TRUDEAU INTL","702S006","2010-01-06 04:00","2010","01","06","04:00","-4.9","","-6.6","","88","","","","27","","15","","","","100.00","","","","-10","","NA"
"-73.74","45.47","MONTREAL/PIERRE ELLIOTT TRUDEAU INTL","702S006","2010-01-06 05:00","2010","01","06","05:00","-4.9","","-6.8","","87","","","","27","","13","","","","100.00","","","","-10","","NA"
"-73.74","45.47","MONTREAL/PIERRE ELLIOTT TRUDEAU INTL","702S006","2010-01-06 06:00","2010","01","06","06:00","-5.2","","-8.0","","81","","","","29","","19","","","","100.01","","","","-12","","NA"
"-73.74","45.47","MONTREAL/PIERRE ELLIOTT TRUDEAU INTL","702S006","2010-01-06 07:00","2010","01","06","07:00","-5.6","","-8.5","","80","","","","29","","19","","","","100.05","","","","-12","","NA"
"-73.74","45.47","MONTREAL/PIERRE ELLIOTT TRUDEAU INTL","702S006","2010-01-06 08:00","2010","01","06","08:00","-5.4","","-8.1","","81","","","","28","","20","","","","100.08","","","","-12","","NA"
"-73.74","45.47","MONTREAL/PIERRE ELLIOTT TRUDEAU INTL","702S006","2010-01-06 09:00","2010","01","06","09:00","-5.7","","-8.3","","82","","","","27","","24","","","","100.12","","","","-13","","NA"
"-73.74","45.47","MONTREAL/PIERRE ELLIOTT TRUDEAU INTL","702S006","2010-01-06 10:00","2010","01","06","10:00","-5.6","","-8.5","","80","","","","27","","22","","","","100.13","","","","-13","","NA"
"-73.74","45.47","MONTREAL/PIERRE ELLIOTT TRUDEAU INTL","702S006","2010-01-06 11:00","2010","01","06","11:00","-5.1","","-8.5","","77","","","","27","","24","","","","100.09","","","","-12","","NA"
"-73.74","45.47","MONTREAL/PIERRE ELLIOTT TRUDEAU INTL","702S006","2010-01-06 12:00","2010","01","06","12:00","-4.8","","-7.9","","79","","","","27","","24","","","","100.01","","","","-12","","NA"
"-73.74","45.47","MONTREAL/PIERRE ELLIOTT TRUDEAU INTL","702S006","2010-01-06 13:00","2010","01","06","13:00","-4.6","","-7.5","","80","","","","27","","28","","","","99.98","","","","-12","","NA"
"-73.74","45.47","MONTREAL/PIERRE ELLIOTT TRUDEAU INTL","702S006","2010-01-06 14:00","2010","01","06","14:00","-4.5","","-7.3","","81","","","","26","","32","","","","99.95","","","","-13","","NA"
"-73.74","45.47","MONTREAL/PIERRE ELLIOTT TRUDEAU INTL","702S006","2010-01-06 15:00","2010","01","06","15:00","-4.8","","-7.3","","83","","","","26","","28","","","","99.98","","","","-12","","NA"
"-73.74","45.47","MONTREAL/PIERRE ELLIOTT TRUDEAU INTL","702S006","2010-01-06 16:00","2010","01","06","16:00","-5.3","","-6.6","","91","","","","27","","30","","","","100.01","","","","-13","","NA"
"-73.74","45.47","MONTREAL/PIERRE ELLIOTT TRUDEAU INTL","702S006","2010-01-06 17:00","2010","01","06","17:00","-5.5","","-6.4","","93","","","","27","","26","","","","100.07","","","","-13","","NA"
"-73.74","45.47","MONTREAL/PIERRE ELLIOTT TRUDEAU INTL","702S006","2010-01-06 18:00","2010","01","06","18:00","-5.2","","-6.9","","88","","","","27","","24","","","","100.10","","","","-12","","NA"
"-73.74","45.47","MONTREAL/PIERRE ELLIOTT TRUDEAU INTL","702S006","2010-01-06 19:00","2010","01","06","19:00","-5.6","","-8.3","","81","","","","26","","22","","","","100.15","","","","-13","","NA"
"-73.74","45.47","MONTREAL/PIERRE ELLIOTT TRUDEAU INTL","702S006","2010-01-06 20:00","2010","01","06","20:00","-5.9","","-8.3","","83","","","","26","","19","","","","100.16","","","","-13","","NA"
"-73.74","45.47","MONTREAL/PIERRE ELLIOTT TRUDEAU INTL","702S006","2010-01-06 21:00","2010","01","06","21:00","-6.2","","-8.6","","83","","","","26","","24","","","","100.21","","","","-14","","NA"
"-73.74","45.47","MONTREAL/PIERRE ELLIOTT TRUDEAU INTL","702S006","2010-01-06 22:00","2010","01","06","22:00","-6.0","","-8.4","","83","","","","25","","20","","","","100.22","","","","-13","","NA"
"-73.74","45.47","MONTREAL/PIERRE ELLIOTT TRUDEAU INTL","702S006","2010-01-06 23:00","2010","01","06","23:00","-6.1","","-8.4","","84","","","","25","","20","","","","100.26","","","","-13","","NA"
"-73.74","45.47","MONTREAL/PIERRE ELLIOTT TRUDEAU INTL","702S006","2010-01-07 00:00","2010","01","07","00:00","-5.9","","-7.9","","86","","","","25","","20","","","","100.26","","","","-13","","NA"
"-73.74","45.47","MONTREAL/PIERRE ELLIOTT TRUDEAU INTL","702S006","2010-01-07 01:00","2010","01","07","01:00","-5.7","","-7.2","","89","","","","27","","24","","","","100.27","","","","-13","","NA"
"-73.74","45.47","MONTREAL/PIERRE ELLIOTT TRUDEAU INTL","702S006","2010-01-07 02:00","2010","01","07","02:00","-5.4","","-8.2","","81","","","","26","","26","","","","100.32","","","","-13","","NA"
"-73.74","45.47","MONTREAL/PIERRE ELLIOTT TRUDEAU INTL","702S006","2010-01-07 03:00","2010","01","07","03:00","-6.0","","-8.7","","81","","","","26","","22","","","","100.40","","","","-13","","NA"
"-73.74","45.47","MONTREAL/PIERRE ELLIOTT TRUDEAU INTL","702S006","2010-01-07 04:00","2010","01","07","04:00","-6.7","","-8.9","","84","","","","26","","24","","","","100.43","","","","-14","","NA"
"-73.74","45.47","MONTREAL/PIERRE ELLIOTT TRUDEAU INTL","702S006","2010-01-07 05:00","2010","01","07","05:00","-7.0","","-9.4","","83","","","","25","","22","","","","100.46","","","","-14","","NA"
"-73.74","45.47","MONTREAL/PIERRE ELLIOTT TRUDEAU INTL","702S006","2010-01-07 06:00","2010","01","07","06:00","-7.1","","-9.7","","82","","","","25","","20","","","","100.48","","","","-14","","NA"
"-73.74","45.47","MONTREAL/PIERRE ELLIOTT TRUDEAU INTL","702S006","2010-01-07 07:00","2010","01","07","07:00","-7.1","","-9.8","","81","","","","25","","26","","","","100.51","","","","-15","","NA"
"-73.74","45.47","MONTREAL/PIERRE ELLIOTT TRUDEAU INTL","702S006","2010-01-07 08:00","2010","01","07","08:00","-7.2","","-9.8","","82","","","","26","","28","","","","100.57","","","","-16","","NA"
"-73.74","45.47","MONTREAL/PIERRE ELLIOTT TRUDEAU INTL","702S006","2010-01-07 09:00","2010","01","07","09:00","-7.2","","-9.9","","81","","","","26","","24","","","","100.58","","","","-15","","NA"
"-73.74","45.47","MONTREAL/PIERRE ELLIOTT TRUDEAU INTL","702S006","2010-01-07 10:00","2010","01","07","10:00","-6.5","","-9.6","","79","","","","27","","20","","","","100.64","","","","-13","","NA"
"-73.74","45.47","MONTREAL/PIERRE ELLIOTT TRUDEAU INTL","702S006","2010-01-07 11:00","2010","01","07","11:00","-5.7","","-9.1","","77","","","","27","","22","","","","100.62","","","","-13","","NA"
"-73.74","45.47","MONTREAL/PIERRE ELLIOTT TRUDEAU INTL","702S006","2010-01-07 12:00","2010","01","07","12:00","-5.9","","-9.1","","78","","","","26","","24","","","","100.57","","","","-13","","NA"
"-73.74","45.47","MONTREAL/PIERRE ELLIOTT TRUDEAU INTL","702S006","2010-01-07 13:00","2010","01","07","13:00","-5.7","","-9.0","","77","","","","26","","24","","","","100.55","","","","-13","","NA"
"-73.74","45.47","MONTREAL/PIERRE ELLIOTT TRUDEAU INTL","702S006","2010-01-07 14:00","2010","01","07","14:00","-5.2","","-8.6","","77","","","","27","","24","","","","100.53","","","","-12","","NA"
"-73.74","45.47","MONTREAL/PIERRE ELLIOTT TRUDEAU INTL","702S006","2010-01-07 15:00","2010","01","07","15:00","-4.9","","-9.0","","73","","","","27","","22","","","","100.53","","","","-12","","NA"
"-73.74","45.47","MONTREAL/PIERRE ELLIOTT TRUDEAU INTL","702S006","2010-01-07 16:00","2010","01","07","16:00","-5.1","","-9.1","","73","","","","28","","17","","","","100.60","","","","-11","","NA"
"-73.74","45.47","MONTREAL/PIERRE ELLIOTT TRUDEAU INTL","702S006","2010-01-07 17:00","2010","01","07","17:00","-5.3","","-9.7","","71","","","","28","","19","","","","100.63","","","","-12","","NA"
"-73.74","45.47","MONTREAL/PIERRE ELLIOTT TRUDEAU INTL","702S006","2010-01-07 18:00","2010","01","07","18:00","-5.7","","-10.4","","69","","","","30","","17","","","","100.66","","","","-12","","NA"
"-73.74","45.47","MONTREAL/PIERRE ELLIOTT TRUDEAU INTL","702S006","2010-01-07 19:00","2010","01","07","19:00","-7.0","","-10.9","","74","","","","29","","15","","","","100.70","","","","-13","","NA"
"-73.74","45.47","MONTREAL/PIERRE ELLIOTT TRUDEAU INTL","702S006","2010-01-07 20:00","2010","01","07","20:00","-6.8","","-10.5","","75","","","","28","","11","","","","100.70","","","","-12","","NA"
"-73.74","45.47","MONTREAL/PIERRE ELLIOTT TRUDEAU INTL","702S006","2010-01-07 21:00","2010","01","07","21:00","-6.4","","-10.4","","73","","","","27","","15","","","","100.71","","","","-12","","NA"
"-73.74","45.47","MONTREAL/PIERRE ELLIOTT TRUDEAU INTL","702S006","2010-01-07 22:00","2010","01","07","22:00","-6.6","","-10.4","","74","","","","28","","13","","","","100.68","","","","-12","","NA"
"-73.74","45.47","MONTREAL/PIERRE ELLIOTT TRUDEAU INTL","702S006","2010-01-07 23:00","2010","01","07","23:00","-6.7","","-10.3","","76","","","","29","","9","","","","100.68","","","","-11","","NA"
"-73.74","45.47","MONTREAL/PIERRE ELLIOTT TRUDEAU INTL","702S006","2010-01-08 00:00","2010","01","08","00:00","-6.8","","-10.2","","77","","","","27","","9","","","","100.67","","","","-11","","NA"
"-73.74","45.47","MONTREAL/PIERRE ELLIOTT TRUDEAU INTL","702S006","2010-01-08 01:00","2010","01","08","01:00","-7.2","","-10.6","","77","","","","32","","9","","","","100.64","","","","-12","","NA"
"-73.74","45.47","MONTREAL/PIERRE ELLIOTT TRUDEAU INTL","702S006","2010-01-08 02:00","2010","01","08","02:00","-7.6","","-10.9","","77","","","","33","","7","","","","100.63","","","","-11","","NA"
"-73.74","45.47","MONTREAL/PIERRE ELLIOTT TRUDEAU INTL","702S006","2010-01-08 03:00","2010","01","08","03:00","-7.7","","-11.1","","77","","","","32","","7","","","","100.63","","","","-11","","NA"
"-73.74","45.47","MONTREAL/PIERRE ELLIOTT TRUDEAU INTL","702S006","2010-01-08 04:00","2010","01","08","04:00","-7.9","","-11.2","","77","","","","32","","4","","","","100.61","","","","-10","","NA"
"-73.74","45.47","MONTREAL/PIERRE ELLIOTT TRUDEAU INTL","702S006","2010-01-08 05:00","2010","01","08","05:00","-8.1","","-11.2","","78","","","","32","","7","","","","100.54","","","","-12","","NA"
"-73.74","45.47","MONTREAL/PIERRE ELLIOTT TRUDEAU INTL","702S006","2010-01-08 06:00","2010","01","08","06:00","-8.3","","-11.2","","80","","","","33","","7","","","","100.55","","","","-12","","NA"
"-73.74","45.47","MONTREAL/PIERRE ELLIOTT TRUDEAU INTL","702S006","2010-01-08 07:00","2010","01","08","07:00","-8.2","","-11.3","","78","","","","33","","7","","","","100.60","","","","-12","","NA"
"-73.74","45.47","MONTREAL/PIERRE ELLIOTT TRUDEAU INTL","702S006","2010-01-08 08:00","2010","01","08","08:00","-8.2","","-11.2","","79","","","","33","","7","","","","100.57","","","","-12","","NA"
"-73.74","45.47","MONTREAL/PIERRE ELLIOTT TRUDEAU INTL","702S006","2010-01-08 09:00","2010","01","08","09:00","-7.8","","-11.4","","75","","","","34","","9","","","","100.55","","","","-12","","NA"
"-73.74","45.47","MONTREAL/PIERRE ELLIOTT TRUDEAU INTL","702S006","2010-01-08 10:00","2010","01","08","10:00","-7.4","","-11.4","","73","","","","34","","11","","","","100.57","","","","-12","","NA"
"-73.74","45.47","MONTREAL/PIERRE ELLIOTT TRUDEAU INTL","702S006","2010-01-08 11:00","2010","01","08","11:00","-7.1","","-11.6","","70","","","","36","","11","","","","100.52","","","","-12","","NA"
"-73.74","45.47","MONTREAL/PIERRE ELLIOTT TRUDEAU INTL","702S006","2010-01-08 12:00","2010","01","08","12:00","-7.0","","-11.2","","72","","","","2","","15","","","","100.46","","","","-13","","NA"
"-73.74","45.47","MONTREAL/PIERRE ELLIOTT TRUDEAU INTL","702S006","2010-01-08 13:00","2010","01","08","13:00","-6.8","","-11.4","","70","","","","34","","11","","","","100.43","","","","-12","","NA"
"-73.74","45.47","MONTREAL/PIERRE ELLIOTT TRUDEAU INTL","702S006","2010-01-08 14:00","2010","01","08","14:00","-6.4","","-10.8","","71","","","","32","","11","","","","100.42","","","","-11","","NA"
"-73.74","45.47","MONTREAL/PIERRE ELLIOTT TRUDEAU INTL","702S006","2010-01-08 15:00","2010","01","08","15:00","-6.4","","-10.5","","73","","","","29","","17","","","","100.47","","","","-13","","NA"
"-73.74","45.47","MONTREAL/PIERRE ELLIOTT TRUDEAU INTL","702S006","2010-01-08 16:00","2010","01","08","16:00","-6.7","","-10.2","","76","","","","28","","17","","","","100.53","","","","-13","","NA"
"-73.74","45.47","MONTREAL/PIERRE ELLIOTT TRUDEAU INTL","702S006","2010-01-08 17:00","2010","01","08","17:00","-7.0","","-11.2","","72","","","","28","","15","","","","100.60","","","","-13","","NA"
"-73.74","45.47","MONTREAL/PIERRE ELLIOTT TRUDEAU INTL","702S006","2010-01-08 18:00","2010","01","08","18:00","-7.0","","-11.1","","73","","","","29","","19","","","","100.66","","","","-14","","NA"
"-73.74","45.47","MONTREAL/PIERRE ELLIOTT TRUDEAU INTL","702S006","2010-01-08 19:00","2010","01","08","19:00","-7.1","","-11.0","","74","","","","29","","17","","","","100.74","","","","-14","","NA"
"-73.74","45.47","MONTREAL/PIERRE ELLIOTT TRUDEAU INTL","702S006","2010-01-08 20:00","2010","01","08","20:00","-7.1","","-10.8","","75","","","","29","","15","","","","100.77","","","","-13","","NA"
"-73.74","45.47","MONTREAL/PIERRE ELLIOTT TRUDEAU INTL","702S006","2010-01-08 21:00","2010","01","08","21:00","-7.4","","-11.0","","75","","","","29","","17","","","","100.83","","","","-14","","NA"
"-73.74","45.47","MONTREAL/PIERRE ELLIOTT TRUDEAU INTL","702S006","2010-01-08 22:00","2010","01","08","22:00","-7.9","","-11.7","","74","","","","30","","19","","","","100.91","","","","-15","","NA"
"-73.74","45.47","MONTREAL/PIERRE ELLIOTT TRUDEAU INTL","702S006","2010-01-08 23:00","2010","01","08","23:00","-9.2","","-13.0","","74","","","","32","","13","","","","100.99","","","","-15","","NA"
"-73.74","45.47","MONTREAL/PIERRE ELLIOTT TRUDEAU INTL","702S006","2010-01-09 00:00","2010","01","09","00:00","-10.9","","-15.6","","68","","","","33","","13","","","","101.04","","","","-17","","NA"
"-73.74","45.47","MONTREAL/PIERRE ELLIOTT TRUDEAU INTL","702S006","2010-01-09 01:00","2010","01","09","01:00","-12.6","","-16.0","","76","","","","29","","15","","","","101.09","","","","-20","","NA"
"-73.74","45.47","MONTREAL/PIERRE ELLIOTT TRUDEAU INTL","702S006","2010-01-09 02:00","2010","01","09","02:00","-12.9","","-16.7","","73","","","","30","","17","","","","101.19","","","","-21","","NA"
"-73.74","45.47","MONTREAL/PIERRE ELLIOTT TRUDEAU INTL","702S006","2010-01-09 03:00","2010","01","09","03:00","-13.8","","-17.7","","72","","","","30","","15","","","","101.24","","","","-21","","NA"
"-73.74","45.47","MONTREAL/PIERRE ELLIOTT TRUDEAU INTL","702S006","2010-01-09 04:00","2010","01","09","04:00","-13.8","","-18.1","","70","","","","30","","19","","","","101.30","","","","-22","","NA"
"-73.74","45.47","MONTREAL/PIERRE ELLIOTT TRUDEAU INTL","702S006","2010-01-09 05:00","2010","01","09","05:00","-15.2","","-18.9","","73","","","","30","","13","","","","101.39","","","","-23","","NA"
"-73.74","45.47","MONTREAL/PIERRE ELLIOTT TRUDEAU INTL","702S006","2010-01-09 06:00","2010","01","09","06:00","-15.5","","-19.6","","71","","","","31","","15","","","","101.50","","","","-24","","NA"
"-73.74","45.47","MONTREAL/PIERRE ELLIOTT TRUDEAU INTL","702S006","2010-01-09 07:00","2010","01","09","07:00","-15.5","","-20.0","","68","","","","30","","17","","","","101.58","","","","-24","","NA"
"-73.74","45.47","MONTREAL/PIERRE ELLIOTT TRUDEAU INTL","702S006","2010-01-09 08:00","2010","01","09","08:00","-15.6","","-20.3","","67","","","","30","","17","","","","101.70","","","","-24","","NA"
"-73.74","45.47","MONTREAL/PIERRE ELLIOTT TRUDEAU INTL","702S006","2010-01-09 09:00","2010","01","09","09:00","-15.4","","-20.6","","64","","","","29","","15","","","","101.76","","","","-23","","NA"
"-73.74","45.47","MONTREAL/PIERRE ELLIOTT TRUDEAU INTL","702S006","2010-01-09 10:00","2010","01","09","10:00","-14.2","","-20.4","","59","","","","28","","15","","","","101.85","","","","-22","","NA"
"-73.74","45.47","MONTREAL/PIERRE ELLIOTT TRUDEAU INTL","702S006","2010-01-09 11:00","2010","01","09","11:00","-13.2","","-20.1","","56","","","","27","","15","","","","101.84","","","","-21","","NA"
"-73.74","45.47","MONTREAL/PIERRE ELLIOTT TRUDEAU INTL","702S006","2010-01-09 12:00","2010","01","09","12:00","-12.6","","-20.4","","52","","","","26","","15","","","","101.83","","","","-20","","NA"
"-73.74","45.47","MONTREAL/PIERRE ELLIOTT TRUDEAU INTL","702S006","2010-01-09 13:00","2010","01","09","13:00","-12.4","","-20.5","","51","","","","26","","19","","","","101.83","","","","-21","","NA"
"-73.74","45.47","MONTREAL/PIERRE ELLIOTT TRUDEAU INTL","702S006","2010-01-09 14:00","2010","01","09","14:00","-11.9","","-20.1","","51","","","","26","","19","","","","101.82","","","","-20","","NA"
"-73.74","45.47","MONTREAL/PIERRE ELLIOTT TRUDEAU INTL","702S006","2010-01-09 15:00","2010","01","09","15:00","-11.6","","-19.9","","50","","","","26","","19","","","","101.87","","","","-20","","NA"
"-73.74","45.47","MONTREAL/PIERRE ELLIOTT TRUDEAU INTL","702S006","2010-01-09 16:00","2010","01","09","16:00","-11.6","","-20.2","","49","","","","27","","24","","","","101.90","","","","-21","","NA"
"-73.74","45.47","MONTREAL/PIERRE ELLIOTT TRUDEAU INTL","702S006","2010-01-09 17:00","2010","01","09","17:00","-12.2","","-19.9","","53","","","","26","","17","","","","101.97","","","","-20","","NA"
"-73.74","45.47","MONTREAL/PIERRE ELLIOTT TRUDEAU INTL","702S006","2010-01-09 18:00","2010","01","09","18:00","-12.8","","-19.6","","57","","","","27","","19","","","","102.00","","","","-21","","NA"
"-73.74","45.47","MONTREAL/PIERRE ELLIOTT TRUDEAU INTL","702S006","2010-01-09 19:00","2010","01","09","19:00","-13.4","","-19.8","","59","","","","28","","20","","","","102.03","","","","-22","","NA"
"-73.74","45.47","MONTREAL/PIERRE ELLIOTT TRUDEAU INTL","702S006","2010-01-09 20:00","2010","01","09","20:00","-14.1","","-19.8","","62","","","","27","","11","","","","102.05","","","","-21","","NA"
"-73.74","45.47","MONTREAL/PIERRE ELLIOTT TRUDEAU INTL","702S006","2010-01-09 21:00","2010","01","09","21:00","-14.9","","-20.4","","63","","","","27","","7","","","","102.06","","","","-20","","NA"
"-73.74","45.47","MONTREAL/PIERRE ELLIOTT TRUDEAU INTL","702S006","2010-01-09 22:00","2010","01","09","22:00","-15.6","","-20.5","","66","","","","28","","11","","","","102.07","","","","-22","","NA"
"-73.74","45.47","MONTREAL/PIERRE ELLIOTT TRUDEAU INTL","702S006","2010-01-09 23:00","2010","01","09","23:00","-15.4","","-20.6","","64","","","","24","","7","","","","102.10","","","","-20","","NA"
"-73.74","45.47","MONTREAL/PIERRE ELLIOTT TRUDEAU INTL","702S006","2010-01-10 00:00","2010","01","10","00:00","-16.1","","-20.5","","69","","","","22","","7","","","","102.08","","","","-21","","NA"
"-73.74","45.47","MONTREAL/PIERRE ELLIOTT TRUDEAU INTL","702S006","2010-01-10 01:00","2010","01","10","01:00","-16.8","","-20.6","","72","","","","23","","9","","","","102.08","","","","-23","","NA"
"-73.74","45.47","MONTREAL/PIERRE ELLIOTT TRUDEAU INTL","702S006","2010-01-10 02:00","2010","01","10","02:00","-17.0","","-20.5","","74","","","","24","","6","","","","102.09","","","","-22","","NA"
"-73.74","45.47","MONTREAL/PIERRE ELLIOTT TRUDEAU INTL","702S006","2010-01-10 03:00","2010","01","10","03:00","-17.4","","-20.5","","77","","","","24","","9","","","","102.08","","","","-24","","NA"
"-73.74","45.47","MONTREAL/PIERRE ELLIOTT TRUDEAU INTL","702S006","2010-01-10 04:00","2010","01","10","04:00","-17.1","","-20.1","","77","","","","25","","7","","","","102.05","","","","-22","","NA"
"-73.74","45.47","MONTREAL/PIERRE ELLIOTT TRUDEAU INTL","702S006","2010-01-10 05:00","2010","01","10","05:00","-16.4","","-19.9","","74","","","","24","","9","","","","101.99","","","","-22","","NA"
"-73.74","45.47","MONTREAL/PIERRE ELLIOTT TRUDEAU INTL","702S006","2010-01-10 06:00","2010","01","10","06:00","-16.5","","-19.9","","75","","","","23","","7","","","","102.00","","","","-22","","NA"
"-73.74","45.47","MONTREAL/PIERRE ELLIOTT TRUDEAU INTL","702S006","2010-01-10 07:00","2010","01","10","07:00","-16.2","","-19.6","","75","","","","25","","13","","","","102.02","","","","-24","","NA"
"-73.74","45.47","MONTREAL/PIERRE ELLIOTT TRUDEAU INTL","702S006","2010-01-10 08:00","2010","01","10","08:00","-15.4","","-19.1","","73","","","","25","","11","","","","102.01","","","","-22","","NA"
"-73.74","45.47","MONTREAL/PIERRE ELLIOTT TRUDEAU INTL","702S006","2010-01-10 09:00","2010","01","10","09:00","-15.0","","-18.6","","74","","","","26","","9","","","","102.03","","","","-21","","NA"
"-73.74","45.47","MONTREAL/PIERRE ELLIOTT TRUDEAU INTL","702S006","2010-01-10 10:00","2010","01","10","10:00","-13.9","","-17.4","","75","","","","23","","17","","","","101.99","","","","-22","","NA"
"-73.74","45.47","MONTREAL/PIERRE ELLIOTT TRUDEAU INTL","702S006","2010-01-10 11:00","2010","01","10","11:00","-12.8","","-17.4","","68","","","","24","","15","","","","101.91","","","","-20","","NA"
"-73.74","45.47","MONTREAL/PIERRE ELLIOTT TRUDEAU INTL","702S006","2010-01-10 12:00","2010","01","10","12:00","-11.9","","-17.2","","65","","","","22","","15","","","","101.78","","","","-19","","NA"
"-73.74","45.47","MONTREAL/PIERRE ELLIOTT TRUDEAU INTL","702S006","2010-01-10 13:00","2010","01","10","13:00","-10.8","","-18.3","","54","","","","25","","17","","","","101.67","","","","-18","","NA"
"-73.74","45.47","MONTREAL/PIERRE ELLIOTT TRUDEAU INTL","702S006","2010-01-10 14:00","2010","01","10","14:00","-9.9","","-15.8","","62","","","","23","","15","","","","101.58","","","","-17","","NA"
"-73.74","45.47","MONTREAL/PIERRE ELLIOTT TRUDEAU INTL","702S006","2010-01-10 15:00","2010","01","10","15:00","-9.4","","-14.4","","67","","","","24","","11","","","","101.50","","","","-15","","NA"
"-73.74","45.47","MONTREAL/PIERRE ELLIOTT TRUDEAU INTL","702S006","2010-01-10 16:00","2010","01","10","16:00","-8.7","","-13.0","","71","","","","26","","9","","","","101.44","","","","-13","","NA"
"-73.74","45.47","MONTREAL/PIERRE ELLIOTT TRUDEAU INTL","702S006","2010-01-10 17:00","2010","01","10","17:00","-8.6","","-12.5","","73","","","","26","","6","","","","101.41","","","","-12","","NA"
"-73.74","45.47","MONTREAL/PIERRE ELLIOTT TRUDEAU INTL","702S006","2010-01-10 18:00","2010","01","10","18:00","-7.8","","-11.9","","72","","","","23","","6","","","","101.39","","","","-11","","NA"
"-73.74","45.47","MONTREAL/PIERRE ELLIOTT TRUDEAU INTL","702S006","2010-01-10 19:00","2010","01","10","19:00","-7.1","","-11.2","","72","","","","24","","7","","","","101.36","","","","-11","","NA"
"-73.74","45.47","MONTREAL/PIERRE ELLIOTT TRUDEAU INTL","702S006","2010-01-10 20:00","2010","01","10","20:00","-6.0","","-10.0","","73","","","","23","","11","","","","101.35","","","","-11","","NA"
"-73.74","45.47","MONTREAL/PIERRE ELLIOTT TRUDEAU INTL","702S006","2010-01-10 21:00","2010","01","10","21:00","-5.3","","-8.7","","77","","","","22","","13","","","","101.31","","","","-10","","NA"
"-73.74","45.47","MONTREAL/PIERRE ELLIOTT TRUDEAU INTL","702S006","2010-01-10 22:00","2010","01","10","22:00","-4.5","","-8.0","","76","","","","24","","20","","","","101.27","","","","-11","","NA"
"-73.74","45.47","MONTREAL/PIERRE ELLIOTT TRUDEAU INTL","702S006","2010-01-10 23:00","2010","01","10","23:00","-5.0","","-8.5","","76","","","","24","","19","","","","101.25","","","","-11","","NA"
"-73.74","45.47","MONTREAL/PIERRE ELLIOTT TRUDEAU INTL","702S006","2010-01-11 00:00","2010","01","11","00:00","-4.7","","-8.8","","73","","","","25","","19","","","","101.23","","","","-11","","NA"
"-73.74","45.47","MONTREAL/PIERRE ELLIOTT TRUDEAU INTL","702S006","2010-01-11 01:00","2010","01","11","01:00","-4.8","","-8.7","","74","","","","25","","24","","","","101.18","","","","-12","","NA"
"-73.74","45.47","MONTREAL/PIERRE ELLIOTT TRUDEAU INTL","702S006","2010-01-11 02:00","2010","01","11","02:00","-5.0","","-8.8","","75","","","","26","","22","","","","101.21","","","","-12","","NA"
"-73.74","45.47","MONTREAL/PIERRE ELLIOTT TRUDEAU INTL","702S006","2010-01-11 03:00","2010","01","11","03:00","-5.1","","-8.8","","75","","","","26","","24","","","","101.19","","","","-12","","NA"
"-73.74","45.47","MONTREAL/PIERRE ELLIOTT TRUDEAU INTL","702S006","2010-01-11 04:00","2010","01","11","04:00","-5.1","","-8.7","","76","","","","26","","17","","","","101.16","","","","-11","","NA"
"-73.74","45.47","MONTREAL/PIERRE ELLIOTT TRUDEAU INTL","702S006","2010-01-11 05:00","2010","01","11","05:00","-5.2","","-8.9","","75","","","","26","","20","","","","101.18","","","","-12","","NA"
"-73.74","45.47","MONTREAL/PIERRE ELLIOTT TRUDEAU INTL","702S006","2010-01-11 06:00","2010","01","11","06:00","-5.5","","-9.0","","76","","","","26","","17","","","","101.18","","","","-12","","NA"
"-73.74","45.47","MONTREAL/PIERRE ELLIOTT TRUDEAU INTL","702S006","2010-01-11 07:00","2010","01","11","07:00","-5.7","","-9.1","","77","","","","24","","7","","","","101.18","","","","-9","","NA"
"-73.74","45.47","MONTREAL/PIERRE ELLIOTT TRUDEAU INTL","702S006","2010-01-11 08:00","2010","01","11","08:00","-6.4","","-9.9","","76","","","","25","","11","","","","101.21","","","","-11","","NA"
"-73.74","45.47","MONTREAL/PIERRE ELLIOTT TRUDEAU INTL","702S006","2010-01-11 09:00","2010","01","11","09:00","-6.3","","-10.0","","75","","","","26","","17","","","","101.22","","","","-13","","NA"
"-73.74","45.47","MONTREAL/PIERRE ELLIOTT TRUDEAU INTL","702S006","2010-01-11 10:00","2010","01","11","10:00","-6.0","","-9.8","","74","","","","27","","17","","","","101.22","","","","-12","","NA"
"-73.74","45.47","MONTREAL/PIERRE ELLIOTT TRUDEAU INTL","702S006","2010-01-11 11:00","2010","01","11","11:00","-5.4","","-9.2","","75","","","","27","","13","","","","101.20","","","","-11","","NA"
"-73.74","45.47","MONTREAL/PIERRE ELLIOTT TRUDEAU INTL","702S006","2010-01-11 12:00","2010","01","11","12:00","-4.7","","-8.5","","75","","","","27","","17","","","","101.14","","","","-11","","NA"
"-73.74","45.47","MONTREAL/PIERRE ELLIOTT TRUDEAU INTL","702S006","2010-01-11 13:00","2010","01","11","13:00","-4.5","","-8.3","","75","","","","25","","11","","","","101.11","","","","-9","","NA"
"-73.74","45.47","MONTREAL/PIERRE ELLIOTT TRUDEAU INTL","702S006","2010-01-11 14:00","2010","01","11","14:00","-3.9","","-8.1","","73","","","","24","","13","","","","101.10","","","","-9","","NA"
"-73.74","45.47","MONTREAL/PIERRE ELLIOTT TRUDEAU INTL","702S006","2010-01-11 15:00","2010","01","11","15:00","-4.0","","-7.4","","77","","","","25","","15","","","","101.12","","","","-9","","NA"
"-73.74","45.47","MONTREAL/PIERRE ELLIOTT TRUDEAU INTL","702S006","2010-01-11 16:00","2010","01","11","16:00","-4.0","","-7.2","","78","","","","25","","15","","","","101.16","","","","-9","","NA"
"-73.74","45.47","MONTREAL/PIERRE ELLIOTT TRUDEAU INTL","702S006","2010-01-11 17:00","2010","01","11","17:00","-4.3","","-7.1","","81","","","","26","","13","","","","101.19","","","","-9","","NA"
"-73.74","45.47","MONTREAL/PIERRE ELLIOTT TRUDEAU INTL","702S006","2010-01-11 18:00","2010","01","11","18:00","-4.0","","-6.7","","81","","","","27","","11","","","","101.25","","","","-8","","NA"
"-73.74","45.47","MONTREAL/PIERRE ELLIOTT TRUDEAU INTL","702S006","2010-01-11 19:00","2010","01","11","19:00","-4.0","","-6.6","","82","","","","28","","15","","","","101.31","","","","-9","","NA"
"-73.74","45.47","MONTREAL/PIERRE ELLIOTT TRUDEAU INTL","702S006","2010-01-11 20:00","2010","01","11","20:00","-4.1","","-6.5","","83","","","","28","","17","","","","101.36","","","","-10","","NA"
"-73.74","45.47","MONTREAL/PIERRE ELLIOTT TRUDEAU INTL","702S006","2010-01-11 21:00","2010","01","11","21:00","-4.2","","-6.3","","85","","","","32","","9","","","","101.38","","","","-8","","NA"
"-73.74","45.47","MONTREAL/PIERRE ELLIOTT TRUDEAU INTL","702S006","2010-01-11 22:00","2010","01","11","22:00","-4.6","","-9.2","","70","","","","1","","15","","","","101.41","","","","-10","","NA"
"-73.74","45.47","MONTREAL/PIERRE ELLIOTT TRUDEAU INTL","702S006","2010-01-11 23:00","2010","01","11","23:00","-4.7","","-10.4","","64","","","","36","","15","","","","101.43","","","","-10","","NA"
"-73.74","45.47","MONTREAL/PIERRE ELLIOTT TRUDEAU INTL","702S006","2010-01-12 00:00","2010","01","12","00:00","-5.5","","-10.8","","66","","","","36","","11","","","","101.43","","","","-10","","NA"
"-73.74","45.47","MONTREAL/PIERRE ELLIOTT TRUDEAU INTL","702S006","2010-01-12 01:00","2010","01","12","01:00","-6.0","","-11.7","","64","","","","35","","15","","","","101.44","","","","-12","","NA"
"-73.74","45.47","MONTREAL/PIERRE ELLIOTT TRUDEAU INTL","702S006","2010-01-12 02:00","2010","01","12","02:00","-6.4","","-12.0","","64","","","","34","","11","","","","101.45","","","","-11","","NA"
"-73.74","45.47","MONTREAL/PIERRE ELLIOTT TRUDEAU INTL","702S006","2010-01-12 03:00","2010","01","12","03:00","-7.2","","-12.4","","66","","","","35","","15","","","","101.51","","","","-13","","NA"
"-73.74","45.47","MONTREAL/PIERRE ELLIOTT TRUDEAU INTL","702S006","2010-01-12 04:00","2010","01","12","04:00","-8.4","","-12.8","","71","","","","35","","11","","","","101.56","","","","-14","","NA"
"-73.74","45.47","MONTREAL/PIERRE ELLIOTT TRUDEAU INTL","702S006","2010-01-12 05:00","2010","01","12","05:00","-9.6","","-14.1","","70","","","","35","","15","","","","101.57","","","","-16","","NA"
"-73.74","45.47","MONTREAL/PIERRE ELLIOTT TRUDEAU INTL","702S006","2010-01-12 06:00","2010","01","12","06:00","-10.8","","-14.6","","74","","","","32","","7","","","","101.53","","","","-15","","NA"
"-73.74","45.47","MONTREAL/PIERRE ELLIOTT TRUDEAU INTL","702S006","2010-01-12 07:00","2010","01","12","07:00","-12.0","","-15.5","","75","","","","29","","9","","","","101.59","","","","-17","","NA"
"-73.74","45.47","MONTREAL/PIERRE ELLIOTT TRUDEAU INTL","702S006","2010-01-12 08:00","2010","01","12","08:00","-9.8","","-13.3","","76","","","","28","","11","","","","101.60","","","","-15","","NA"
"-73.74","45.47","MONTREAL/PIERRE ELLIOTT TRUDEAU INTL","702S006","2010-01-12 09:00","2010","01","12","09:00","-9.0","","-13.7","","69","","","","31","","13","","","","101.62","","","","-15","","NA"
"-73.74","45.47","MONTREAL/PIERRE ELLIOTT TRUDEAU INTL","702S006","2010-01-12 10:00","2010","01","12","10:00","-8.8","","-13.9","","67","","","","32","","15","","","","101.66","","","","-15","","NA"
"-73.74","45.47","MONTREAL/PIERRE ELLIOTT TRUDEAU INTL","702S006","2010-01-12 11:00","2010","01","12","11:00","-8.9","","-14.2","","65","","","","36","","13","","","","101.64","","","","-15","","NA"
"-73.74","45.47","MONTREAL/PIERRE ELLIOTT TRUDEAU INTL","702S006","2010-01-12 12:00","2010","01","12","12:00","-9.5","","-16.1","","59","","","","34","","17","","","","101.59","","","","-17","","NA"
"-73.74","45.47","MONTREAL/PIERRE ELLIOTT TRUDEAU INTL","702S006","2010-01-12 13:00","2010","01","12","13:00","-9.2","","-16.4","","56","","","","33","","15","","","","101.50","","","","-16","","NA"
"-73.74","45.47","MONTREAL/PIERRE ELLIOTT TRUDEAU INTL","702S006","2010-01-12 14:00","2010","01","12","14:00","-8.6","","-15.6","","57","","","","28","","17","","","","101.48","","","","-15","","NA"
"-73.74","45.47","MONTREAL/PIERRE ELLIOTT TRUDEAU INTL","702S006","2010-01-12 15:00","2010","01","12","15:00","-9.1","","-16.3","","56","","","","29","","24","","","","101.48","","","","-17","","NA"
"-73.74","45.47","MONTREAL/PIERRE ELLIOTT TRUDEAU INTL","702S006","2010-01-12 16:00","2010","01","12","16:00","-9.0","","-16.5","","54","","","","27","","20","","","","101.50","","","","-17","","NA"
"-73.74","45.47","MONTREAL/PIERRE ELLIOTT TRUDEAU INTL","702S006","2010-01-12 17:00","2010","01","12","17:00","-10.2","","-17.6","","55","","","","29","","19","","","","101.51","","","","-18","","NA"
"-73.74","45.47","MONTREAL/PIERRE ELLIOTT TRUDEAU INTL","702S006","2010-01-12 18:00","2010","01","12","18:00","-10.8","","-17.8","","56","","","","28","","19","","","","101.59","","","","-19","","NA"
"-73.74","45.47","MONTREAL/PIERRE ELLIOTT TRUDEAU INTL","702S006","2010-01-12 19:00","2010","01","12","19:00","-11.5","","-17.8","","60","","","","28","","17","","","","101.64","","","","-19","","NA"
"-73.74","45.47","MONTREAL/PIERRE ELLIOTT TRUDEAU INTL","702S006","2010-01-12 20:00","2010","01","12","20:00","-11.6","","-17.6","","61","","","","28","","15","","","","101.67","","","","-19","","NA"
"-73.74","45.47","MONTREAL/PIERRE ELLIOTT TRUDEAU INTL","702S006","2010-01-12 21:00","2010","01","12","21:00","-12.2","","-17.7","","64","","","","28","","19","","","","101.72","","","","-20","","NA"
"-73.74","45.47","MONTREAL/PIERRE ELLIOTT TRUDEAU INTL","702S006","2010-01-12 22:00","2010","01","12","22:00","-13.0","","-18.4","","64","","","","27","","11","","","","101.75","","","","-19","","NA"
"-73.74","45.47","MONTREAL/PIERRE ELLIOTT TRUDEAU INTL","702S006","2010-01-12 23:00","2010","01","12","23:00","-13.0","","-18.2","","65","","","","27","","11","","","","101.74","","","","-19","","NA"
"-73.74","45.47","MONTREAL/PIERRE ELLIOTT TRUDEAU INTL","702S006","2010-01-13 00:00","2010","01","13","00:00","-14.0","","-18.7","","68","","","","25","","7","","","","101.71","","","","-19","","NA"
"-73.74","45.47","MONTREAL/PIERRE ELLIOTT TRUDEAU INTL","702S006","2010-01-13 01:00","2010","01","13","01:00","-13.8","","-18.5","","68","","","","27","","9","","","","101.70","","","","-19","","NA"
"-73.74","45.47","MONTREAL/PIERRE ELLIOTT TRUDEAU INTL","702S006","2010-01-13 02:00","2010","01","13","02:00","-14.8","","-19.2","","69","","","","25","","13","","","","101.72","","","","-22","","NA"
"-73.74","45.47","MONTREAL/PIERRE ELLIOTT TRUDEAU INTL","702S006","2010-01-13 03:00","2010","01","13","03:00","-15.2","","-19.3","","71","","","","25","","7","","","","101.76","","","","-20","","NA"
"-73.74","45.47","MONTREAL/PIERRE ELLIOTT TRUDEAU INTL","702S006","2010-01-13 04:00","2010","01","13","04:00","-14.9","","-18.7","","73","","","","25","","7","","","","101.72","","","","-20","","NA"
"-73.74","45.47","MONTREAL/PIERRE ELLIOTT TRUDEAU INTL","702S006","2010-01-13 05:00","2010","01","13","05:00","-13.6","","-17.7","","71","","","","25","","7","","","","101.69","","","","-18","","NA"
"-73.74","45.47","MONTREAL/PIERRE ELLIOTT TRUDEAU INTL","702S006","2010-01-13 06:00","2010","01","13","06:00","-13.1","","-17.2","","71","","","","26","","9","","","","101.73","","","","-19","","NA"
"-73.74","45.47","MONTREAL/PIERRE ELLIOTT TRUDEAU INTL","702S006","2010-01-13 07:00","2010","01","13","07:00","-12.8","","-16.8","","72","","","","25","","11","","","","101.75","","","","-19","","NA"
"-73.74","45.47","MONTREAL/PIERRE ELLIOTT TRUDEAU INTL","702S006","2010-01-13 08:00","2010","01","13","08:00","-12.4","","-16.9","","69","","","","25","","11","","","","101.77","","","","-18","","NA"
"-73.74","45.47","MONTREAL/PIERRE ELLIOTT TRUDEAU INTL","702S006","2010-01-13 09:00","2010","01","13","09:00","-11.9","","-16.8","","67","","","","26","","17","","","","101.78","","","","-20","","NA"
"-73.74","45.47","MONTREAL/PIERRE ELLIOTT TRUDEAU INTL","702S006","2010-01-13 10:00","2010","01","13","10:00","-11.1","","-17.0","","62","","","","26","","15","","","","101.80","","","","-18","","NA"
"-73.74","45.47","MONTREAL/PIERRE ELLIOTT TRUDEAU INTL","702S006","2010-01-13 11:00","2010","01","13","11:00","-10.7","","-14.2","","75","","","","27","","9","","","","101.76","","","","-16","","NA"
"-73.74","45.47","MONTREAL/PIERRE ELLIOTT TRUDEAU INTL","702S006","2010-01-13 12:00","2010","01","13","12:00","-10.9","","-13.3","","82","","","","22","","6","","","","101.65","","","","-15","","NA"
"-73.74","45.47","MONTREAL/PIERRE ELLIOTT TRUDEAU INTL","702S006","2010-01-13 13:00","2010","01","13","13:00","-10.1","","-12.4","","83","","","","26","","6","","","","101.61","","","","-14","","NA"
"-73.74","45.47","MONTREAL/PIERRE ELLIOTT TRUDEAU INTL","702S006","2010-01-13 14:00","2010","01","13","14:00","-9.4","","-11.8","","83","","","","12","","4","","","","101.56","","","","-12","","NA"
"-73.74","45.47","MONTREAL/PIERRE ELLIOTT TRUDEAU INTL","702S006","2010-01-13 15:00","2010","01","13","15:00","-9.2","","-11.6","","83","","","","15","","11","","","","101.54","","","","-15","","NA"
"-73.74","45.47","MONTREAL/PIERRE ELLIOTT TRUDEAU INTL","702S006","2010-01-13 16:00","2010","01","13","16:00","-9.3","","-11.5","","84","","","","13","","13","","","","101.57","","","","-15","","NA"
"-73.74","45.47","MONTREAL/PIERRE ELLIOTT TRUDEAU INTL","702S006","2010-01-13 17:00","2010","01","13","17:00","-9.0","","-11.3","","83","","","","12","","9","","","","101.58","","","","-14","","NA"
"-73.74","45.47","MONTREAL/PIERRE ELLIOTT TRUDEAU INTL","702S006","2010-01-13 18:00","2010","01","13","18:00","-8.8","","-10.9","","85","","","","12","","11","","","","101.61","","","","-14","","NA"
"-73.74","45.47","MONTREAL/PIERRE ELLIOTT TRUDEAU INTL","702S006","2010-01-13 19:00","2010","01","13","19:00","-8.5","","-10.5","","85","","","","11","","7","","","","101.63","","","","-12","","NA"
"-73.74","45.47","MONTREAL/PIERRE ELLIOTT TRUDEAU INTL","702S006","2010-01-13 20:00","2010","01","13","20:00","-8.2","","-9.9","","88","","","","11","","6","","","","101.66","","","","-11","","NA"
"-73.74","45.47","MONTREAL/PIERRE ELLIOTT TRUDEAU INTL","702S006","2010-01-13 21:00","2010","01","13","21:00","-7.9","","-9.8","","86","","","","6","","6","","","","101.68","","","","-11","","NA"
"-73.74","45.47","MONTREAL/PIERRE ELLIOTT TRUDEAU INTL","702S006","2010-01-13 22:00","2010","01","13","22:00","-7.8","","-9.9","","85","","","","5","","6","","","","101.67","","","","-11","","NA"
"-73.74","45.47","MONTREAL/PIERRE ELLIOTT TRUDEAU INTL","702S006","2010-01-13 23:00","2010","01","13","23:00","-7.7","","-9.8","","85","","","","10","","6","","","","101.69","","","","-11","","NA"
"-73.74","45.47","MONTREAL/PIERRE ELLIOTT TRUDEAU INTL","702S006","2010-01-14 00:00","2010","01","14","00:00","-7.8","","-10.1","","84","","","","9","","6","","","","101.71","","","","-11","","NA"
"-73.74","45.47","MONTREAL/PIERRE ELLIOTT TRUDEAU INTL","702S006","2010-01-14 01:00","2010","01","14","01:00","-7.8","","-10.3","","82","","","","7","","4","","","","101.74","","","","-10","","NA"
"-73.74","45.47","MONTREAL/PIERRE ELLIOTT TRUDEAU INTL","702S006","2010-01-14 02:00","2010","01","14","02:00","-7.4","","-10.0","","82","","","","4","","6","","","","101.77","","","","-11","","NA"
"-73.74","45.47","MONTREAL/PIERRE ELLIOTT TRUDEAU INTL","702S006","2010-01-14 03:00","2010","01","14","03:00","-8.0","","-10.2","","84","","","","2","","7","","","","101.80","","","","-12","","NA"
"-73.74","45.47","MONTREAL/PIERRE ELLIOTT TRUDEAU INTL","702S006","2010-01-14 04:00","2010","01","14","04:00","-8.3","","-10.3","","85","","","","2","","11","","","","101.77","","","","-14","","NA"
"-73.74","45.47","MONTREAL/PIERRE ELLIOTT TRUDEAU INTL","702S006","2010-01-14 05:00","2010","01","14","05:00","-8.2","","-10.3","","85","","","","2","","11","","","","101.80","","","","-13","","NA"
"-73.74","45.47","MONTREAL/PIERRE ELLIOTT TRUDEAU INTL","702S006","2010-01-14 06:00","2010","01","14","06:00","-7.9","","-10.1","","84","","","","2","","9","","","","101.82","","","","-12","","NA"
"-73.74","45.47","MONTREAL/PIERRE ELLIOTT TRUDEAU INTL","702S006","2010-01-14 07:00","2010","01","14","07:00","-7.2","","-9.7","","82","","","","4","","9","","","","101.80","","","","-12","","NA"
"-73.74","45.47","MONTREAL/PIERRE ELLIOTT TRUDEAU INTL","702S006","2010-01-14 08:00","2010","01","14","08:00","-6.6","","-9.2","","82","","","","9","","4","","","","101.81","","","","-9","","NA"
"-73.74","45.47","MONTREAL/PIERRE ELLIOTT TRUDEAU INTL","702S006","2010-01-14 09:00","2010","01","14","09:00","-6.2","","-9.0","","81","","","","9","","6","","","","101.82","","","","-9","","NA"
"-73.74","45.47","MONTREAL/PIERRE ELLIOTT TRUDEAU INTL","702S006","2010-01-14 10:00","2010","01","14","10:00","-6.0","","-8.8","","81","","","","5","","6","","","","101.82","","","","-9","","NA"
"-73.74","45.47","MONTREAL/PIERRE ELLIOTT TRUDEAU INTL","702S006","2010-01-14 11:00","2010","01","14","11:00","-6.2","","-8.4","","84","","","","2","","7","","","","101.76","","","","-10","","NA"
"-73.74","45.47","MONTREAL/PIERRE ELLIOTT TRUDEAU INTL","702S006","2010-01-14 12:00","2010","01","14","12:00","-5.8","","-7.9","","85","","","","3","","7","","","","101.66","","","","-9","","NA"
"-73.74","45.47","MONTREAL/PIERRE ELLIOTT TRUDEAU INTL","702S006","2010-01-14 13:00","2010","01","14","13:00","-5.7","","-7.8","","85","","","","1","","7","","","","101.58","","","","-9","","NA"
"-73.74","45.47","MONTREAL/PIERRE ELLIOTT TRUDEAU INTL","702S006","2010-01-14 14:00","2010","01","14","14:00","-5.4","","-7.6","","84","","","","2","","7","","","","101.52","","","","-9","","NA"
"-73.74","45.47","MONTREAL/PIERRE ELLIOTT TRUDEAU INTL","702S006","2010-01-14 15:00","2010","01","14","15:00","-4.9","","-7.2","","84","","","","2","","7","","","","101.43","","","","-8","","NA"
"-73.74","45.47","MONTREAL/PIERRE ELLIOTT TRUDEAU INTL","702S006","2010-01-14 16:00","2010","01","14","16:00","-4.2","","-6.5","","84","","","","3","","4","","","","101.38","","","","-6","","NA"
"-73.74","45.47","MONTREAL/PIERRE ELLIOTT TRUDEAU INTL","702S006","2010-01-14 17:00","2010","01","14","17:00","-4.8","","-6.9","","85","","","","32","","6","","","","101.34","","","","-8","","NA"
"-73.74","45.47","MONTREAL/PIERRE ELLIOTT TRUDEAU INTL","702S006","2010-01-14 18:00","2010","01","14","18:00","-4.8","","-6.8","","86","","","","36","","6","","","","101.29","","","","-8","","NA"
"-73.74","45.47","MONTREAL/PIERRE ELLIOTT TRUDEAU INTL","702S006","2010-01-14 19:00","2010","01","14","19:00","-4.3","","-6.1","","87","","","","23","","2","","","","101.25","","","","-5","","NA"
"-73.74","45.47","MONTREAL/PIERRE ELLIOTT TRUDEAU INTL","702S006","2010-01-14 20:00","2010","01","14","20:00","-1.4","","-3.9","","83","","","","17","","17","","","","101.17","","","","-7","","NA"
"-73.74","45.47","MONTREAL/PIERRE ELLIOTT TRUDEAU INTL","702S006","2010-01-14 21:00","2010","01","14","21:00","-1.1","","-3.7","","82","","","","16","","17","","","","101.11","","","","-6","","NA"
"-73.74","45.47","MONTREAL/PIERRE ELLIOTT TRUDEAU INTL","702S006","2010-01-14 22:00","2010","01","14","22:00","-0.7","","-3.0","","84","","","","16","","13","","","","101.02","","","","-5","","NA"
"-73.74","45.47","MONTREAL/PIERRE ELLIOTT TRUDEAU INTL","702S006","2010-01-14 23:00","2010","01","14","23:00","-0.3","","-2.7","","84","","","","14","","7","","","","100.96","","","","-3","","NA"
"-73.74","45.47","MONTREAL/PIERRE ELLIOTT TRUDEAU INTL","702S006","2010-01-15 00:00","2010","01","15","00:00","-0.3","","-2.5","","85","","","","","","0","","","","100.94","","","","","","NA"
"-73.74","45.47","MONTREAL/PIERRE ELLIOTT TRUDEAU INTL","702S006","2010-01-15 01:00","2010","01","15","01:00","-0.9","","-2.6","","88","","","","13","","4","","","","100.87","","","","-2","","NA"
"-73.74","45.47","MONTREAL/PIERRE ELLIOTT TRUDEAU INTL","702S006","2010-01-15 02:00","2010","01","15","02:00","0.1","","-2.1","","85","","","","20","","4","","","","100.88","","","","","","NA"
"-73.74","45.47","MONTREAL/PIERRE ELLIOTT TRUDEAU INTL","702S006","2010-01-15 03:00","2010","01","15","03:00","0.0","","-1.8","","88","","","","19","","7","","","","100.87","","","","-2","","NA"
"-73.74","45.47","MONTREAL/PIERRE ELLIOTT TRUDEAU INTL","702S006","2010-01-15 04:00","2010","01","15","04:00","0.7","","-1.4","","86","","","","25","","4","","","","100.86","","","","","","NA"
"-73.74","45.47","MONTREAL/PIERRE ELLIOTT TRUDEAU INTL","702S006","2010-01-15 05:00","2010","01","15","05:00","0.2","","-1.3","","90","","","","24","","6","","","","100.87","","","","","","NA"
"-73.74","45.47","MONTREAL/PIERRE ELLIOTT TRUDEAU INTL","702S006","2010-01-15 06:00","2010","01","15","06:00","-0.3","","-1.4","","92","","","","1","","4","","","","100.91","","","","-2","","NA"
"-73.74","45.47","MONTREAL/PIERRE ELLIOTT TRUDEAU INTL","702S006","2010-01-15 07:00","2010","01","15","07:00","-0.1","","-0.8","","95","","","","30","","2","","","","100.96","","","","-1","","NA"
"-73.74","45.47","MONTREAL/PIERRE ELLIOTT TRUDEAU INTL","702S006","2010-01-15 08:00","2010","01","15","08:00","0.8","","0.1","","95","","","","27","","6","","","","101.00","","","","","","NA"
"-73.74","45.47","MONTREAL/PIERRE ELLIOTT TRUDEAU INTL","702S006","2010-01-15 09:00","2010","01","15","09:00","0.7","","0.1","","96","","","","31","","7","","","","101.07","","","","","","NA"
"-73.74","45.47","MONTREAL/PIERRE ELLIOTT TRUDEAU INTL","702S006","2010-01-15 10:00","2010","01","15","10:00","1.0","","0.2","","94","","","","24","","4","","","","101.12","","","","","","NA"
"-73.74","45.47","MONTREAL/PIERRE ELLIOTT TRUDEAU INTL","702S006","2010-01-15 11:00","2010","01","15","11:00","1.6","","0.7","","94","","","","26","","13","","","","101.11","","","","","","NA"
"-73.74","45.47","MONTREAL/PIERRE ELLIOTT TRUDEAU INTL","702S006","2010-01-15 12:00","2010","01","15","12:00","1.9","","0.7","","92","","","","28","","13","","","","101.08","","","","","","NA"
"-73.74","45.47","MONTREAL/PIERRE ELLIOTT TRUDEAU INTL","702S006","2010-01-15 13:00","2010","01","15","13:00","2.4","","0.7","","89","","","","27","","15","","","","101.02","","","","","","NA"
"-73.74","45.47","MONTREAL/PIERRE ELLIOTT TRUDEAU INTL","702S006","2010-01-15 14:00","2010","01","15","14:00","2.9","","0.4","","84","","","","27","","15","","","","101.09","","","","","","NA"
"-73.74","45.47","MONTREAL/PIERRE ELLIOTT TRUDEAU INTL","702S006","2010-01-15 15:00","2010","01","15","15:00","2.8","","0.1","","82","","","","27","","22","","","","101.20","","","","","","NA"
"-73.74","45.47","MONTREAL/PIERRE ELLIOTT TRUDEAU INTL","702S006","2010-01-15 16:00","2010","01","15","16:00","2.5","","-0.1","","83","","","","27","","17","","","","101.27","","","","","","NA"
"-73.74","45.47","MONTREAL/PIERRE ELLIOTT TRUDEAU INTL","702S006","2010-01-15 17:00","2010","01","15","17:00","2.5","","-0.7","","79","","","","27","","19","","","","101.35","","","","","","NA"
"-73.74","45.47","MONTREAL/PIERRE ELLIOTT TRUDEAU INTL","702S006","2010-01-15 18:00","2010","01","15","18:00","2.3","","-0.8","","80","","","","27","","19","","","","101.37","","","","","","NA"
"-73.74","45.47","MONTREAL/PIERRE ELLIOTT TRUDEAU INTL","702S006","2010-01-15 19:00","2010","01","15","19:00","1.9","","-1.1","","80","","","","26","","17","","","","101.40","","","","","","NA"
"-73.74","45.47","MONTREAL/PIERRE ELLIOTT TRUDEAU INTL","702S006","2010-01-15 20:00","2010","01","15","20:00","1.8","","-0.8","","83","","","","26","","19","","","","101.45","","","","","","NA"
"-73.74","45.47","MONTREAL/PIERRE ELLIOTT TRUDEAU INTL","702S006","2010-01-15 21:00","2010","01","15","21:00","1.6","","-1.3","","81","","","","26","","24","","","","101.45","","","","","","NA"
"-73.74","45.47","MONTREAL/PIERRE ELLIOTT TRUDEAU INTL","702S006","2010-01-15 22:00","2010","01","15","22:00","1.4","","-2.3","","76","","","","27","","26","","","","101.43","","","","","","NA"
"-73.74","45.47","MONTREAL/PIERRE ELLIOTT TRUDEAU INTL","702S006","2010-01-15 23:00","2010","01","15","23:00","1.2","","-2.2","","78","","","","26","","19","","","","101.43","","","","","","NA"
"-73.74","45.47","MONTREAL/PIERRE ELLIOTT TRUDEAU INTL","702S006","2010-01-16 00:00","2010","01","16","00:00","1.1","","-1.9","","80","","","","25","","15","","","","101.35","","","","","","NA"
"-73.74","45.47","MONTREAL/PIERRE ELLIOTT TRUDEAU INTL","702S006","2010-01-16 01:00","2010","01","16","01:00","1.4","","-1.5","","81","","","","24","","20","","","","101.32","","","","","","NA"
"-73.74","45.47","MONTREAL/PIERRE ELLIOTT TRUDEAU INTL","702S006","2010-01-16 02:00","2010","01","16","02:00","1.6","","-1.8","","78","","","","24","","26","","","","101.27","","","","","","NA"
"-73.74","45.47","MONTREAL/PIERRE ELLIOTT TRUDEAU INTL","702S006","2010-01-16 03:00","2010","01","16","03:00","1.5","","-1.9","","78","","","","23","","19","","","","101.23","","","","","","NA"
"-73.74","45.47","MONTREAL/PIERRE ELLIOTT TRUDEAU INTL","702S006","2010-01-16 04:00","2010","01","16","04:00","1.4","","-1.9","","79","","","","26","","22","","","","101.29","","","","","","NA"
"-73.74","45.47","MONTREAL/PIERRE ELLIOTT TRUDEAU INTL","702S006","2010-01-16 05:00","2010","01","16","05:00","1.3","","-1.8","","80","","","","26","","24","","","","101.29","","","","","","NA"
"-73.74","45.47","MONTREAL/PIERRE ELLIOTT TRUDEAU INTL","702S006","2010-01-16 06:00","2010","01","16","06:00","1.3","","-1.5","","82","","","","24","","19","","","","101.26","","","","","","NA"
"-73.74","45.47","MONTREAL/PIERRE ELLIOTT TRUDEAU INTL","702S006","2010-01-16 07:00","2010","01","16","07:00","1.5","","-1.3","","82","","","","25","","20","","","","101.25","","","","","","NA"
"-73.74","45.47","MONTREAL/PIERRE ELLIOTT TRUDEAU INTL","702S006","2010-01-16 08:00","2010","01","16","08:00","1.7","","-1.4","","80","","","","25","","20","","","","101.21","","","","","","NA"
"-73.74","45.47","MONTREAL/PIERRE ELLIOTT TRUDEAU INTL","702S006","2010-01-16 09:00","2010","01","16","09:00","1.7","","-1.2","","81","","","","25","","20","","","","101.30","","","","","","NA"
"-73.74","45.47","MONTREAL/PIERRE ELLIOTT TRUDEAU INTL","702S006","2010-01-16 10:00","2010","01","16","10:00","1.9","","-1.5","","78","","","","25","","24","","","","101.36","","","","","","NA"
"-73.74","45.47","MONTREAL/PIERRE ELLIOTT TRUDEAU INTL","702S006","2010-01-16 11:00","2010","01","16","11:00","1.8","","-1.6","","78","","","","24","","26","","","","101.36","","","","","","NA"
"-73.74","45.47","MONTREAL/PIERRE ELLIOTT TRUDEAU INTL","702S006","2010-01-16 12:00","2010","01","16","12:00","2.0","","-1.8","","76","","","","24","","30","","","","101.32","","","","","","NA"
"-73.74","45.47","MONTREAL/PIERRE ELLIOTT TRUDEAU INTL","702S006","2010-01-16 13:00","2010","01","16","13:00","2.2","","-1.8","","75","","","","25","","26","","","","101.22","","","","","","NA"
"-73.74","45.47","MONTREAL/PIERRE ELLIOTT TRUDEAU INTL","702S006","2010-01-16 14:00","2010","01","16","14:00","2.1","","-1.8","","75","","","","25","","20","","","","101.28","","","","","","NA"
"-73.74","45.47","MONTREAL/PIERRE ELLIOTT TRUDEAU INTL","702S006","2010-01-16 15:00","2010","01","16","15:00","2.1","","-1.7","","76","","","","26","","22","","","","101.28","","","","","","NA"
"-73.74","45.47","MONTREAL/PIERRE ELLIOTT TRUDEAU INTL","702S006","2010-01-16 16:00","2010","01","16","16:00","2.0","","-1.7","","76","","","","25","","20","","","","101.34","","","","","","NA"
"-73.74","45.47","MONTREAL/PIERRE ELLIOTT TRUDEAU INTL","702S006","2010-01-16 17:00","2010","01","16","17:00","1.9","","-1.6","","78","","","","24","","17","","","","101.42","","","","","","NA"
"-73.74","45.47","MONTREAL/PIERRE ELLIOTT TRUDEAU INTL","702S006","2010-01-16 18:00","2010","01","16","18:00","1.8","","-1.5","","79","","","","26","","17","","","","101.43","","","","","","NA"
"-73.74","45.47","MONTREAL/PIERRE ELLIOTT TRUDEAU INTL","702S006","2010-01-16 19:00","2010","01","16","19:00","1.8","","-1.6","","78","","","","26","","19","","","","101.53","","","","","","NA"
"-73.74","45.47","MONTREAL/PIERRE ELLIOTT TRUDEAU INTL","702S006","2010-01-16 20:00","2010","01","16","20:00","1.7","","-1.7","","78","","","","27","","15","","","","101.51","","","","","","NA"
"-73.74","45.47","MONTREAL/PIERRE ELLIOTT TRUDEAU INTL","702S006","2010-01-16 21:00","2010","01","16","21:00","1.5","","-1.5","","80","","","","26","","13","","","","101.53","","","","","","NA"
"-73.74","45.47","MONTREAL/PIERRE ELLIOTT TRUDEAU INTL","702S006","2010-01-16 22:00","2010","01","16","22:00","1.3","","-1.6","","81","","","","26","","13","","","","101.54","","","","","","NA"
"-73.74","45.47","MONTREAL/PIERRE ELLIOTT TRUDEAU INTL","702S006","2010-01-16 23:00","2010","01","16","23:00","1.1","","-1.5","","83","","","","26","","7","","","","101.53","","","","","","NA"
"-73.74","45.47","MONTREAL/PIERRE ELLIOTT TRUDEAU INTL","702S006","2010-01-17 00:00","2010","01","17","00:00","1.2","","-1.5","","82","","","","23","","7","","","","101.54","","","","","","NA"
"-73.74","45.47","MONTREAL/PIERRE ELLIOTT TRUDEAU INTL","702S006","2010-01-17 01:00","2010","01","17","01:00","0.9","","-1.3","","85","","","","27","","4","","","","101.52","","","","","","NA"
"-73.74","45.47","MONTREAL/PIERRE ELLIOTT TRUDEAU INTL","702S006","2010-01-17 02:00","2010","01","17","02:00","-1.6","","-5.8","","73","","","","5","","20","","","","101.66","","","","-7","","NA"
"-73.74","45.47","MONTREAL/PIERRE ELLIOTT TRUDEAU INTL","702S006","2010-01-17 03:00","2010","01","17","03:00","-3.8","","-8.8","","68","","","","5","","22","","","","101.69","","","","-10","","NA"
"-73.74","45.47","MONTREAL/PIERRE ELLIOTT TRUDEAU INTL","702S006","2010-01-17 04:00","2010","01","17","04:00","-4.9","","-11.0","","62","","","","5","","20","","","","101.72","","","","-11","","NA"
"-73.74","45.47","MONTREAL/PIERRE ELLIOTT TRUDEAU INTL","702S006","2010-01-17 05:00","2010","01","17","05:00","-5.3","","-11.1","","64","","","","4","","19","","","","101.68","","","","-12","","NA"
"-73.74","45.47","MONTREAL/PIERRE ELLIOTT TRUDEAU INTL","702S006","2010-01-17 06:00","2010","01","17","06:00","-6.5","","-11.2","","69","","","","5","","19","","","","101.67","","","","-13","","NA"
"-73.74","45.47","MONTREAL/PIERRE ELLIOTT TRUDEAU INTL","702S006","2010-01-17 07:00","2010","01","17","07:00","-7.0","","-13.1","","62","","","","5","","17","","","","101.69","","","","-13","","NA"
"-73.74","45.47","MONTREAL/PIERRE ELLIOTT TRUDEAU INTL","702S006","2010-01-17 08:00","2010","01","17","08:00","-7.2","","-13.0","","63","","","","4","","17","","","","101.67","","","","-14","","NA"
"-73.74","45.47","MONTREAL/PIERRE ELLIOTT TRUDEAU INTL","702S006","2010-01-17 09:00","2010","01","17","09:00","-7.4","","-12.6","","66","","","","4","","22","","","","101.64","","","","-15","","NA"
"-73.74","45.47","MONTREAL/PIERRE ELLIOTT TRUDEAU INTL","702S006","2010-01-17 10:00","2010","01","17","10:00","-7.3","","-12.1","","68","","","","5","","20","","","","101.59","","","","-14","","NA"
"-73.74","45.47","MONTREAL/PIERRE ELLIOTT TRUDEAU INTL","702S006","2010-01-17 11:00","2010","01","17","11:00","-7.2","","-11.6","","71","","","","4","","22","","","","101.42","","","","-15","","NA"
"-73.74","45.47","MONTREAL/PIERRE ELLIOTT TRUDEAU INTL","702S006","2010-01-17 12:00","2010","01","17","12:00","-6.6","","-11.4","","69","","","","5","","22","","","","101.27","","","","-14","","NA"
"-73.74","45.47","MONTREAL/PIERRE ELLIOTT TRUDEAU INTL","702S006","2010-01-17 13:00","2010","01","17","13:00","-6.0","","-10.7","","69","","","","4","","24","","","","101.14","","","","-13","","NA"
"-73.74","45.47","MONTREAL/PIERRE ELLIOTT TRUDEAU INTL","702S006","2010-01-17 14:00","2010","01","17","14:00","-5.4","","-10.3","","68","","","","4","","19","","","","101.10","","","","-12","","NA"
"-73.74","45.47","MONTREAL/PIERRE ELLIOTT TRUDEAU INTL","702S006","2010-01-17 15:00","2010","01","17","15:00","-5.8","","-11.0","","67","","","","4","","22","","","","101.07","","","","-13","","NA"
"-73.74","45.47","MONTREAL/PIERRE ELLIOTT TRUDEAU INTL","702S006","2010-01-17 16:00","2010","01","17","16:00","-6.1","","-11.4","","66","","","","4","","22","","","","101.07","","","","-13","","NA"
"-73.74","45.47","MONTREAL/PIERRE ELLIOTT TRUDEAU INTL","702S006","2010-01-17 17:00","2010","01","17","17:00","-6.5","","-11.2","","69","","","","5","","19","","","","101.04","","","","-13","","NA"
"-73.74","45.47","MONTREAL/PIERRE ELLIOTT TRUDEAU INTL","702S006","2010-01-17 18:00","2010","01","17","18:00","-6.7","","-11.5","","69","","","","5","","17","","","","100.98","","","","-13","","NA"
"-73.74","45.47","MONTREAL/PIERRE ELLIOTT TRUDEAU INTL","702S006","2010-01-17 19:00","2010","01","17","19:00","-6.8","","-11.7","","68","","","","4","","15","","","","100.89","","","","-13","","NA"
"-73.74","45.47","MONTREAL/PIERRE ELLIOTT TRUDEAU INTL","702S006","2010-01-17 20:00","2010","01","17","20:00","-6.8","","-10.8","","73","","","","3","","13","","","","100.84","","","","-12","","NA"
"-73.74","45.47","MONTREAL/PIERRE ELLIOTT TRUDEAU INTL","702S006","2010-01-17 21:00","2010","01","17","21:00","-7.5","","-11.3","","74","","","","2","","17","","","","100.80","","","","-14","","NA"
"-73.74","45.47","MONTREAL/PIERRE ELLIOTT TRUDEAU INTL","702S006","2010-01-17 22:00","2010","01","17","22:00","-7.6","","-11.4","","74","","","","3","","20","","","","100.77","","","","-15","","NA"
"-73.74","45.47","MONTREAL/PIERRE ELLIOTT TRUDEAU INTL","702S006","2010-01-17 23:00","2010","01","17","23:00","-7.4","","-10.7","","77","","","","2","","19","","","","100.73","","","","-14","","NA"
"-73.74","45.47","MONTREAL/PIERRE ELLIOTT TRUDEAU INTL","702S006","2010-01-18 00:00","2010","01","18","00:00","-7.4","","-10.5","","78","","","","2","","20","","","","100.64","","","","-15","","NA"
"-73.74","45.47","MONTREAL/PIERRE ELLIOTT TRUDEAU INTL","702S006","2010-01-18 01:00","2010","01","18","01:00","-7.2","","-10.1","","80","","","","2","","19","","","","100.60","","","","-14","","NA"
"-73.74","45.47","MONTREAL/PIERRE ELLIOTT TRUDEAU INTL","702S006","2010-01-18 02:00","2010","01","18","02:00","-6.6","","-9.6","","79","","","","3","","17","","","","100.57","","","","-13","","NA"
"-73.74","45.47","MONTREAL/PIERRE ELLIOTT TRUDEAU INTL","702S006","2010-01-18 03:00","2010","01","18","03:00","-6.4","","-9.0","","82","","","","2","","20","","","","100.54","","","","-13","","NA"
"-73.74","45.47","MONTREAL/PIERRE ELLIOTT TRUDEAU INTL","702S006","2010-01-18 04:00","2010","01","18","04:00","-6.3","","-8.2","","86","","","","2","","20","","","","100.51","","","","-13","","NA"
"-73.74","45.47","MONTREAL/PIERRE ELLIOTT TRUDEAU INTL","702S006","2010-01-18 05:00","2010","01","18","05:00","-6.0","","-7.5","","89","","","","2","","20","","","","100.51","","","","-13","","NA"
"-73.74","45.47","MONTREAL/PIERRE ELLIOTT TRUDEAU INTL","702S006","2010-01-18 06:00","2010","01","18","06:00","-5.5","","-6.5","","93","","","","4","","15","","","","100.52","","","","-11","","NA"
"-73.74","45.47","MONTREAL/PIERRE ELLIOTT TRUDEAU INTL","702S006","2010-01-18 07:00","2010","01","18","07:00","-5.4","","-6.2","","94","","","","2","","13","","","","100.55","","","","-11","","NA"
"-73.74","45.47","MONTREAL/PIERRE ELLIOTT TRUDEAU INTL","702S006","2010-01-18 08:00","2010","01","18","08:00","-5.2","","-5.9","","95","","","","2","","13","","","","100.58","","","","-10","","NA"
"-73.74","45.47","MONTREAL/PIERRE ELLIOTT TRUDEAU INTL","702S006","2010-01-18 09:00","2010","01","18","09:00","-5.0","","-5.8","","94","","","","3","","11","","","","100.62","","","","-10","","NA"
"-73.74","45.47","MONTREAL/PIERRE ELLIOTT TRUDEAU INTL","702S006","2010-01-18 10:00","2010","01","18","10:00","-4.5","","-5.6","","92","","","","2","","11","","","","100.63","","","","-9","","NA"
"-73.74","45.47","MONTREAL/PIERRE ELLIOTT TRUDEAU INTL","702S006","2010-01-18 11:00","2010","01","18","11:00","-4.4","","-5.5","","92","","","","2","","9","","","","100.64","","","","-8","","NA"
"-73.74","45.47","MONTREAL/PIERRE ELLIOTT TRUDEAU INTL","702S006","2010-01-18 12:00","2010","01","18","12:00","-4.1","","-5.2","","92","","","","3","","11","","","","100.53","","","","-9","","NA"
"-73.74","45.47","MONTREAL/PIERRE ELLIOTT TRUDEAU INTL","702S006","2010-01-18 13:00","2010","01","18","13:00","-4.1","","-5.2","","92","","","","1","","9","","","","100.51","","","","-8","","NA"
"-73.74","45.47","MONTREAL/PIERRE ELLIOTT TRUDEAU INTL","702S006","2010-01-18 14:00","2010","01","18","14:00","-4.0","","-5.0","","93","","","","1","","9","","","","100.49","","","","-8","","NA"
"-73.74","45.47","MONTREAL/PIERRE ELLIOTT TRUDEAU INTL","702S006","2010-01-18 15:00","2010","01","18","15:00","-3.9","","-4.7","","94","","","","36","","7","","","","100.54","","","","-7","","NA"
"-73.74","45.47","MONTREAL/PIERRE ELLIOTT TRUDEAU INTL","702S006","2010-01-18 16:00","2010","01","18","16:00","-3.9","","-4.6","","95","","","","35","","6","","","","100.58","","","","-7","","NA"
"-73.74","45.47","MONTREAL/PIERRE ELLIOTT TRUDEAU INTL","702S006","2010-01-18 17:00","2010","01","18","17:00","-3.8","","-4.3","","96","","","","31","","2","","","","100.61","","","","-5","","NA"
"-73.74","45.47","MONTREAL/PIERRE ELLIOTT TRUDEAU INTL","702S006","2010-01-18 18:00","2010","01","18","18:00","-3.4","","-3.8","","97","","","","26","","6","","","","100.71","","","","-6","","NA"
"-73.74","45.47","MONTREAL/PIERRE ELLIOTT TRUDEAU INTL","702S006","2010-01-18 19:00","2010","01","18","19:00","-3.3","","-3.8","","96","","","","25","","6","","","","100.78","","","","-6","","NA"
"-73.74","45.47","MONTREAL/PIERRE ELLIOTT TRUDEAU INTL","702S006","2010-01-18 20:00","2010","01","18","20:00","-2.9","","-3.4","","96","","","","26","","7","","","","100.80","","","","-6","","NA"
"-73.74","45.47","MONTREAL/PIERRE ELLIOTT TRUDEAU INTL","702S006","2010-01-18 21:00","2010","01","18","21:00","-2.5","","-3.0","","96","","","","26","","6","","","","100.81","","","","-5","","NA"
"-73.74","45.47","MONTREAL/PIERRE ELLIOTT TRUDEAU INTL","702S006","2010-01-18 22:00","2010","01","18","22:00","-2.3","","-2.9","","96","","","","25","","6","","","","100.85","","","","-5","","NA"
"-73.74","45.47","MONTREAL/PIERRE ELLIOTT TRUDEAU INTL","702S006","2010-01-18 23:00","2010","01","18","23:00","-2.2","","-3.0","","94","","","","25","","6","","","","100.87","","","","-5","","NA"
"-73.74","45.47","MONTREAL/PIERRE ELLIOTT TRUDEAU INTL","702S006","2010-01-19 00:00","2010","01","19","00:00","-2.2","","-2.9","","95","","","","22","","2","","","","100.85","","","","-3","","NA"
"-73.74","45.47","MONTREAL/PIERRE ELLIOTT TRUDEAU INTL","702S006","2010-01-19 01:00","2010","01","19","01:00","-2.1","","-2.9","","94","","","","15","","4","","","","100.85","","","","-4","","NA"
"-73.74","45.47","MONTREAL/PIERRE ELLIOTT TRUDEAU INTL","702S006","2010-01-19 02:00","2010","01","19","02:00","-2.0","","-2.8","","94","","","","16","","2","","","","100.84","","","","-3","","NA"
"-73.74","45.47","MONTREAL/PIERRE ELLIOTT TRUDEAU INTL","702S006","2010-01-19 03:00","2010","01","19","03:00","-1.9","","-2.6","","95","","","","17","","4","","","","100.84","","","","-3","","NA"
"-73.74","45.47","MONTREAL/PIERRE ELLIOTT TRUDEAU INTL","702S006","2010-01-19 04:00","2010","01","19","04:00","-1.8","","-2.4","","96","","","","14","","6","","","","100.81","","","","-4","","NA"
"-73.74","45.47","MONTREAL/PIERRE ELLIOTT TRUDEAU INTL","702S006","2010-01-19 05:00","2010","01","19","05:00","-1.6","","-2.1","","96","","","","15","","11","","","","100.82","","","","-5","","NA"
"-73.74","45.47","MONTREAL/PIERRE ELLIOTT TRUDEAU INTL","702S006","2010-01-19 06:00","2010","01","19","06:00","-1.4","","-2.0","","96","","","","16","","7","","","","100.82","","","","-4","","NA"
"-73.74","45.47","MONTREAL/PIERRE ELLIOTT TRUDEAU INTL","702S006","2010-01-19 07:00","2010","01","19","07:00","-1.0","","-1.8","","94","","","","17","","11","","","","100.82","","","","-5","","NA"
"-73.74","45.47","MONTREAL/PIERRE ELLIOTT TRUDEAU INTL","702S006","2010-01-19 08:00","2010","01","19","08:00","-0.8","","-1.7","","94","","","","17","","7","","","","100.83","","","","-3","","NA"
"-73.74","45.47","MONTREAL/PIERRE ELLIOTT TRUDEAU INTL","702S006","2010-01-19 09:00","2010","01","19","09:00","-0.5","","-1.5","","93","","","","14","","6","","","","100.84","","","","-3","","NA"
"-73.74","45.47","MONTREAL/PIERRE ELLIOTT TRUDEAU INTL","702S006","2010-01-19 10:00","2010","01","19","10:00","-0.2","","-1.4","","92","","","","16","","7","","","","100.84","","","","-3","","NA"
"-73.74","45.47","MONTREAL/PIERRE ELLIOTT TRUDEAU INTL","702S006","2010-01-19 11:00","2010","01","19","11:00","0.3","","-1.0","","91","","","","18","","11","","","","100.83","","","","","","NA"
"-73.74","45.47","MONTREAL/PIERRE ELLIOTT TRUDEAU INTL","702S006","2010-01-19 12:00","2010","01","19","12:00","0.9","","-1.0","","87","","","","20","","11","","","","100.79","","","","","","NA"
"-73.74","45.47","MONTREAL/PIERRE ELLIOTT TRUDEAU INTL","702S006","2010-01-19 13:00","2010","01","19","13:00","0.9","","-0.7","","89","","","","20","","9","","","","100.76","","","","","","NA"
"-73.74","45.47","MONTREAL/PIERRE ELLIOTT TRUDEAU INTL","702S006","2010-01-19 14:00","2010","01","19","14:00","0.9","","-0.3","","92","","","","19","","9","","","","100.73","","","","","","NA"
"-73.74","45.47","MONTREAL/PIERRE ELLIOTT TRUDEAU INTL","702S006","2010-01-19 15:00","2010","01","19","15:00","0.9","","-0.1","","93","","","","22","","6","","","","100.73","","","","","","NA"
"-73.74","45.47","MONTREAL/PIERRE ELLIOTT TRUDEAU INTL","702S006","2010-01-19 16:00","2010","01","19","16:00","0.7","","-0.1","","94","","","","18","","2","","","","100.74","","","","","","NA"
"-73.74","45.47","MONTREAL/PIERRE ELLIOTT TRUDEAU INTL","702S006","2010-01-19 17:00","2010","01","19","17:00","0.5","","-0.2","","95","","","","17","","4","","","","100.76","","","","","","NA"
"-73.74","45.47","MONTREAL/PIERRE ELLIOTT TRUDEAU INTL","702S006","2010-01-19 18:00","2010","01","19","18:00","0.7","","-0.2","","94","","","","15","","4","","","","100.75","","","","","","NA"
"-73.74","45.47","MONTREAL/PIERRE ELLIOTT TRUDEAU INTL","702S006","2010-01-19 19:00","2010","01","19","19:00","0.4","","-0.5","","94","","","","2","","6","","","","100.76","","","","","","NA"
"-73.74","45.47","MONTREAL/PIERRE ELLIOTT TRUDEAU INTL","702S006","2010-01-19 20:00","2010","01","19","20:00","-0.1","","-0.8","","95","","","","36","","7","","","","100.78","","","","-3","","NA"
"-73.74","45.47","MONTREAL/PIERRE ELLIOTT TRUDEAU INTL","702S006","2010-01-19 21:00","2010","01","19","21:00","-0.3","","-1.0","","95","","","","2","","9","","","","100.80","","","","-3","","NA"
"-73.74","45.47","MONTREAL/PIERRE ELLIOTT TRUDEAU INTL","702S006","2010-01-19 22:00","2010","01","19","22:00","-0.8","","-1.5","","95","","","","2","","11","","","","100.80","","","","-5","","NA"
"-73.74","45.47","MONTREAL/PIERRE ELLIOTT TRUDEAU INTL","702S006","2010-01-19 23:00","2010","01","19","23:00","-0.5","","-1.1","","96","","","","2","","9","","","","100.81","","","","-4","","NA"
"-73.74","45.47","MONTREAL/PIERRE ELLIOTT TRUDEAU INTL","702S006","2010-01-20 00:00","2010","01","20","00:00","-0.6","","-1.2","","96","","","","2","","9","","","","100.79","","","","-4","","NA"
"-73.74","45.47","MONTREAL/PIERRE ELLIOTT TRUDEAU INTL","702S006","2010-01-20 01:00","2010","01","20","01:00","-1.2","","-1.7","","96","","","","1","","7","","","","100.78","","","","-4","","NA"
"-73.74","45.47","MONTREAL/PIERRE ELLIOTT TRUDEAU INTL","702S006","2010-01-20 02:00","2010","01","20","02:00","-1.4","","-1.9","","96","","","","2","","11","","","","100.82","","","","-5","","NA"
"-73.74","45.47","MONTREAL/PIERRE ELLIOTT TRUDEAU INTL","702S006","2010-01-20 03:00","2010","01","20","03:00","-1.5","","-2.1","","96","","","","2","","11","","","","100.83","","","","-5","","NA"
"-73.74","45.47","MONTREAL/PIERRE ELLIOTT TRUDEAU INTL","702S006","2010-01-20 04:00","2010","01","20","04:00","-1.4","","-2.1","","95","","","","3","","9","","","","100.84","","","","-5","","NA"
"-73.74","45.47","MONTREAL/PIERRE ELLIOTT TRUDEAU INTL","702S006","2010-01-20 05:00","2010","01","20","05:00","-1.5","","-2.2","","95","","","","2","","7","","","","100.85","","","","-4","","NA"
"-73.74","45.47","MONTREAL/PIERRE ELLIOTT TRUDEAU INTL","702S006","2010-01-20 06:00","2010","01","20","06:00","-1.6","","-2.4","","94","","","","1","","11","","","","100.89","","","","-5","","NA"
"-73.74","45.47","MONTREAL/PIERRE ELLIOTT TRUDEAU INTL","702S006","2010-01-20 07:00","2010","01","20","07:00","-1.8","","-2.6","","94","","","","2","","13","","","","100.94","","","","-6","","NA"
"-73.74","45.47","MONTREAL/PIERRE ELLIOTT TRUDEAU INTL","702S006","2010-01-20 08:00","2010","01","20","08:00","-1.9","","-2.9","","93","","","","2","","13","","","","101.00","","","","-6","","NA"
"-73.74","45.47","MONTREAL/PIERRE ELLIOTT TRUDEAU INTL","702S006","2010-01-20 09:00","2010","01","20","09:00","-1.7","","-2.8","","92","","","","2","","13","","","","101.06","","","","-6","","NA"
"-73.74","45.47","MONTREAL/PIERRE ELLIOTT TRUDEAU INTL","702S006","2010-01-20 10:00","2010","01","20","10:00","-1.5","","-2.9","","90","","","","1","","13","","","","101.09","","","","-6","","NA"
"-73.74","45.47","MONTREAL/PIERRE ELLIOTT TRUDEAU INTL","702S006","2010-01-20 11:00","2010","01","20","11:00","-1.3","","-3.1","","88","","","","2","","13","","","","101.10","","","","-6","","NA"
"-73.74","45.47","MONTREAL/PIERRE ELLIOTT TRUDEAU INTL","702S006","2010-01-20 12:00","2010","01","20","12:00","-0.6","","-3.1","","83","","","","1","","17","","","","101.06","","","","-6","","NA"
"-73.74","45.47","MONTREAL/PIERRE ELLIOTT TRUDEAU INTL","702S006","2010-01-20 13:00","2010","01","20","13:00","-0.2","","-3.1","","81","","","","1","","15","","","","101.07","","","","-5","","NA"
"-73.74","45.47","MONTREAL/PIERRE ELLIOTT TRUDEAU INTL","702S006","2010-01-20 14:00","2010","01","20","14:00","0.1","","-3.4","","77","","","","2","","11","","","","101.07","","","","","","NA"
"-73.74","45.47","MONTREAL/PIERRE ELLIOTT TRUDEAU INTL","702S006","2010-01-20 15:00","2010","01","20","15:00","0.5","","-3.4","","75","","","","1","","9","","","","101.13","","","","","","NA"
"-73.74","45.47","MONTREAL/PIERRE ELLIOTT TRUDEAU INTL","702S006","2010-01-20 16:00","2010","01","20","16:00","0.3","","-2.7","","80","","","","30","","9","","","","101.20","","","","","","NA"
"-73.74","45.47","MONTREAL/PIERRE ELLIOTT TRUDEAU INTL","702S006","2010-01-20 17:00","2010","01","20","17:00","-0.3","","-2.8","","83","","","","28","","7","","","","101.24","","","","-3","","NA"
"-73.74","45.47","MONTREAL/PIERRE ELLIOTT TRUDEAU INTL","702S006","2010-01-20 18:00","2010","01","20","18:00","-0.3","","-2.5","","85","","","","28","","7","","","","101.29","","","","-3","","NA"
"-73.74","45.47","MONTREAL/PIERRE ELLIOTT TRUDEAU INTL","702S006","2010-01-20 19:00","2010","01","20","19:00","-0.1","","-2.2","","86","","","","28","","11","","","","101.33","","","","-4","","NA"
"-73.74","45.47","MONTREAL/PIERRE ELLIOTT TRUDEAU INTL","702S006","2010-01-20 20:00","2010","01","20","20:00","-0.4","","-2.7","","84","","","","29","","11","","","","101.36","","","","-4","","NA"
"-73.74","45.47","MONTREAL/PIERRE ELLIOTT TRUDEAU INTL","702S006","2010-01-20 21:00","2010","01","20","21:00","-1.6","","-4.2","","82","","","","27","","11","","","","101.43","","","","-5","","NA"
"-73.74","45.47","MONTREAL/PIERRE ELLIOTT TRUDEAU INTL","702S006","2010-01-20 22:00","2010","01","20","22:00","-2.4","","-4.7","","84","","","","29","","13","","","","101.47","","","","-7","","NA"
"-73.74","45.47","MONTREAL/PIERRE ELLIOTT TRUDEAU INTL","702S006","2010-01-20 23:00","2010","01","20","23:00","-3.4","","-5.6","","85","","","","30","","7","","","","101.54","","","","-6","","NA"
"-73.74","45.47","MONTREAL/PIERRE ELLIOTT TRUDEAU INTL","702S006","2010-01-21 00:00","2010","01","21","00:00","-4.3","","-6.4","","85","","","","23","","6","","","","101.58","","","","-7","","NA"
"-73.74","45.47","MONTREAL/PIERRE ELLIOTT TRUDEAU INTL","702S006","2010-01-21 01:00","2010","01","21","01:00","-6.0","","-7.8","","87","","","","26","","7","","","","101.58","","","","-9","","NA"
"-73.74","45.47","MONTREAL/PIERRE ELLIOTT TRUDEAU INTL","702S006","2010-01-21 02:00","2010","01","21","02:00","-5.7","","-7.5","","87","","","","26","","11","","","","101.66","","","","-10","","NA"
"-73.74","45.47","MONTREAL/PIERRE ELLIOTT TRUDEAU INTL","702S006","2010-01-21 03:00","2010","01","21","03:00","-5.3","","-7.0","","88","","","","26","","17","","","","101.69","","","","-11","","NA"
"-73.74","45.47","MONTREAL/PIERRE ELLIOTT TRUDEAU INTL","702S006","2010-01-21 04:00","2010","01","21","04:00","-4.9","","-6.7","","87","","","","26","","19","","","","101.71","","","","-11","","NA"
"-73.74","45.47","MONTREAL/PIERRE ELLIOTT TRUDEAU INTL","702S006","2010-01-21 05:00","2010","01","21","05:00","-4.9","","-6.6","","88","","","","25","","11","","","","101.78","","","","-9","","NA"
"-73.74","45.47","MONTREAL/PIERRE ELLIOTT TRUDEAU INTL","702S006","2010-01-21 06:00","2010","01","21","06:00","-4.8","","-6.6","","87","","","","25","","13","","","","101.80","","","","-10","","NA"
"-73.74","45.47","MONTREAL/PIERRE ELLIOTT TRUDEAU INTL","702S006","2010-01-21 07:00","2010","01","21","07:00","-5.0","","-6.8","","87","","","","24","","11","","","","101.83","","","","-10","","NA"
"-73.74","45.47","MONTREAL/PIERRE ELLIOTT TRUDEAU INTL","702S006","2010-01-21 08:00","2010","01","21","08:00","-5.0","","-6.9","","86","","","","26","","17","","","","101.86","","","","-11","","NA"
"-73.74","45.47","MONTREAL/PIERRE ELLIOTT TRUDEAU INTL","702S006","2010-01-21 09:00","2010","01","21","09:00","-4.8","","-6.9","","85","","","","26","","13","","","","101.90","","","","-10","","NA"
"-73.74","45.47","MONTREAL/PIERRE ELLIOTT TRUDEAU INTL","702S006","2010-01-21 10:00","2010","01","21","10:00","-4.5","","-6.9","","83","","","","25","","13","","","","101.88","","","","-10","","NA"
"-73.74","45.47","MONTREAL/PIERRE ELLIOTT TRUDEAU INTL","702S006","2010-01-21 11:00","2010","01","21","11:00","-3.9","","-6.5","","82","","","","27","","19","","","","101.94","","","","-10","","NA"
"-73.74","45.47","MONTREAL/PIERRE ELLIOTT TRUDEAU INTL","702S006","2010-01-21 12:00","2010","01","21","12:00","-4.1","","-6.8","","81","","","","26","","22","","","","101.90","","","","-11","","NA"
"-73.74","45.47","MONTREAL/PIERRE ELLIOTT TRUDEAU INTL","702S006","2010-01-21 13:00","2010","01","21","13:00","-4.0","","-6.9","","80","","","","27","","26","","","","101.89","","","","-11","","NA"
"-73.74","45.47","MONTREAL/PIERRE ELLIOTT TRUDEAU INTL","702S006","2010-01-21 14:00","2010","01","21","14:00","-4.3","","-7.1","","81","","","","27","","26","","","","101.89","","","","-12","","NA"
"-73.74","45.47","MONTREAL/PIERRE ELLIOTT TRUDEAU INTL","702S006","2010-01-21 15:00","2010","01","21","15:00","-4.3","","-7.2","","80","","","","26","","19","","","","101.91","","","","-10","","NA"
"-73.74","45.47","MONTREAL/PIERRE ELLIOTT TRUDEAU INTL","702S006","2010-01-21 16:00","2010","01","21","16:00","-4.6","","-7.4","","81","","","","24","","15","","","","101.89","","","","-10","","NA"
"-73.74","45.47","MONTREAL/PIERRE ELLIOTT TRUDEAU INTL","702S006","2010-01-21 17:00","2010","01","21","17:00","-5.3","","-7.7","","83","","","","23","","11","","","","101.87","","","","-10","","NA"
"-73.74","45.47","MONTREAL/PIERRE ELLIOTT TRUDEAU INTL","702S006","2010-01-21 18:00","2010","01","21","18:00","-5.7","","-7.8","","85","","","","24","","13","","","","101.84","","","","-11","","NA"
"-73.74","45.47","MONTREAL/PIERRE ELLIOTT TRUDEAU INTL","702S006","2010-01-21 19:00","2010","01","21","19:00","-6.4","","-8.3","","86","","","","24","","7","","","","101.81","","","","-10","","NA"
"-73.74","45.47","MONTREAL/PIERRE ELLIOTT TRUDEAU INTL","702S006","2010-01-21 20:00","2010","01","21","20:00","-6.7","","-8.4","","88","","","","23","","7","","","","101.75","","","","-10","","NA"
"-73.74","45.47","MONTREAL/PIERRE ELLIOTT TRUDEAU INTL","702S006","2010-01-21 21:00","2010","01","21","21:00","-7.2","","-8.8","","88","","","","24","","7","","","","101.67","","","","-11","","NA"
"-73.74","45.47","MONTREAL/PIERRE ELLIOTT TRUDEAU INTL","702S006","2010-01-21 22:00","2010","01","21","22:00","-7.6","","-9.0","","90","","","","25","","9","","","","101.62","","","","-12","","NA"
"-73.74","45.47","MONTREAL/PIERRE ELLIOTT TRUDEAU INTL","702S006","2010-01-21 23:00","2010","01","21","23:00","-7.7","","-9.1","","90","","","","26","","6","","","","101.57","","","","-11","","NA"
"-73.74","45.47","MONTREAL/PIERRE ELLIOTT TRUDEAU INTL","702S006","2010-01-22 00:00","2010","01","22","00:00","-8.1","","-9.6","","89","","","","24","","7","","","","101.55","","","","-12","","NA"
"-73.74","45.47","MONTREAL/PIERRE ELLIOTT TRUDEAU INTL","702S006","2010-01-22 01:00","2010","01","22","01:00","-8.2","","-9.6","","90","","","","23","","11","","","","101.59","","","","-13","","NA"
"-73.74","45.47","MONTREAL/PIERRE ELLIOTT TRUDEAU INTL","702S006","2010-01-22 02:00","2010","01","22","02:00","-8.4","","-9.9","","89","","","","26","","9","","","","101.63","","","","-13","","NA"
"-73.74","45.47","MONTREAL/PIERRE ELLIOTT TRUDEAU INTL","702S006","2010-01-22 03:00","2010","01","22","03:00","-8.9","","-10.3","","90","","","","21","","6","","","","101.64","","","","-12","","NA"
"-73.74","45.47","MONTREAL/PIERRE ELLIOTT TRUDEAU INTL","702S006","2010-01-22 04:00","2010","01","22","04:00","-9.5","","-10.9","","90","","","","23","","9","","","","101.59","","","","-14","","NA"
"-73.74","45.47","MONTREAL/PIERRE ELLIOTT TRUDEAU INTL","702S006","2010-01-22 05:00","2010","01","22","05:00","-10.1","","-11.4","","90","","","","23","","2","","","","101.57","","","","-11","","NA"
"-73.74","45.47","MONTREAL/PIERRE ELLIOTT TRUDEAU INTL","702S006","2010-01-22 06:00","2010","01","22","06:00","-11.1","","-12.3","","91","","","","","","0","","","","101.55","","","","","","NA"
"-73.74","45.47","MONTREAL/PIERRE ELLIOTT TRUDEAU INTL","702S006","2010-01-22 07:00","2010","01","22","07:00","-10.5","","-11.6","","92","","","","2","","7","","","","101.52","","","","-15","","NA"
"-73.74","45.47","MONTREAL/PIERRE ELLIOTT TRUDEAU INTL","702S006","2010-01-22 08:00","2010","01","22","08:00","-11.2","","-12.3","","92","","","","1","","6","","","","101.59","","","","-15","","NA"
"-73.74","45.47","MONTREAL/PIERRE ELLIOTT TRUDEAU INTL","702S006","2010-01-22 09:00","2010","01","22","09:00","-7.4","","-8.8","","90","","","","2","","6","","","","101.64","","","","-11","","NA"
"-73.74","45.47","MONTREAL/PIERRE ELLIOTT TRUDEAU INTL","702S006","2010-01-22 10:00","2010","01","22","10:00","-6.7","","-8.9","","84","","","","22","","2","","","","101.69","","","","-8","","NA"
"-73.74","45.47","MONTREAL/PIERRE ELLIOTT TRUDEAU INTL","702S006","2010-01-22 11:00","2010","01","22","11:00","-3.8","","-7.0","","78","","","","17","","6","","","","101.72","","","","-6","","NA"
"-73.74","45.47","MONTREAL/PIERRE ELLIOTT TRUDEAU INTL","702S006","2010-01-22 12:00","2010","01","22","12:00","-3.2","","-7.8","","70","","","","5","","13","","","","101.65","","","","-8","","NA"
"-73.74","45.47","MONTREAL/PIERRE ELLIOTT TRUDEAU INTL","702S006","2010-01-22 13:00","2010","01","22","13:00","-2.7","","-7.7","","68","","","","3","","13","","","","101.60","","","","-7","","NA"
"-73.74","45.47","MONTREAL/PIERRE ELLIOTT TRUDEAU INTL","702S006","2010-01-22 14:00","2010","01","22","14:00","-2.5","","-7.8","","67","","","","2","","20","","","","101.59","","","","-8","","NA"
"-73.74","45.47","MONTREAL/PIERRE ELLIOTT TRUDEAU INTL","702S006","2010-01-22 15:00","2010","01","22","15:00","-2.0","","-7.7","","65","","","","3","","15","","","","101.63","","","","-7","","NA"
"-73.74","45.47","MONTREAL/PIERRE ELLIOTT TRUDEAU INTL","702S006","2010-01-22 16:00","2010","01","22","16:00","-1.9","","-8.2","","62","","","","5","","13","","","","101.67","","","","-6","","NA"
"-73.74","45.47","MONTREAL/PIERRE ELLIOTT TRUDEAU INTL","702S006","2010-01-22 17:00","2010","01","22","17:00","-2.9","","-9.0","","63","","","","5","","9","","","","101.73","","","","-6","","NA"
"-73.74","45.47","MONTREAL/PIERRE ELLIOTT TRUDEAU INTL","702S006","2010-01-22 18:00","2010","01","22","18:00","-3.3","","-10.4","","58","","","","5","","7","","","","101.79","","","","-6","","NA"
"-73.74","45.47","MONTREAL/PIERRE ELLIOTT TRUDEAU INTL","702S006","2010-01-22 19:00","2010","01","22","19:00","-3.8","","-11.3","","56","","","","4","","9","","","","101.86","","","","-8","","NA"
"-73.74","45.47","MONTREAL/PIERRE ELLIOTT TRUDEAU INTL","702S006","2010-01-22 20:00","2010","01","22","20:00","-4.2","","-11.8","","55","","","","5","","11","","","","101.91","","","","-9","","NA"
"-73.74","45.47","MONTREAL/PIERRE ELLIOTT TRUDEAU INTL","702S006","2010-01-22 21:00","2010","01","22","21:00","-4.5","","-13.1","","51","","","","5","","11","","","","101.98","","","","-9","","NA"
"-73.74","45.47","MONTREAL/PIERRE ELLIOTT TRUDEAU INTL","702S006","2010-01-22 22:00","2010","01","22","22:00","-6.8","","-12.2","","65","","","","2","","6","","","","102.06","","","","-10","","NA"
"-73.74","45.47","MONTREAL/PIERRE ELLIOTT TRUDEAU INTL","702S006","2010-01-22 23:00","2010","01","22","23:00","-7.8","","-12.5","","69","","","","3","","6","","","","102.08","","","","-11","","NA"
"-73.74","45.47","MONTREAL/PIERRE ELLIOTT TRUDEAU INTL","702S006","2010-01-23 00:00","2010","01","23","00:00","-9.5","","-15.3","","63","","","","1","","7","","","","102.11","","","","-13","","NA"
"-73.74","45.47","MONTREAL/PIERRE ELLIOTT TRUDEAU INTL","702S006","2010-01-23 01:00","2010","01","23","01:00","-8.7","","-14.0","","65","","","","3","","9","","","","102.09","","","","-13","","NA"
"-73.74","45.47","MONTREAL/PIERRE ELLIOTT TRUDEAU INTL","702S006","2010-01-23 02:00","2010","01","23","02:00","-9.3","","-14.4","","66","","","","3","","7","","","","102.12","","","","-13","","NA"
"-73.74","45.47","MONTREAL/PIERRE ELLIOTT TRUDEAU INTL","702S006","2010-01-23 03:00","2010","01","23","03:00","-10.6","","-14.8","","71","","","","2","","6","","","","102.17","","","","-14","","NA"
"-73.74","45.47","MONTREAL/PIERRE ELLIOTT TRUDEAU INTL","702S006","2010-01-23 04:00","2010","01","23","04:00","-12.2","","-15.6","","76","","","","32","","4","","","","102.22","","","","-15","","NA"
"-73.74","45.47","MONTREAL/PIERRE ELLIOTT TRUDEAU INTL","702S006","2010-01-23 05:00","2010","01","23","05:00","-14.4","","-16.7","","83","","","","30","","6","","","","102.30","","","","-19","","NA"
"-73.74","45.47","MONTREAL/PIERRE ELLIOTT TRUDEAU INTL","702S006","2010-01-23 06:00","2010","01","23","06:00","-13.3","","-15.4","","84","","","","33","","6","","","","102.32","","","","-17","","NA"
"-73.74","45.47","MONTREAL/PIERRE ELLIOTT TRUDEAU INTL","702S006","2010-01-23 07:00","2010","01","23","07:00","-12.5","","-15.6","","78","","","","3","","9","","","","102.32","","","","-18","","NA"
"-73.74","45.47","MONTREAL/PIERRE ELLIOTT TRUDEAU INTL","702S006","2010-01-23 08:00","2010","01","23","08:00","-14.4","","-16.3","","85","","","","3","","4","","","","102.35","","","","-17","","NA"
"-73.74","45.47","MONTREAL/PIERRE ELLIOTT TRUDEAU INTL","702S006","2010-01-23 09:00","2010","01","23","09:00","-8.8","","-12.4","","75","","","","11","","4","","","","102.39","","","","-11","","NA"
"-73.74","45.47","MONTREAL/PIERRE ELLIOTT TRUDEAU INTL","702S006","2010-01-23 10:00","2010","01","23","10:00","-7.2","","-13.0","","63","","","","16","","4","","","","102.36","","","","-9","","NA"
"-73.74","45.47","MONTREAL/PIERRE ELLIOTT TRUDEAU INTL","702S006","2010-01-23 11:00","2010","01","23","11:00","-7.5","","-12.3","","68","","","","28","","4","","","","102.34","","","","-10","","NA"
"-73.74","45.47","MONTREAL/PIERRE ELLIOTT TRUDEAU INTL","702S006","2010-01-23 12:00","2010","01","23","12:00","-5.8","","-12.5","","59","","","","24","","4","","","","102.26","","","","-8","","NA"
"-73.74","45.47","MONTREAL/PIERRE ELLIOTT TRUDEAU INTL","702S006","2010-01-23 13:00","2010","01","23","13:00","-5.4","","-13.0","","55","","","","29","","4","","","","102.20","","","","-7","","NA"
"-73.74","45.47","MONTREAL/PIERRE ELLIOTT TRUDEAU INTL","702S006","2010-01-23 14:00","2010","01","23","14:00","-3.4","","-16.5","","36","","","","9","","2","","","","102.13","","","","-4","","NA"
"-73.74","45.47","MONTREAL/PIERRE ELLIOTT TRUDEAU INTL","702S006","2010-01-23 15:00","2010","01","23","15:00","-4.0","","-13.4","","48","","","","18","","6","","","","102.15","","","","-7","","NA"
"-73.74","45.47","MONTREAL/PIERRE ELLIOTT TRUDEAU INTL","702S006","2010-01-23 16:00","2010","01","23","16:00","-4.6","","-13.2","","51","","","","17","","6","","","","102.18","","","","-7","","NA"
"-73.74","45.47","MONTREAL/PIERRE ELLIOTT TRUDEAU INTL","702S006","2010-01-23 17:00","2010","01","23","17:00","-6.8","","-12.8","","62","","","","16","","7","","","","102.19","","","","-10","","NA"
"-73.74","45.47","MONTREAL/PIERRE ELLIOTT TRUDEAU INTL","702S006","2010-01-23 18:00","2010","01","23","18:00","-8.0","","-13.8","","63","","","","13","","9","","","","102.19","","","","-13","","NA"
"-73.74","45.47","MONTREAL/PIERRE ELLIOTT TRUDEAU INTL","702S006","2010-01-23 19:00","2010","01","23","19:00","-7.8","","-14.0","","61","","","","13","","4","","","","102.20","","","","-10","","NA"
"-73.74","45.47","MONTREAL/PIERRE ELLIOTT TRUDEAU INTL","702S006","2010-01-23 20:00","2010","01","23","20:00","-7.7","","-13.9","","61","","","","12","","4","","","","102.13","","","","-10","","NA"
"-73.74","45.47","MONTREAL/PIERRE ELLIOTT TRUDEAU INTL","702S006","2010-01-23 21:00","2010","01","23","21:00","-7.9","","-13.4","","65","","","","10","","4","","","","102.10","","","","-10","","NA"
"-73.74","45.47","MONTREAL/PIERRE ELLIOTT TRUDEAU INTL","702S006","2010-01-23 22:00","2010","01","23","22:00","-7.7","","-13.2","","65","","","","9","","6","","","","102.04","","","","-11","","NA"
"-73.74","45.47","MONTREAL/PIERRE ELLIOTT TRUDEAU INTL","702S006","2010-01-23 23:00","2010","01","23","23:00","-7.3","","-14.2","","58","","","","9","","7","","","","101.98","","","","-11","","NA"
"-73.74","45.47","MONTREAL/PIERRE ELLIOTT TRUDEAU INTL","702S006","2010-01-24 00:00","2010","01","24","00:00","-6.9","","-14.4","","55","","","","7","","7","","","","101.93","","","","-10","","NA"
"-73.74","45.47","MONTREAL/PIERRE ELLIOTT TRUDEAU INTL","702S006","2010-01-24 01:00","2010","01","24","01:00","-7.2","","-13.9","","59","","","","6","","9","","","","101.83","","","","-12","","NA"
"-73.74","45.47","MONTREAL/PIERRE ELLIOTT TRUDEAU INTL","702S006","2010-01-24 02:00","2010","01","24","02:00","-6.9","","-14.3","","56","","","","4","","13","","","","101.84","","","","-12","","NA"
"-73.74","45.47","MONTREAL/PIERRE ELLIOTT TRUDEAU INTL","702S006","2010-01-24 03:00","2010","01","24","03:00","-6.8","","-13.2","","60","","","","4","","9","","","","101.82","","","","-11","","NA"
"-73.74","45.47","MONTREAL/PIERRE ELLIOTT TRUDEAU INTL","702S006","2010-01-24 04:00","2010","01","24","04:00","-7.2","","-13.9","","59","","","","3","","15","","","","101.79","","","","-13","","NA"
"-73.74","45.47","MONTREAL/PIERRE ELLIOTT TRUDEAU INTL","702S006","2010-01-24 05:00","2010","01","24","05:00","-8.0","","-12.5","","70","","","","2","","17","","","","101.72","","","","-15","","NA"
"-73.74","45.47","MONTREAL/PIERRE ELLIOTT TRUDEAU INTL","702S006","2010-01-24 06:00","2010","01","24","06:00","-6.8","","-12.9","","62","","","","4","","11","","","","101.66","","","","-12","","NA"
"-73.74","45.47","MONTREAL/PIERRE ELLIOTT TRUDEAU INTL","702S006","2010-01-24 07:00","2010","01","24","07:00","-7.0","","-14.2","","56","","","","4","","15","","","","101.58","","","","-13","","NA"
"-73.74","45.47","MONTREAL/PIERRE ELLIOTT TRUDEAU INTL","702S006","2010-01-24 08:00","2010","01","24","08:00","-7.3","","-14.0","","59","","","","4","","13","","","","101.58","","","","-13","","NA"
"-73.74","45.47","MONTREAL/PIERRE ELLIOTT TRUDEAU INTL","702S006","2010-01-24 09:00","2010","01","24","09:00","-6.3","","-12.9","","59","","","","3","","13","","","","101.52","","","","-12","","NA"
"-73.74","45.47","MONTREAL/PIERRE ELLIOTT TRUDEAU INTL","702S006","2010-01-24 10:00","2010","01","24","10:00","-5.0","","-11.5","","60","","","","4","","9","","","","101.44","","","","-9","","NA"
"-73.74","45.47","MONTREAL/PIERRE ELLIOTT TRUDEAU INTL","702S006","2010-01-24 11:00","2010","01","24","11:00","-2.8","","-9.8","","58","","","","7","","7","","","","101.33","","","","-6","","NA"
"-73.74","45.47","MONTREAL/PIERRE ELLIOTT TRUDEAU INTL","702S006","2010-01-24 12:00","2010","01","24","12:00","-3.4","","-9.1","","65","","","","2","","15","","","","101.29","","","","-9","","NA"
"-73.74","45.47","MONTREAL/PIERRE ELLIOTT TRUDEAU INTL","702S006","2010-01-24 13:00","2010","01","24","13:00","-3.0","","-8.7","","65","","","","3","","20","","","","101.13","","","","-9","","NA"
"-73.74","45.47","MONTREAL/PIERRE ELLIOTT TRUDEAU INTL","702S006","2010-01-24 14:00","2010","01","24","14:00","-0.9","","-8.9","","55","","","","4","","15","","","","101.09","","","","-6","","NA"
"-73.74","45.47","MONTREAL/PIERRE ELLIOTT TRUDEAU INTL","702S006","2010-01-24 15:00","2010","01","24","15:00","-1.2","","-8.9","","56","","","","3","","15","","","","101.09","","","","-6","","NA"
"-73.74","45.47","MONTREAL/PIERRE ELLIOTT TRUDEAU INTL","702S006","2010-01-24 16:00","2010","01","24","16:00","-1.5","","-8.8","","57","","","","3","","15","","","","101.04","","","","-6","","NA"
"-73.74","45.47","MONTREAL/PIERRE ELLIOTT TRUDEAU INTL","702S006","2010-01-24 17:00","2010","01","24","17:00","-1.8","","-8.4","","61","","","","4","","17","","","","100.97","","","","-7","","NA"
"-73.74","45.47","MONTREAL/PIERRE ELLIOTT TRUDEAU INTL","702S006","2010-01-24 18:00","2010","01","24","18:00","-1.4","","-7.2","","65","","","","3","","11","","","","100.94","","","","-5","","NA"
"-73.74","45.47","MONTREAL/PIERRE ELLIOTT TRUDEAU INTL","702S006","2010-01-24 19:00","2010","01","24","19:00","-0.8","","-6.1","","67","","","","4","","11","","","","100.90","","","","-5","","NA"
"-73.74","45.47","MONTREAL/PIERRE ELLIOTT TRUDEAU INTL","702S006","2010-01-24 20:00","2010","01","24","20:00","1.0","","-2.5","","77","","","","5","","7","","","","100.81","","","","","","NA"
"-73.74","45.47","MONTREAL/PIERRE ELLIOTT TRUDEAU INTL","702S006","2010-01-24 21:00","2010","01","24","21:00","2.4","","0.3","","86","","","","13","","19","","","","100.68","","","","","","NA"
"-73.74","45.47","MONTREAL/PIERRE ELLIOTT TRUDEAU INTL","702S006","2010-01-24 22:00","2010","01","24","22:00","2.5","","0.7","","88","","","","13","","20","","","","100.57","","","","","","NA"
"-73.74","45.47","MONTREAL/PIERRE ELLIOTT TRUDEAU INTL","702S006","2010-01-24 23:00","2010","01","24","23:00","2.4","","1.2","","92","","","","13","","28","","","","100.42","","","","","","NA"
"-73.74","45.47","MONTREAL/PIERRE ELLIOTT TRUDEAU INTL","702S006","2010-01-25 00:00","2010","01","25","00:00","2.9","","1.8","","92","","","","13","","33","","","","100.28","","","","","","NA"
"-73.74","45.47","MONTREAL/PIERRE ELLIOTT TRUDEAU INTL","702S006","2010-01-25 01:00","2010","01","25","01:00","2.7","","1.9","","94","","","","12","","28","","","","100.17","","","","","","NA"
"-73.74","45.47","MONTREAL/PIERRE ELLIOTT TRUDEAU INTL","702S006","2010-01-25 02:00","2010","01","25","02:00","3.1","","2.4","","95","","","","11","","22","","","","100.08","","","","","","NA"
"-73.74","45.47","MONTREAL/PIERRE ELLIOTT TRUDEAU INTL","702S006","2010-01-25 03:00","2010","01","25","03:00","3.4","","2.7","","95","","","","10","","13","","","","99.98","","","","","","NA"
"-73.74","45.47","MONTREAL/PIERRE ELLIOTT TRUDEAU INTL","702S006","2010-01-25 04:00","2010","01","25","04:00","4.1","","3.5","","96","","","","10","","15","","","","99.87","","","","","","NA"
"-73.74","45.47","MONTREAL/PIERRE ELLIOTT TRUDEAU INTL","702S006","2010-01-25 05:00","2010","01","25","05:00","3.7","","3.1","","96","","","","11","","26","","","","99.73","","","","","","NA"
"-73.74","45.47","MONTREAL/PIERRE ELLIOTT TRUDEAU INTL","702S006","2010-01-25 06:00","2010","01","25","06:00","4.2","","3.6","","96","","","","10","","17","","","","99.63","","","","","","NA"
"-73.74","45.47","MONTREAL/PIERRE ELLIOTT TRUDEAU INTL","702S006","2010-01-25 07:00","2010","01","25","07:00","4.4","","3.7","","95","","","","10","","13","","","","99.51","","","","","","NA"
"-73.74","45.47","MONTREAL/PIERRE ELLIOTT TRUDEAU INTL","702S006","2010-01-25 08:00","2010","01","25","08:00","4.9","","4.0","","94","","","","9","","15","","","","99.30","","","","","","NA"
"-73.74","45.47","MONTREAL/PIERRE ELLIOTT TRUDEAU INTL","702S006","2010-01-25 09:00","2010","01","25","09:00","6.2","","4.4","","88","","","","10","","19","","","","99.11","","","","","","NA"
"-73.74","45.47","MONTREAL/PIERRE ELLIOTT TRUDEAU INTL","702S006","2010-01-25 10:00","2010","01","25","10:00","6.9","","4.8","","86","","","","11","","19","","","","98.92","","","","","","NA"
"-73.74","45.47","MONTREAL/PIERRE ELLIOTT TRUDEAU INTL","702S006","2010-01-25 11:00","2010","01","25","11:00","7.4","","5.3","","87","","","","9","","15","","","","98.68","","","","","","NA"
"-73.74","45.47","MONTREAL/PIERRE ELLIOTT TRUDEAU INTL","702S006","2010-01-25 12:00","2010","01","25","12:00","8.0","","5.7","","85","","","","10","","15","","","","98.35","","","","","","NA"
"-73.74","45.47","MONTREAL/PIERRE ELLIOTT TRUDEAU INTL","702S006","2010-01-25 13:00","2010","01","25","13:00","7.7","","5.4","","85","","","","15","","15","","","","98.24","","","","","","NA"
"-73.74","45.47","MONTREAL/PIERRE ELLIOTT TRUDEAU INTL","702S006","2010-01-25 14:00","2010","01","25","14:00","6.1","","5.1","","93","","","","14","","17","","","","98.15","","","","","","NA"
"-73.74","45.47","MONTREAL/PIERRE ELLIOTT TRUDEAU INTL","702S006","2010-01-25 15:00","2010","01","25","15:00","7.4","","6.8","","96","","","","15","","20","","","","98.07","","","","","","NA"
"-73.74","45.47","MONTREAL/PIERRE ELLIOTT TRUDEAU INTL","702S006","2010-01-25 16:00","2010","01","25","16:00","7.1","","6.6","","97","","","","17","","19","","","","98.06","","","","","","NA"
"-73.74","45.47","MONTREAL/PIERRE ELLIOTT TRUDEAU INTL","702S006","2010-01-25 17:00","2010","01","25","17:00","6.6","","6.1","","97","","","","17","","15","","","","98.13","","","","","","NA"
"-73.74","45.47","MONTREAL/PIERRE ELLIOTT TRUDEAU INTL","702S006","2010-01-25 18:00","2010","01","25","18:00","6.9","","6.2","","95","","","","22","","15","","","","98.19","","","","","","NA"
"-73.74","45.47","MONTREAL/PIERRE ELLIOTT TRUDEAU INTL","702S006","2010-01-25 19:00","2010","01","25","19:00","6.9","","5.3","","90","","","","23","","28","","","","98.36","","","","","","NA"
"-73.74","45.47","MONTREAL/PIERRE ELLIOTT TRUDEAU INTL","702S006","2010-01-25 20:00","2010","01","25","20:00","5.0","","3.4","","89","","","","22","","26","","","","98.50","","","","","","NA"
"-73.74","45.47","MONTREAL/PIERRE ELLIOTT TRUDEAU INTL","702S006","2010-01-25 21:00","2010","01","25","21:00","3.9","","1.9","","87","","","","23","","32","","","","98.64","","","","","","NA"
"-73.74","45.47","MONTREAL/PIERRE ELLIOTT TRUDEAU INTL","702S006","2010-01-25 22:00","2010","01","25","22:00","3.1","","1.2","","87","","","","23","","30","","","","98.71","","","","","","NA"
"-73.74","45.47","MONTREAL/PIERRE ELLIOTT TRUDEAU INTL","702S006","2010-01-25 23:00","2010","01","25","23:00","2.4","","0.3","","86","","","","23","","35","","","","98.84","","","","","","NA"
"-73.74","45.47","MONTREAL/PIERRE ELLIOTT TRUDEAU INTL","702S006","2010-01-26 00:00","2010","01","26","00:00","2.4","","-0.5","","81","","","","24","","24","","","","98.91","","","","","","NA"
"-73.74","45.47","MONTREAL/PIERRE ELLIOTT TRUDEAU INTL","702S006","2010-01-26 01:00","2010","01","26","01:00","2.2","","-0.5","","82","","","","25","","22","","","","98.87","","","","","","NA"
"-73.74","45.47","MONTREAL/PIERRE ELLIOTT TRUDEAU INTL","702S006","2010-01-26 02:00","2010","01","26","02:00","1.9","","-1.4","","79","","","","22","","20","","","","98.88","","","","","","NA"
"-73.74","45.47","MONTREAL/PIERRE ELLIOTT TRUDEAU INTL","702S006","2010-01-26 03:00","2010","01","26","03:00","1.7","","-2.3","","75","","","","22","","17","","","","98.90","","","","","","NA"
"-73.74","45.47","MONTREAL/PIERRE ELLIOTT TRUDEAU INTL","702S006","2010-01-26 04:00","2010","01","26","04:00","1.5","","-2.3","","76","","","","23","","17","","","","98.91","","","","","","NA"
"-73.74","45.47","MONTREAL/PIERRE ELLIOTT TRUDEAU INTL","702S006","2010-01-26 05:00","2010","01","26","05:00","1.4","","-1.9","","79","","","","23","","19","","","","98.90","","","","","","NA"
"-73.74","45.47","MONTREAL/PIERRE ELLIOTT TRUDEAU INTL","702S006","2010-01-26 06:00","2010","01","26","06:00","1.4","","-2.2","","77","","","","22","","19","","","","98.95","","","","","","NA"
"-73.74","45.47","MONTREAL/PIERRE ELLIOTT TRUDEAU INTL","702S006","2010-01-26 07:00","2010","01","26","07:00","1.3","","-1.9","","79","","","","24","","22","","","","99.00","","","","","","NA"
"-73.74","45.47","MONTREAL/PIERRE ELLIOTT TRUDEAU INTL","702S006","2010-01-26 08:00","2010","01","26","08:00","1.0","","-0.8","","88","","","","24","","20","","","","99.03","","","","","","NA"
"-73.74","45.47","MONTREAL/PIERRE ELLIOTT TRUDEAU INTL","702S006","2010-01-26 09:00","2010","01","26","09:00","1.3","","-1.1","","84","","","","24","","19","","","","99.07","","","","","","NA"
"-73.74","45.47","MONTREAL/PIERRE ELLIOTT TRUDEAU INTL","702S006","2010-01-26 10:00","2010","01","26","10:00","1.4","","-1.3","","82","","","","24","","24","","","","99.12","","","","","","NA"
"-73.74","45.47","MONTREAL/PIERRE ELLIOTT TRUDEAU INTL","702S006","2010-01-26 11:00","2010","01","26","11:00","1.2","","-0.9","","86","","","","24","","20","","","","99.13","","","","","","NA"
"-73.74","45.47","MONTREAL/PIERRE ELLIOTT TRUDEAU INTL","702S006","2010-01-26 12:00","2010","01","26","12:00","1.2","","-0.8","","86","","","","24","","20","","","","99.10","","","","","","NA"
"-73.74","45.47","MONTREAL/PIERRE ELLIOTT TRUDEAU INTL","702S006","2010-01-26 13:00","2010","01","26","13:00","0.7","","-0.4","","92","","","","24","","19","","","","99.09","","","","","","NA"
"-73.74","45.47","MONTREAL/PIERRE ELLIOTT TRUDEAU INTL","702S006","2010-01-26 14:00","2010","01","26","14:00","1.1","","-0.2","","91","","","","23","","20","","","","99.13","","","","","","NA"
"-73.74","45.47","MONTREAL/PIERRE ELLIOTT TRUDEAU INTL","702S006","2010-01-26 15:00","2010","01","26","15:00","1.0","","-0.1","","92","","","","24","","22","","","","99.23","","","","","","NA"
"-73.74","45.47","MONTREAL/PIERRE ELLIOTT TRUDEAU INTL","702S006","2010-01-26 16:00","2010","01","26","16:00","0.7","","-0.2","","94","","","","25","","22","","","","99.32","","","","","","NA"
"-73.74","45.47","MONTREAL/PIERRE ELLIOTT TRUDEAU INTL","702S006","2010-01-26 17:00","2010","01","26","17:00","1.0","","0.0","","93","","","","24","","26","","","","99.42","","","","","","NA"
"-73.74","45.47","MONTREAL/PIERRE ELLIOTT TRUDEAU INTL","702S006","2010-01-26 18:00","2010","01","26","18:00","1.0","","-0.1","","92","","","","25","","22","","","","99.53","","","","","","NA"
"-73.74","45.47","MONTREAL/PIERRE ELLIOTT TRUDEAU INTL","702S006","2010-01-26 19:00","2010","01","26","19:00","1.2","","-0.2","","90","","","","25","","26","","","","99.63","","","","","","NA"
"-73.74","45.47","MONTREAL/PIERRE ELLIOTT TRUDEAU INTL","702S006","2010-01-26 20:00","2010","01","26","20:00","1.0","","-0.3","","91","","","","25","","26","","","","99.72","","","","","","NA"
"-73.74","45.47","MONTREAL/PIERRE ELLIOTT TRUDEAU INTL","702S006","2010-01-26 21:00","2010","01","26","21:00","1.0","","-0.6","","89","","","","24","","22","","","","99.79","","","","","","NA"
"-73.74","45.47","MONTREAL/PIERRE ELLIOTT TRUDEAU INTL","702S006","2010-01-26 22:00","2010","01","26","22:00","0.9","","-1.3","","85","","","","24","","32","","","","99.85","","","","","","NA"
"-73.74","45.47","MONTREAL/PIERRE ELLIOTT TRUDEAU INTL","702S006","2010-01-26 23:00","2010","01","26","23:00","0.8","","-1.6","","84","","","","24","","28","","","","99.91","","","","","","NA"
"-73.74","45.47","MONTREAL/PIERRE ELLIOTT TRUDEAU INTL","702S006","2010-01-27 00:00","2010","01","27","00:00","0.8","","-1.7","","83","","","","23","","28","","","","99.93","","","","","","NA"
"-73.74","45.47","MONTREAL/PIERRE ELLIOTT TRUDEAU INTL","702S006","2010-01-27 01:00","2010","01","27","01:00","0.7","","-1.9","","83","","","","24","","22","","","","99.99","","","","","","NA"
"-73.74","45.47","MONTREAL/PIERRE ELLIOTT TRUDEAU INTL","702S006","2010-01-27 02:00","2010","01","27","02:00","0.6","","-2.1","","82","","","","23","","20","","","","100.09","","","","","","NA"
"-73.74","45.47","MONTREAL/PIERRE ELLIOTT TRUDEAU INTL","702S006","2010-01-27 03:00","2010","01","27","03:00","0.5","","-2.1","","83","","","","23","","22","","","","100.13","","","","","","NA"
"-73.74","45.47","MONTREAL/PIERRE ELLIOTT TRUDEAU INTL","702S006","2010-01-27 04:00","2010","01","27","04:00","0.2","","-1.7","","87","","","","23","","22","","","","100.20","","","","","","NA"
"-73.74","45.47","MONTREAL/PIERRE ELLIOTT TRUDEAU INTL","702S006","2010-01-27 05:00","2010","01","27","05:00","-0.1","","-1.7","","89","","","","24","","22","","","","100.27","","","","-6","","NA"
"-73.74","45.47","MONTREAL/PIERRE ELLIOTT TRUDEAU INTL","702S006","2010-01-27 06:00","2010","01","27","06:00","-0.4","","-2.7","","84","","","","28","","22","","","","100.38","","","","-6","","NA"
"-73.74","45.47","MONTREAL/PIERRE ELLIOTT TRUDEAU INTL","702S006","2010-01-27 07:00","2010","01","27","07:00","-1.4","","-3.2","","88","","","","28","","24","","","","100.50","","","","-8","","NA"
"-73.74","45.47","MONTREAL/PIERRE ELLIOTT TRUDEAU INTL","702S006","2010-01-27 08:00","2010","01","27","08:00","-2.1","","-6.1","","74","","","","27","","28","","","","100.63","","","","-9","","NA"
"-73.74","45.47","MONTREAL/PIERRE ELLIOTT TRUDEAU INTL","702S006","2010-01-27 09:00","2010","01","27","09:00","-2.8","","-7.9","","68","","","","27","","26","","","","100.75","","","","-10","","NA"
"-73.74","45.47","MONTREAL/PIERRE ELLIOTT TRUDEAU INTL","702S006","2010-01-27 10:00","2010","01","27","10:00","-2.8","","-8.7","","64","","","","28","","30","","","","100.81","","","","-10","","NA"
"-73.74","45.47","MONTREAL/PIERRE ELLIOTT TRUDEAU INTL","702S006","2010-01-27 11:00","2010","01","27","11:00","-2.0","","-7.9","","64","","","","27","","20","","","","100.92","","","","-8","","NA"
"-73.74","45.47","MONTREAL/PIERRE ELLIOTT TRUDEAU INTL","702S006","2010-01-27 12:00","2010","01","27","12:00","-1.4","","-8.4","","59","","","","27","","22","","","","100.90","","","","-7","","NA"
"-73.74","45.47","MONTREAL/PIERRE ELLIOTT TRUDEAU INTL","702S006","2010-01-27 13:00","2010","01","27","13:00","-1.5","","-9.1","","56","","","","28","","24","","","","100.87","","","","-8","","NA"
"-73.74","45.47","MONTREAL/PIERRE ELLIOTT TRUDEAU INTL","702S006","2010-01-27 14:00","2010","01","27","14:00","-1.5","","-8.8","","57","","","","28","","13","","","","100.92","","","","-6","","NA"
"-73.74","45.47","MONTREAL/PIERRE ELLIOTT TRUDEAU INTL","702S006","2010-01-27 15:00","2010","01","27","15:00","-1.2","","-8.7","","57","","","","25","","6","","","","100.95","","","","-3","","NA"
"-73.74","45.47","MONTREAL/PIERRE ELLIOTT TRUDEAU INTL","702S006","2010-01-27 16:00","2010","01","27","16:00","-1.3","","-7.3","","64","","","","19","","7","","","","100.96","","","","-4","","NA"
"-73.74","45.47","MONTREAL/PIERRE ELLIOTT TRUDEAU INTL","702S006","2010-01-27 17:00","2010","01","27","17:00","-1.9","","-5.4","","77","","","","21","","11","","","","100.99","","","","-6","","NA"
"-73.74","45.47","MONTREAL/PIERRE ELLIOTT TRUDEAU INTL","702S006","2010-01-27 18:00","2010","01","27","18:00","-1.3","","-3.1","","88","","","","21","","15","","","","101.04","","","","-6","","NA"
"-73.74","45.47","MONTREAL/PIERRE ELLIOTT TRUDEAU INTL","702S006","2010-01-27 19:00","2010","01","27","19:00","-1.4","","-5.2","","75","","","","23","","19","","","","101.08","","","","-7","","NA"
"-73.74","45.47","MONTREAL/PIERRE ELLIOTT TRUDEAU INTL","702S006","2010-01-27 20:00","2010","01","27","20:00","-1.7","","-5.1","","78","","","","23","","19","","","","101.07","","","","-7","","NA"
"-73.74","45.47","MONTREAL/PIERRE ELLIOTT TRUDEAU INTL","702S006","2010-01-27 21:00","2010","01","27","21:00","-3.3","","-4.3","","93","","","","24","","28","","","","101.07","","","","-11","","NA"
"-73.74","45.47","MONTREAL/PIERRE ELLIOTT TRUDEAU INTL","702S006","2010-01-27 22:00","2010","01","27","22:00","-2.9","","-6.8","","74","","","","23","","20","","","","101.08","","","","-9","","NA"
"-73.74","45.47","MONTREAL/PIERRE ELLIOTT TRUDEAU INTL","702S006","2010-01-27 23:00","2010","01","27","23:00","-3.6","","-8.6","","68","","","","23","","17","","","","101.09","","","","-9","","NA"
"-73.74","45.47","MONTREAL/PIERRE ELLIOTT TRUDEAU INTL","702S006","2010-01-28 00:00","2010","01","28","00:00","-3.8","","-7.8","","74","","","","24","","9","","","","101.08","","","","-8","","NA"
"-73.74","45.47","MONTREAL/PIERRE ELLIOTT TRUDEAU INTL","702S006","2010-01-28 01:00","2010","01","28","01:00","-3.6","","-6.3","","82","","","","24","","7","","","","101.06","","","","-7","","NA"
"-73.74","45.47","MONTREAL/PIERRE ELLIOTT TRUDEAU INTL","702S006","2010-01-28 02:00","2010","01","28","02:00","-3.2","","-5.1","","87","","","","22","","11","","","","101.03","","","","-7","","NA"
"-73.74","45.47","MONTREAL/PIERRE ELLIOTT TRUDEAU INTL","702S006","2010-01-28 03:00","2010","01","28","03:00","-3.1","","-4.6","","89","","","","20","","19","","","","100.98","","","","-9","","NA"
"-73.74","45.47","MONTREAL/PIERRE ELLIOTT TRUDEAU INTL","702S006","2010-01-28 04:00","2010","01","28","04:00","-3.5","","-4.6","","92","","","","23","","9","","","","100.96","","","","-7","","NA"
"-73.74","45.47","MONTREAL/PIERRE ELLIOTT TRUDEAU INTL","702S006","2010-01-28 05:00","2010","01","28","05:00","-3.8","","-4.8","","93","","","","21","","13","","","","100.89","","","","-9","","NA"
"-73.74","45.47","MONTREAL/PIERRE ELLIOTT TRUDEAU INTL","702S006","2010-01-28 06:00","2010","01","28","06:00","-3.4","","-5.0","","89","","","","21","","17","","","","100.81","","","","-9","","NA"
"-73.74","45.47","MONTREAL/PIERRE ELLIOTT TRUDEAU INTL","702S006","2010-01-28 07:00","2010","01","28","07:00","-3.9","","-5.3","","90","","","","20","","13","","","","100.74","","","","-9","","NA"
"-73.74","45.47","MONTREAL/PIERRE ELLIOTT TRUDEAU INTL","702S006","2010-01-28 08:00","2010","01","28","08:00","-4.0","","-5.2","","91","","","","22","","9","","","","100.69","","","","-8","","NA"
"-73.74","45.47","MONTREAL/PIERRE ELLIOTT TRUDEAU INTL","702S006","2010-01-28 09:00","2010","01","28","09:00","-4.3","","-5.3","","93","","","","23","","11","","","","100.62","","","","-9","","NA"
"-73.74","45.47","MONTREAL/PIERRE ELLIOTT TRUDEAU INTL","702S006","2010-01-28 10:00","2010","01","28","10:00","-3.7","","-5.1","","90","","","","24","","11","","","","100.61","","","","-8","","NA"
"-73.74","45.47","MONTREAL/PIERRE ELLIOTT TRUDEAU INTL","702S006","2010-01-28 11:00","2010","01","28","11:00","-3.5","","-6.0","","83","","","","20","","7","","","","100.50","","","","-6","","NA"
"-73.74","45.47","MONTREAL/PIERRE ELLIOTT TRUDEAU INTL","702S006","2010-01-28 12:00","2010","01","28","12:00","-3.8","","-5.9","","85","","","","25","","4","","","","100.34","","","","-5","","NA"
"-73.74","45.47","MONTREAL/PIERRE ELLIOTT TRUDEAU INTL","702S006","2010-01-28 13:00","2010","01","28","13:00","-3.8","","-5.6","","87","","","","30","","9","","","","100.18","","","","-8","","NA"
"-73.74","45.47","MONTREAL/PIERRE ELLIOTT TRUDEAU INTL","702S006","2010-01-28 14:00","2010","01","28","14:00","-3.9","","-5.1","","91","","","","29","","4","","","","100.17","","","","-6","","NA"
"-73.74","45.47","MONTREAL/PIERRE ELLIOTT TRUDEAU INTL","702S006","2010-01-28 15:00","2010","01","28","15:00","-4.2","","-5.3","","92","","","","19","","11","","","","100.15","","","","-9","","NA"
"-73.74","45.47","MONTREAL/PIERRE ELLIOTT TRUDEAU INTL","702S006","2010-01-28 16:00","2010","01","28","16:00","-5.3","","-6.3","","93","","","","27","","35","","","","100.23","","","","-14","","NA"
"-73.74","45.47","MONTREAL/PIERRE ELLIOTT TRUDEAU INTL","702S006","2010-01-28 17:00","2010","01","28","17:00","-5.1","","-6.8","","88","","","","25","","22","","","","100.26","","","","-12","","NA"
"-73.74","45.47","MONTREAL/PIERRE ELLIOTT TRUDEAU INTL","702S006","2010-01-28 18:00","2010","01","28","18:00","-7.7","","-8.6","","93","","","","26","","39","","","","100.48","","","","-18","","NA"
"-73.74","45.47","MONTREAL/PIERRE ELLIOTT TRUDEAU INTL","702S006","2010-01-28 19:00","2010","01","28","19:00","-7.6","","-8.9","","90","","","","26","","39","","","","100.59","","","","-17","","NA"
"-73.74","45.47","MONTREAL/PIERRE ELLIOTT TRUDEAU INTL","702S006","2010-01-28 20:00","2010","01","28","20:00","-9.6","","-11.8","","84","","","","26","","44","","","","100.65","","","","-21","","NA"
"-73.74","45.47","MONTREAL/PIERRE ELLIOTT TRUDEAU INTL","702S006","2010-01-28 21:00","2010","01","28","21:00","-10.6","","-14.2","","75","","","","26","","44","","","","100.70","","","","-22","","NA"
"-73.74","45.47","MONTREAL/PIERRE ELLIOTT TRUDEAU INTL","702S006","2010-01-28 22:00","2010","01","28","22:00","-11.4","","-13.3","","86","","","","26","","44","","","","100.72","","","","-23","","NA"
"-73.74","45.47","MONTREAL/PIERRE ELLIOTT TRUDEAU INTL","702S006","2010-01-28 23:00","2010","01","28","23:00","-11.9","","-13.3","","89","","","","27","","35","","","","100.81","","","","-23","","NA"
"-73.74","45.47","MONTREAL/PIERRE ELLIOTT TRUDEAU INTL","702S006","2010-01-29 00:00","2010","01","29","00:00","-13.2","","-14.6","","89","","","","29","","46","","","","100.96","","","","-26","","NA"
"-73.74","45.47","MONTREAL/PIERRE ELLIOTT TRUDEAU INTL","702S006","2010-01-29 01:00","2010","01","29","01:00","-13.8","","-15.3","","88","","","","28","","37","","","","101.08","","","","-25","","NA"
"-73.74","45.47","MONTREAL/PIERRE ELLIOTT TRUDEAU INTL","702S006","2010-01-29 02:00","2010","01","29","02:00","-14.2","","-15.8","","88","","","","28","","39","","","","101.21","","","","-26","","NA"
"-73.74","45.47","MONTREAL/PIERRE ELLIOTT TRUDEAU INTL","702S006","2010-01-29 03:00","2010","01","29","03:00","-14.7","","-16.4","","87","","","","29","","39","","","","101.32","","","","-27","","NA"
"-73.74","45.47","MONTREAL/PIERRE ELLIOTT TRUDEAU INTL","702S006","2010-01-29 04:00","2010","01","29","04:00","-15.7","","-17.6","","85","","","","28","","41","","","","101.41","","","","-29","","NA"
"-73.74","45.47","MONTREAL/PIERRE ELLIOTT TRUDEAU INTL","702S006","2010-01-29 05:00","2010","01","29","05:00","-16.6","","-18.8","","83","","","","28","","35","","","","101.49","","","","-29","","NA"
"-73.74","45.47","MONTREAL/PIERRE ELLIOTT TRUDEAU INTL","702S006","2010-01-29 06:00","2010","01","29","06:00","-17.2","","-19.9","","79","","","","28","","35","","","","101.56","","","","-30","","NA"
"-73.74","45.47","MONTREAL/PIERRE ELLIOTT TRUDEAU INTL","702S006","2010-01-29 07:00","2010","01","29","07:00","-17.8","","-21.6","","72","","","","28","","32","","","","101.63","","","","-30","","NA"
"-73.74","45.47","MONTREAL/PIERRE ELLIOTT TRUDEAU INTL","702S006","2010-01-29 08:00","2010","01","29","08:00","-18.2","","-23.4","","64","","","","28","","30","","","","101.72","","","","-30","","NA"
"-73.74","45.47","MONTREAL/PIERRE ELLIOTT TRUDEAU INTL","702S006","2010-01-29 09:00","2010","01","29","09:00","-18.4","","-24.0","","61","","","","28","","35","","","","101.76","","","","-31","","NA"
"-73.74","45.47","MONTREAL/PIERRE ELLIOTT TRUDEAU INTL","702S006","2010-01-29 10:00","2010","01","29","10:00","-18.0","","-24.1","","59","","","","28","","32","","","","101.83","","","","-30","","NA"
"-73.74","45.47","MONTREAL/PIERRE ELLIOTT TRUDEAU INTL","702S006","2010-01-29 11:00","2010","01","29","11:00","-17.7","","-23.8","","59","","","","27","","37","","","","101.81","","","","-31","","NA"
"-73.74","45.47","MONTREAL/PIERRE ELLIOTT TRUDEAU INTL","702S006","2010-01-29 12:00","2010","01","29","12:00","-17.5","","-23.9","","57","","","","27","","37","","","","101.73","","","","-30","","NA"
"-73.74","45.47","MONTREAL/PIERRE ELLIOTT TRUDEAU INTL","702S006","2010-01-29 13:00","2010","01","29","13:00","-17.2","","-24.6","","53","","","","27","","39","","","","101.67","","","","-30","","NA"
"-73.74","45.47","MONTREAL/PIERRE ELLIOTT TRUDEAU INTL","702S006","2010-01-29 14:00","2010","01","29","14:00","-16.8","","-23.8","","55","","","","28","","41","","","","101.71","","","","-30","","NA"
"-73.74","45.47","MONTREAL/PIERRE ELLIOTT TRUDEAU INTL","702S006","2010-01-29 15:00","2010","01","29","15:00","-16.7","","-24.2","","52","","","","27","","41","","","","101.76","","","","-30","","NA"
"-73.74","45.47","MONTREAL/PIERRE ELLIOTT TRUDEAU INTL","702S006","2010-01-29 16:00","2010","01","29","16:00","-16.7","","-24.4","","51","","","","27","","39","","","","101.81","","","","-30","","NA"
"-73.74","45.47","MONTREAL/PIERRE ELLIOTT TRUDEAU INTL","702S006","2010-01-29 17:00","2010","01","29","17:00","-17.0","","-24.6","","52","","","","27","","33","","","","101.87","","","","-29","","NA"
"-73.74","45.47","MONTREAL/PIERRE ELLIOTT TRUDEAU INTL","702S006","2010-01-29 18:00","2010","01","29","18:00","-17.2","","-24.3","","54","","","","27","","33","","","","101.95","","","","-29","","NA"
"-73.74","45.47","MONTREAL/PIERRE ELLIOTT TRUDEAU INTL","702S006","2010-01-29 19:00","2010","01","29","19:00","-17.7","","-24.6","","55","","","","28","","33","","","","102.06","","","","-30","","NA"
"-73.74","45.47","MONTREAL/PIERRE ELLIOTT TRUDEAU INTL","702S006","2010-01-29 20:00","2010","01","29","20:00","-18.3","","-24.8","","57","","","","28","","35","","","","102.05","","","","-31","","NA"
"-73.74","45.47","MONTREAL/PIERRE ELLIOTT TRUDEAU INTL","702S006","2010-01-29 21:00","2010","01","29","21:00","-18.8","","-24.8","","59","","","","28","","32","","","","102.04","","","","-31","","NA"
"-73.74","45.47","MONTREAL/PIERRE ELLIOTT TRUDEAU INTL","702S006","2010-01-29 22:00","2010","01","29","22:00","-19.2","","-25.0","","60","","","","28","","28","","","","102.10","","","","-31","","NA"
"-73.74","45.47","MONTREAL/PIERRE ELLIOTT TRUDEAU INTL","702S006","2010-01-29 23:00","2010","01","29","23:00","-19.5","","-24.5","","64","","","","28","","26","","","","102.15","","","","-31","","NA"
"-73.74","45.47","MONTREAL/PIERRE ELLIOTT TRUDEAU INTL","702S006","2010-01-30 00:00","2010","01","30","00:00","-19.7","","-24.1","","68","","","","27","","26","","","","102.14","","","","-31","","NA"
"-73.74","45.47","MONTREAL/PIERRE ELLIOTT TRUDEAU INTL","702S006","2010-01-30 01:00","2010","01","30","01:00","-19.8","","-24.3","","67","","","","28","","28","","","","102.15","","","","-32","","NA"
"-73.74","45.47","MONTREAL/PIERRE ELLIOTT TRUDEAU INTL","702S006","2010-01-30 02:00","2010","01","30","02:00","-19.7","","-23.9","","69","","","","28","","22","","","","102.19","","","","-31","","NA"
"-73.74","45.47","MONTREAL/PIERRE ELLIOTT TRUDEAU INTL","702S006","2010-01-30 03:00","2010","01","30","03:00","-20.1","","-24.6","","67","","","","27","","22","","","","102.22","","","","-31","","NA"
"-73.74","45.47","MONTREAL/PIERRE ELLIOTT TRUDEAU INTL","702S006","2010-01-30 04:00","2010","01","30","04:00","-20.5","","-25.3","","65","","","","26","","22","","","","102.24","","","","-32","","NA"
"-73.74","45.47","MONTREAL/PIERRE ELLIOTT TRUDEAU INTL","702S006","2010-01-30 05:00","2010","01","30","05:00","-20.8","","-25.6","","65","","","","27","","24","","","","102.20","","","","-32","","NA"
"-73.74","45.47","MONTREAL/PIERRE ELLIOTT TRUDEAU INTL","702S006","2010-01-30 06:00","2010","01","30","06:00","-21.0","","-25.5","","67","","","","26","","20","","","","102.21","","","","-32","","NA"
"-73.74","45.47","MONTREAL/PIERRE ELLIOTT TRUDEAU INTL","702S006","2010-01-30 07:00","2010","01","30","07:00","-21.2","","-25.7","","67","","","","26","","20","","","","102.23","","","","-32","","NA"
"-73.74","45.47","MONTREAL/PIERRE ELLIOTT TRUDEAU INTL","702S006","2010-01-30 08:00","2010","01","30","08:00","-21.0","","-25.5","","67","","","","26","","17","","","","102.28","","","","-31","","NA"
"-73.74","45.47","MONTREAL/PIERRE ELLIOTT TRUDEAU INTL","702S006","2010-01-30 09:00","2010","01","30","09:00","-20.0","","-24.7","","66","","","","26","","17","","","","102.33","","","","-30","","NA"
"-73.74","45.47","MONTREAL/PIERRE ELLIOTT TRUDEAU INTL","702S006","2010-01-30 10:00","2010","01","30","10:00","-19.3","","-24.5","","63","","","","26","","15","","","","102.32","","","","-28","","NA"
"-73.74","45.47","MONTREAL/PIERRE ELLIOTT TRUDEAU INTL","702S006","2010-01-30 11:00","2010","01","30","11:00","-18.4","","-23.7","","63","","","","26","","13","","","","102.22","","","","-26","","NA"
"-73.74","45.47","MONTREAL/PIERRE ELLIOTT TRUDEAU INTL","702S006","2010-01-30 12:00","2010","01","30","12:00","-17.2","","-23.1","","60","","","","26","","13","","","","102.15","","","","-25","","NA"
"-73.74","45.47","MONTREAL/PIERRE ELLIOTT TRUDEAU INTL","702S006","2010-01-30 13:00","2010","01","30","13:00","-16.4","","-22.5","","59","","","","24","","15","","","","102.08","","","","-25","","NA"
"-73.74","45.47","MONTREAL/PIERRE ELLIOTT TRUDEAU INTL","702S006","2010-01-30 14:00","2010","01","30","14:00","-15.6","","-22.1","","57","","","","26","","17","","","","102.02","","","","-24","","NA"
"-73.74","45.47","MONTREAL/PIERRE ELLIOTT TRUDEAU INTL","702S006","2010-01-30 15:00","2010","01","30","15:00","-15.0","","-21.7","","57","","","","26","","15","","","","101.95","","","","-23","","NA"
"-73.74","45.47","MONTREAL/PIERRE ELLIOTT TRUDEAU INTL","702S006","2010-01-30 16:00","2010","01","30","16:00","-14.8","","-21.6","","56","","","","25","","13","","","","101.88","","","","-22","","NA"
"-73.74","45.47","MONTREAL/PIERRE ELLIOTT TRUDEAU INTL","702S006","2010-01-30 17:00","2010","01","30","17:00","-15.2","","-21.5","","59","","","","25","","15","","","","101.84","","","","-23","","NA"
"-73.74","45.47","MONTREAL/PIERRE ELLIOTT TRUDEAU INTL","702S006","2010-01-30 18:00","2010","01","30","18:00","-15.3","","-21.1","","61","","","","24","","13","","","","101.82","","","","-23","","NA"
"-73.74","45.47","MONTREAL/PIERRE ELLIOTT TRUDEAU INTL","702S006","2010-01-30 19:00","2010","01","30","19:00","-15.6","","-21.4","","61","","","","25","","11","","","","101.78","","","","-22","","NA"
"-73.74","45.47","MONTREAL/PIERRE ELLIOTT TRUDEAU INTL","702S006","2010-01-30 20:00","2010","01","30","20:00","-15.5","","-21.8","","58","","","","26","","15","","","","101.70","","","","-24","","NA"
"-73.74","45.47","MONTREAL/PIERRE ELLIOTT TRUDEAU INTL","702S006","2010-01-30 21:00","2010","01","30","21:00","-15.7","","-21.3","","62","","","","25","","11","","","","101.66","","","","-22","","NA"
"-73.74","45.47","MONTREAL/PIERRE ELLIOTT TRUDEAU INTL","702S006","2010-01-30 22:00","2010","01","30","22:00","-16.2","","-21.1","","66","","","","26","","11","","","","101.63","","","","-23","","NA"
"-73.74","45.47","MONTREAL/PIERRE ELLIOTT TRUDEAU INTL","702S006","2010-01-30 23:00","2010","01","30","23:00","-15.9","","-20.9","","65","","","","25","","7","","","","101.58","","","","-21","","NA"
"-73.74","45.47","MONTREAL/PIERRE ELLIOTT TRUDEAU INTL","702S006","2010-01-31 00:00","2010","01","31","00:00","-15.4","","-20.8","","63","","","","26","","13","","","","101.47","","","","-23","","NA"
"-73.74","45.47","MONTREAL/PIERRE ELLIOTT TRUDEAU INTL","702S006","2010-01-31 01:00","2010","01","31","01:00","-15.8","","-20.6","","67","","","","26","","6","","","","101.40","","","","-20","","NA"
"-73.74","45.47","MONTREAL/PIERRE ELLIOTT TRUDEAU INTL","702S006","2010-01-31 02:00","2010","01","31","02:00","-15.4","","-19.5","","71","","","","23","","9","","","","101.35","","","","-21","","NA"
"-73.74","45.47","MONTREAL/PIERRE ELLIOTT TRUDEAU INTL","702S006","2010-01-31 03:00","2010","01","31","03:00","-15.1","","-19.5","","69","","","","25","","11","","","","101.32","","","","-22","","NA"
"-73.74","45.47","MONTREAL/PIERRE ELLIOTT TRUDEAU INTL","702S006","2010-01-31 04:00","2010","01","31","04:00","-14.7","","-19.2","","69","","","","25","","9","","","","101.26","","","","-20","","NA"
"-73.74","45.47","MONTREAL/PIERRE ELLIOTT TRUDEAU INTL","702S006","2010-01-31 05:00","2010","01","31","05:00","-14.8","","-18.2","","75","","","","25","","6","","","","101.25","","","","-19","","NA"
"-73.74","45.47","MONTREAL/PIERRE ELLIOTT TRUDEAU INTL","702S006","2010-01-31 06:00","2010","01","31","06:00","-14.0","","-17.2","","77","","","","26","","11","","","","101.22","","","","-20","","NA"
"-73.74","45.47","MONTREAL/PIERRE ELLIOTT TRUDEAU INTL","702S006","2010-01-31 07:00","2010","01","31","07:00","-13.2","","-16.7","","75","","","","24","","11","","","","101.26","","","","-19","","NA"
"-73.74","45.47","MONTREAL/PIERRE ELLIOTT TRUDEAU INTL","702S006","2010-01-31 08:00","2010","01","31","08:00","-12.6","","-16.5","","73","","","","25","","11","","","","101.28","","","","-19","","NA"
"-73.74","45.47","MONTREAL/PIERRE ELLIOTT TRUDEAU INTL","702S006","2010-01-31 09:00","2010","01","31","09:00","-12.2","","-15.9","","74","","","","26","","17","","","","101.26","","","","-20","","NA"
"-73.74","45.47","MONTREAL/PIERRE ELLIOTT TRUDEAU INTL","702S006","2010-01-31 10:00","2010","01","31","10:00","-11.5","","-15.1","","75","","","","25","","17","","","","101.23","","","","-19","","NA"
"-73.74","45.47","MONTREAL/PIERRE ELLIOTT TRUDEAU INTL","702S006","2010-01-31 11:00","2010","01","31","11:00","-10.3","","-14.1","","74","","","","26","","17","","","","101.19","","","","-18","","NA"
"-73.74","45.47","MONTREAL/PIERRE ELLIOTT TRUDEAU INTL","702S006","2010-01-31 12:00","2010","01","31","12:00","-9.4","","-13.5","","72","","","","27","","13","","","","101.07","","","","-15","","NA"
"-73.74","45.47","MONTREAL/PIERRE ELLIOTT TRUDEAU INTL","702S006","2010-01-31 13:00","2010","01","31","13:00","-8.4","","-12.6","","72","","","","25","","11","","","","100.98","","","","-14","","NA"
"-73.74","45.47","MONTREAL/PIERRE ELLIOTT TRUDEAU INTL","702S006","2010-01-31 14:00","2010","01","31","14:00","-7.6","","-11.8","","72","","","","27","","13","","","","100.89","","","","-13","","NA"
"-73.74","45.47","MONTREAL/PIERRE ELLIOTT TRUDEAU INTL","702S006","2010-01-31 15:00","2010","01","31","15:00","-6.8","","-11.1","","71","","","","28","","15","","","","100.89","","","","-13","","NA"
"-73.74","45.47","MONTREAL/PIERRE ELLIOTT TRUDEAU INTL","702S006","2010-01-31 16:00","2010","01","31","16:00","-6.7","","-11.2","","70","","","","26","","13","","","","100.86","","","","-12","","NA"
"-73.74","45.47","MONTREAL/PIERRE ELLIOTT TRUDEAU INTL","702S006","2010-01-31 17:00","2010","01","31","17:00","-7.3","","-11.6","","71","","","","25","","7","","","","100.86","","","","-11","","NA"
"-73.74","45.47","MONTREAL/PIERRE ELLIOTT TRUDEAU INTL","702S006","2010-01-31 18:00","2010","01","31","18:00","-7.1","","-11.3","","72","","","","25","","9","","","","100.85","","","","-11","","NA"
"-73.74","45.47","MONTREAL/PIERRE ELLIOTT TRUDEAU INTL","702S006","2010-01-31 19:00","2010","01","31","19:00","-6.7","","-10.5","","74","","","","24","","7","","","","100.82","","","","-10","","NA"
"-73.74","45.47","MONTREAL/PIERRE ELLIOTT TRUDEAU INTL","702S006","2010-01-31 20:00","2010","01","31","20:00","-6.0","","-8.4","","83","","","","20","","13","","","","100.78","","","","-11","","NA"
"-73.74","45.47","MONTREAL/PIERRE ELLIOTT TRUDEAU INTL","702S006","2010-01-31 21:00","2010","01","31","21:00","-6.0","","-7.7","","88","","","","21","","15","","","","100.73","","","","-12","","NA"
"-73.74","45.47","MONTREAL/PIERRE ELLIOTT TRUDEAU INTL","702S006","2010-01-31 22:00","2010","01","31","22:00","-5.0","","-6.8","","87","","","","22","","15","","","","100.66","","","","-11","","NA"
"-73.74","45.47","MONTREAL/PIERRE ELLIOTT TRUDEAU INTL","702S006","2010-01-31 23:00","2010","01","31","23:00","-5.3","","-8.2","","80","","","","24","","19","","","","100.63","","","","-12","","NA"
