"Longitude (x)","Latitude (y)","Station Name","Climate ID","Date/Time (LST)","Year","Month","Day","Time (LST)","Temp (°C)","Temp Flag","Dew Point Temp (°C)","Dew Point Temp Flag","Rel Hum (%)","Rel Hum Flag","Precip. Amount (mm)","Precip. Amount Flag","Wind Dir (10s deg)","Wind Dir Flag","Wind Spd (km/h)","Wind Spd Flag","Visibility (km)","Visibility Flag","Stn Press (kPa)","Stn Press Flag","Hmdx","Hmdx Flag","Wind Chill","Wind Chill Flag","Weather"
"-73.74","45.47","MONTREAL/PIERRE ELLIOTT TRUDEAU INTL","702S006","2009-12-01 00:00","2009","12","01","00:00","-1.6","","-5.4","","75","","","","26","","6","","","","100.38","","","","-4","","NA"
"-73.74","45.47","MONTREAL/PIERRE ELLIOTT TRUDEAU INTL","702S006","2009-12-01 01:00","2009","12","01","01:00","-2.3","","-5.9","","76","","","","24","","7","","","","100.39","","","","-5","","NA"
"-73.74","45.47","MONTREAL/PIERRE ELLIOTT TRUDEAU INTL","702S006","2009-12-01 02:00","2009","12","01","02:00","-1.3","","-3.5","","85","","","","23","","6","","","","100.44","","","","-4","","NA"
"-73.74","45.47","MONTREAL/PIERRE ELLIOTT TRUDEAU INTL","702S006","2009-12-01 03:00","2009","12","01","03:00","-1.2","","-3.6","","84","","","","23","","4","","","","100.41","","","","-3","","NA"
"-73.74","45.47","MONTREAL/PIERRE ELLIOTT TRUDEAU INTL","702S006","2009-12-01 04:00","2009","12","01","04:00","-0.4","","-2.5","","86","","","","19","","11","","","","100.39","","","","-4","","NA"
"-73.74","45.47","MONTREAL/PIERRE ELLIOTT TRUDEAU INTL","702S006","2009-12-01 05:00","2009","12","01","05:00","-0.2","","-3.8","","77","","","","22","","9","","","","100.33","","","","-3","","NA"
"-73.74","45.47","MONTREAL/PIERRE ELLIOTT TRUDEAU INTL","702S006","2009-12-01 06:00","2009","12","01","06:00","-0.7","","-4.0","","78","","","","26","","7","","","","100.34","","","","-3","","NA"
"-73.74","45.47","MONTREAL/PIERRE ELLIOTT TRUDEAU INTL","702S006","2009-12-01 07:00","2009","12","01","07:00","-0.1","","-3.9","","76","","","","20","","13","","","","100.33","","","","-4","","NA"
"-73.74","45.47","MONTREAL/PIERRE ELLIOTT TRUDEAU INTL","702S006","2009-12-01 08:00","2009","12","01","08:00","0.1","","-3.4","","77","","","","19","","11","","","","100.39","","","","","","NA"
"-73.74","45.47","MONTREAL/PIERRE ELLIOTT TRUDEAU INTL","702S006","2009-12-01 09:00","2009","12","01","09:00","-0.2","","-3.1","","81","","","","16","","13","","","","100.40","","","","-4","","NA"
"-73.74","45.47","MONTREAL/PIERRE ELLIOTT TRUDEAU INTL","702S006","2009-12-01 10:00","2009","12","01","10:00","1.4","","-2.1","","77","","","","20","","15","","","","100.45","","","","","","NA"
"-73.74","45.47","MONTREAL/PIERRE ELLIOTT TRUDEAU INTL","702S006","2009-12-01 11:00","2009","12","01","11:00","1.9","","-0.8","","82","","","","23","","19","","","","100.44","","","","","","NA"
"-73.74","45.47","MONTREAL/PIERRE ELLIOTT TRUDEAU INTL","702S006","2009-12-01 12:00","2009","12","01","12:00","1.3","","-0.2","","90","","","","23","","17","","","","100.43","","","","","","NA"
"-73.74","45.47","MONTREAL/PIERRE ELLIOTT TRUDEAU INTL","702S006","2009-12-01 13:00","2009","12","01","13:00","1.9","","0.5","","90","","","","22","","13","","","","100.42","","","","","","NA"
"-73.74","45.47","MONTREAL/PIERRE ELLIOTT TRUDEAU INTL","702S006","2009-12-01 14:00","2009","12","01","14:00","2.1","","0.4","","88","","","","22","","11","","","","100.43","","","","","","NA"
"-73.74","45.47","MONTREAL/PIERRE ELLIOTT TRUDEAU INTL","702S006","2009-12-01 15:00","2009","12","01","15:00","2.3","","0.5","","88","","","","24","","7","","","","100.50","","","","","","NA"
"-73.74","45.47","MONTREAL/PIERRE ELLIOTT TRUDEAU INTL","702S006","2009-12-01 16:00","2009","12","01","16:00","2.2","","0.5","","89","","","","26","","6","","","","100.57","","","","","","NA"
"-73.74","45.47","MONTREAL/PIERRE ELLIOTT TRUDEAU INTL","702S006","2009-12-01 17:00","2009","12","01","17:00","2.3","","0.5","","88","","","","25","","11","","","","100.67","","","","","","NA"
"-73.74","45.47","MONTREAL/PIERRE ELLIOTT TRUDEAU INTL","702S006","2009-12-01 18:00","2009","12","01","18:00","2.0","","0.5","","90","","","","28","","11","","","","100.72","","","","","","NA"
"-73.74","45.47","MONTREAL/PIERRE ELLIOTT TRUDEAU INTL","702S006","2009-12-01 19:00","2009","12","01","19:00","2.1","","0.2","","87","","","","24","","7","","","","100.83","","","","","","NA"
"-73.74","45.47","MONTREAL/PIERRE ELLIOTT TRUDEAU INTL","702S006","2009-12-01 20:00","2009","12","01","20:00","1.8","","-1.3","","80","","","","24","","11","","","","100.89","","","","","","NA"
"-73.74","45.47","MONTREAL/PIERRE ELLIOTT TRUDEAU INTL","702S006","2009-12-01 21:00","2009","12","01","21:00","1.6","","-0.9","","83","","","","24","","11","","","","100.97","","","","","","NA"
"-73.74","45.47","MONTREAL/PIERRE ELLIOTT TRUDEAU INTL","702S006","2009-12-01 22:00","2009","12","01","22:00","2.3","","-0.1","","84","","","","24","","13","","","","101.04","","","","","","NA"
"-73.74","45.47","MONTREAL/PIERRE ELLIOTT TRUDEAU INTL","702S006","2009-12-01 23:00","2009","12","01","23:00","2.2","","0.2","","87","","","","23","","11","","","","101.05","","","","","","NA"
"-73.74","45.47","MONTREAL/PIERRE ELLIOTT TRUDEAU INTL","702S006","2009-12-02 00:00","2009","12","02","00:00","1.8","","0.2","","89","","","","25","","11","","","","101.12","","","","","","NA"
"-73.74","45.47","MONTREAL/PIERRE ELLIOTT TRUDEAU INTL","702S006","2009-12-02 01:00","2009","12","02","01:00","1.0","","-0.3","","91","","","","25","","7","","","","101.14","","","","","","NA"
"-73.74","45.47","MONTREAL/PIERRE ELLIOTT TRUDEAU INTL","702S006","2009-12-02 02:00","2009","12","02","02:00","0.1","","-0.9","","93","","","","28","","4","","","","101.22","","","","","","NA"
"-73.74","45.47","MONTREAL/PIERRE ELLIOTT TRUDEAU INTL","702S006","2009-12-02 03:00","2009","12","02","03:00","0.4","","-0.4","","94","","","","16","","6","","","","101.20","","","","","","NA"
"-73.74","45.47","MONTREAL/PIERRE ELLIOTT TRUDEAU INTL","702S006","2009-12-02 04:00","2009","12","02","04:00","0.2","","-0.7","","94","","","","20","","7","","","","101.24","","","","","","NA"
"-73.74","45.47","MONTREAL/PIERRE ELLIOTT TRUDEAU INTL","702S006","2009-12-02 05:00","2009","12","02","05:00","-0.8","","-1.9","","92","","","","16","","6","","","","101.22","","","","-3","","NA"
"-73.74","45.47","MONTREAL/PIERRE ELLIOTT TRUDEAU INTL","702S006","2009-12-02 06:00","2009","12","02","06:00","-0.4","","-1.4","","93","","","","13","","9","","","","101.31","","","","-4","","NA"
"-73.74","45.47","MONTREAL/PIERRE ELLIOTT TRUDEAU INTL","702S006","2009-12-02 07:00","2009","12","02","07:00","0.5","","-0.6","","92","","","","11","","6","","","","101.31","","","","","","NA"
"-73.74","45.47","MONTREAL/PIERRE ELLIOTT TRUDEAU INTL","702S006","2009-12-02 08:00","2009","12","02","08:00","1.0","","-0.5","","90","","","","10","","7","","","","101.28","","","","","","NA"
"-73.74","45.47","MONTREAL/PIERRE ELLIOTT TRUDEAU INTL","702S006","2009-12-02 09:00","2009","12","02","09:00","1.3","","0.1","","92","","","","12","","11","","","","101.25","","","","","","NA"
"-73.74","45.47","MONTREAL/PIERRE ELLIOTT TRUDEAU INTL","702S006","2009-12-02 10:00","2009","12","02","10:00","2.6","","0.6","","87","","","","14","","9","","","","101.27","","","","","","NA"
"-73.74","45.47","MONTREAL/PIERRE ELLIOTT TRUDEAU INTL","702S006","2009-12-02 11:00","2009","12","02","11:00","4.0","","1.8","","86","","","","14","","15","","","","101.13","","","","","","NA"
"-73.74","45.47","MONTREAL/PIERRE ELLIOTT TRUDEAU INTL","702S006","2009-12-02 12:00","2009","12","02","12:00","6.7","","2.7","","76","","","","15","","15","","","","101.02","","","","","","NA"
"-73.74","45.47","MONTREAL/PIERRE ELLIOTT TRUDEAU INTL","702S006","2009-12-02 13:00","2009","12","02","13:00","8.0","","3.2","","72","","","","15","","19","","","","100.87","","","","","","NA"
"-73.74","45.47","MONTREAL/PIERRE ELLIOTT TRUDEAU INTL","702S006","2009-12-02 14:00","2009","12","02","14:00","7.7","","3.6","","75","","","","14","","17","","","","100.87","","","","","","NA"
"-73.74","45.47","MONTREAL/PIERRE ELLIOTT TRUDEAU INTL","702S006","2009-12-02 15:00","2009","12","02","15:00","7.3","","3.1","","75","","","","13","","19","","","","100.86","","","","","","NA"
"-73.74","45.47","MONTREAL/PIERRE ELLIOTT TRUDEAU INTL","702S006","2009-12-02 16:00","2009","12","02","16:00","6.1","","2.8","","79","","","","13","","15","","","","100.86","","","","","","NA"
"-73.74","45.47","MONTREAL/PIERRE ELLIOTT TRUDEAU INTL","702S006","2009-12-02 17:00","2009","12","02","17:00","5.3","","2.5","","82","","","","12","","7","","","","100.79","","","","","","NA"
"-73.74","45.47","MONTREAL/PIERRE ELLIOTT TRUDEAU INTL","702S006","2009-12-02 18:00","2009","12","02","18:00","5.7","","2.3","","79","","","","10","","4","","","","100.70","","","","","","NA"
"-73.74","45.47","MONTREAL/PIERRE ELLIOTT TRUDEAU INTL","702S006","2009-12-02 19:00","2009","12","02","19:00","4.8","","1.6","","80","","","","14","","7","","","","100.71","","","","","","NA"
"-73.74","45.47","MONTREAL/PIERRE ELLIOTT TRUDEAU INTL","702S006","2009-12-02 20:00","2009","12","02","20:00","5.0","","1.5","","78","","","","3","","4","","","","100.64","","","","","","NA"
"-73.74","45.47","MONTREAL/PIERRE ELLIOTT TRUDEAU INTL","702S006","2009-12-02 21:00","2009","12","02","21:00","2.8","","1.4","","90","","","","1","","7","","","","100.60","","","","","","NA"
"-73.74","45.47","MONTREAL/PIERRE ELLIOTT TRUDEAU INTL","702S006","2009-12-02 22:00","2009","12","02","22:00","2.9","","1.7","","92","","","","2","","9","","","","100.54","","","","","","NA"
"-73.74","45.47","MONTREAL/PIERRE ELLIOTT TRUDEAU INTL","702S006","2009-12-02 23:00","2009","12","02","23:00","3.9","","2.8","","93","","","","3","","4","","","","100.46","","","","","","NA"
"-73.74","45.47","MONTREAL/PIERRE ELLIOTT TRUDEAU INTL","702S006","2009-12-03 00:00","2009","12","03","00:00","5.8","","4.2","","89","","","","11","","9","","","","100.29","","","","","","NA"
"-73.74","45.47","MONTREAL/PIERRE ELLIOTT TRUDEAU INTL","702S006","2009-12-03 01:00","2009","12","03","01:00","5.9","","4.8","","93","","","","13","","19","","","","100.16","","","","","","NA"
"-73.74","45.47","MONTREAL/PIERRE ELLIOTT TRUDEAU INTL","702S006","2009-12-03 02:00","2009","12","03","02:00","6.0","","5.2","","95","","","","11","","20","","","","99.91","","","","","","NA"
"-73.74","45.47","MONTREAL/PIERRE ELLIOTT TRUDEAU INTL","702S006","2009-12-03 03:00","2009","12","03","03:00","6.6","","5.8","","95","","","","6","","15","","","","99.66","","","","","","NA"
"-73.74","45.47","MONTREAL/PIERRE ELLIOTT TRUDEAU INTL","702S006","2009-12-03 04:00","2009","12","03","04:00","6.8","","6.1","","95","","","","4","","24","","","","99.35","","","","","","NA"
"-73.74","45.47","MONTREAL/PIERRE ELLIOTT TRUDEAU INTL","702S006","2009-12-03 05:00","2009","12","03","05:00","6.5","","5.9","","96","","","","4","","24","","","","99.12","","","","","","NA"
"-73.74","45.47","MONTREAL/PIERRE ELLIOTT TRUDEAU INTL","702S006","2009-12-03 06:00","2009","12","03","06:00","6.4","","5.7","","95","","","","4","","19","","","","98.93","","","","","","NA"
"-73.74","45.47","MONTREAL/PIERRE ELLIOTT TRUDEAU INTL","702S006","2009-12-03 07:00","2009","12","03","07:00","6.2","","5.7","","97","","","","3","","26","","","","98.72","","","","","","NA"
"-73.74","45.47","MONTREAL/PIERRE ELLIOTT TRUDEAU INTL","702S006","2009-12-03 08:00","2009","12","03","08:00","6.3","","5.8","","97","","","","4","","22","","","","98.54","","","","","","NA"
"-73.74","45.47","MONTREAL/PIERRE ELLIOTT TRUDEAU INTL","702S006","2009-12-03 09:00","2009","12","03","09:00","6.0","","5.5","","97","","","","2","","20","","","","98.51","","","","","","NA"
"-73.74","45.47","MONTREAL/PIERRE ELLIOTT TRUDEAU INTL","702S006","2009-12-03 10:00","2009","12","03","10:00","5.5","","5.1","","97","","","","1","","19","","","","98.53","","","","","","NA"
"-73.74","45.47","MONTREAL/PIERRE ELLIOTT TRUDEAU INTL","702S006","2009-12-03 11:00","2009","12","03","11:00","5.3","","4.9","","97","","","","1","","20","","","","98.55","","","","","","NA"
"-73.74","45.47","MONTREAL/PIERRE ELLIOTT TRUDEAU INTL","702S006","2009-12-03 12:00","2009","12","03","12:00","5.1","","4.7","","97","","","","36","","13","","","","98.61","","","","","","NA"
"-73.74","45.47","MONTREAL/PIERRE ELLIOTT TRUDEAU INTL","702S006","2009-12-03 13:00","2009","12","03","13:00","5.2","","4.8","","97","","","","1","","9","","","","98.73","","","","","","NA"
"-73.74","45.47","MONTREAL/PIERRE ELLIOTT TRUDEAU INTL","702S006","2009-12-03 14:00","2009","12","03","14:00","5.3","","4.9","","97","","","","33","","6","","","","98.86","","","","","","NA"
"-73.74","45.47","MONTREAL/PIERRE ELLIOTT TRUDEAU INTL","702S006","2009-12-03 15:00","2009","12","03","15:00","5.2","","4.9","","98","","","","30","","7","","","","99.06","","","","","","NA"
"-73.74","45.47","MONTREAL/PIERRE ELLIOTT TRUDEAU INTL","702S006","2009-12-03 16:00","2009","12","03","16:00","5.3","","5.0","","98","","","","27","","7","","","","99.25","","","","","","NA"
"-73.74","45.47","MONTREAL/PIERRE ELLIOTT TRUDEAU INTL","702S006","2009-12-03 17:00","2009","12","03","17:00","6.0","","5.7","","98","","","","25","","9","","","","99.43","","","","","","NA"
"-73.74","45.47","MONTREAL/PIERRE ELLIOTT TRUDEAU INTL","702S006","2009-12-03 18:00","2009","12","03","18:00","6.8","","6.5","","98","","","","25","","24","","","","99.58","","","","","","NA"
"-73.74","45.47","MONTREAL/PIERRE ELLIOTT TRUDEAU INTL","702S006","2009-12-03 19:00","2009","12","03","19:00","6.1","","5.1","","93","","","","25","","28","","","","99.76","","","","","","NA"
"-73.74","45.47","MONTREAL/PIERRE ELLIOTT TRUDEAU INTL","702S006","2009-12-03 20:00","2009","12","03","20:00","5.5","","4.0","","90","","","","25","","28","","","","99.91","","","","","","NA"
"-73.74","45.47","MONTREAL/PIERRE ELLIOTT TRUDEAU INTL","702S006","2009-12-03 21:00","2009","12","03","21:00","5.2","","3.6","","89","","","","26","","28","","","","100.04","","","","","","NA"
"-73.74","45.47","MONTREAL/PIERRE ELLIOTT TRUDEAU INTL","702S006","2009-12-03 22:00","2009","12","03","22:00","4.9","","2.7","","86","","","","26","","28","","","","100.13","","","","","","NA"
"-73.74","45.47","MONTREAL/PIERRE ELLIOTT TRUDEAU INTL","702S006","2009-12-03 23:00","2009","12","03","23:00","4.6","","2.2","","84","","","","25","","24","","","","100.24","","","","","","NA"
"-73.74","45.47","MONTREAL/PIERRE ELLIOTT TRUDEAU INTL","702S006","2009-12-04 00:00","2009","12","04","00:00","4.4","","2.1","","85","","","","26","","20","","","","100.36","","","","","","NA"
"-73.74","45.47","MONTREAL/PIERRE ELLIOTT TRUDEAU INTL","702S006","2009-12-04 01:00","2009","12","04","01:00","4.4","","2.2","","86","","","","27","","20","","","","100.46","","","","","","NA"
"-73.74","45.47","MONTREAL/PIERRE ELLIOTT TRUDEAU INTL","702S006","2009-12-04 02:00","2009","12","04","02:00","3.8","","1.9","","87","","","","25","","19","","","","100.55","","","","","","NA"
"-73.74","45.47","MONTREAL/PIERRE ELLIOTT TRUDEAU INTL","702S006","2009-12-04 03:00","2009","12","04","03:00","4.1","","1.3","","82","","","","24","","17","","","","100.62","","","","","","NA"
"-73.74","45.47","MONTREAL/PIERRE ELLIOTT TRUDEAU INTL","702S006","2009-12-04 04:00","2009","12","04","04:00","4.3","","1.2","","80","","","","24","","20","","","","100.69","","","","","","NA"
"-73.74","45.47","MONTREAL/PIERRE ELLIOTT TRUDEAU INTL","702S006","2009-12-04 05:00","2009","12","04","05:00","4.1","","0.5","","77","","","","24","","22","","","","100.78","","","","","","NA"
"-73.74","45.47","MONTREAL/PIERRE ELLIOTT TRUDEAU INTL","702S006","2009-12-04 06:00","2009","12","04","06:00","3.7","","0.5","","80","","","","24","","17","","","","100.84","","","","","","NA"
"-73.74","45.47","MONTREAL/PIERRE ELLIOTT TRUDEAU INTL","702S006","2009-12-04 07:00","2009","12","04","07:00","3.5","","-0.3","","76","","","","24","","26","","","","100.91","","","","","","NA"
"-73.74","45.47","MONTREAL/PIERRE ELLIOTT TRUDEAU INTL","702S006","2009-12-04 08:00","2009","12","04","08:00","3.5","","-0.1","","77","","","","22","","13","","","","100.99","","","","","","NA"
"-73.74","45.47","MONTREAL/PIERRE ELLIOTT TRUDEAU INTL","702S006","2009-12-04 09:00","2009","12","04","09:00","3.3","","-0.2","","78","","","","22","","17","","","","101.08","","","","","","NA"
"-73.74","45.47","MONTREAL/PIERRE ELLIOTT TRUDEAU INTL","702S006","2009-12-04 10:00","2009","12","04","10:00"
"-73.74","45.47","MONTREAL/PIERRE ELLIOTT TRUDEAU INTL","702S006","2009-12-04 11:00","2009","12","04","11:00"
"-73.74","45.47","MONTREAL/PIERRE ELLIOTT TRUDEAU INTL","702S006","2009-12-04 12:00","2009","12","04","12:00"
"-73.74","45.47","MONTREAL/PIERRE ELLIOTT TRUDEAU INTL","702S006","2009-12-04 13:00","2009","12","04","13:00"
"-73.74","45.47","MONTREAL/PIERRE ELLIOTT TRUDEAU INTL","702S006","2009-12-04 14:00","2009","12","04","14:00","4.4","","-2.7","","60","","","","20","","4","","","","101.24","","","","","","NA"
"-73.74","45.47","MONTREAL/PIERRE ELLIOTT TRUDEAU INTL","702S006","2009-12-04 15:00","2009","12","04","15:00","2.3","","-0.6","","81","","","","26","","15","","","","101.30","","","","","","NA"
"-73.74","45.47","MONTREAL/PIERRE ELLIOTT TRUDEAU INTL","702S006","2009-12-04 16:00","2009","12","04","16:00","2.8","","-0.2","","81","","","","22","","13","","","","101.32","","","","","","NA"
"-73.74","45.47","MONTREAL/PIERRE ELLIOTT TRUDEAU INTL","702S006","2009-12-04 17:00","2009","12","04","17:00","2.9","","-0.3","","79","","","","19","","19","","","","101.38","","","","","","NA"
"-73.74","45.47","MONTREAL/PIERRE ELLIOTT TRUDEAU INTL","702S006","2009-12-04 18:00","2009","12","04","18:00","2.4","","0.1","","85","","","","20","","22","","","","101.45","","","","","","NA"
"-73.74","45.47","MONTREAL/PIERRE ELLIOTT TRUDEAU INTL","702S006","2009-12-04 19:00","2009","12","04","19:00","3.2","","0.2","","81","","","","22","","17","","","","101.48","","","","","","NA"
"-73.74","45.47","MONTREAL/PIERRE ELLIOTT TRUDEAU INTL","702S006","2009-12-04 20:00","2009","12","04","20:00","2.9","","-1.3","","74","","","","24","","15","","","","101.48","","","","","","NA"
"-73.74","45.47","MONTREAL/PIERRE ELLIOTT TRUDEAU INTL","702S006","2009-12-04 21:00","2009","12","04","21:00","2.7","","-2.7","","68","","","","23","","19","","","","101.54","","","","","","NA"
"-73.74","45.47","MONTREAL/PIERRE ELLIOTT TRUDEAU INTL","702S006","2009-12-04 22:00","2009","12","04","22:00","1.9","","-3.8","","66","","","","23","","15","","","","101.61","","","","","","NA"
"-73.74","45.47","MONTREAL/PIERRE ELLIOTT TRUDEAU INTL","702S006","2009-12-04 23:00","2009","12","04","23:00","2.1","","-5.1","","59","","","","24","","17","","","","101.68","","","","","","NA"
"-73.74","45.47","MONTREAL/PIERRE ELLIOTT TRUDEAU INTL","702S006","2009-12-05 00:00","2009","12","05","00:00","1.5","","-5.2","","61","","","","26","","13","","","","101.65","","","","","","NA"
"-73.74","45.47","MONTREAL/PIERRE ELLIOTT TRUDEAU INTL","702S006","2009-12-05 01:00","2009","12","05","01:00","1.4","","-5.6","","60","","","","25","","11","","","","101.71","","","","","","NA"
"-73.74","45.47","MONTREAL/PIERRE ELLIOTT TRUDEAU INTL","702S006","2009-12-05 02:00","2009","12","05","02:00","1.5","","-6.4","","56","","","","25","","13","","","","101.77","","","","","","NA"
"-73.74","45.47","MONTREAL/PIERRE ELLIOTT TRUDEAU INTL","702S006","2009-12-05 03:00","2009","12","05","03:00","0.2","","-6.3","","62","","","","25","","7","","","","101.75","","","","","","NA"
"-73.74","45.47","MONTREAL/PIERRE ELLIOTT TRUDEAU INTL","702S006","2009-12-05 04:00","2009","12","05","04:00","-0.2","","-6.3","","63","","","","25","","7","","","","101.75","","","","-3","","NA"
"-73.74","45.47","MONTREAL/PIERRE ELLIOTT TRUDEAU INTL","702S006","2009-12-05 05:00","2009","12","05","05:00","-0.9","","-6.2","","67","","","","24","","6","","","","101.75","","","","-3","","NA"
"-73.74","45.47","MONTREAL/PIERRE ELLIOTT TRUDEAU INTL","702S006","2009-12-05 06:00","2009","12","05","06:00","-0.8","","-5.6","","70","","","","27","","4","","","","101.75","","","","-2","","NA"
"-73.74","45.47","MONTREAL/PIERRE ELLIOTT TRUDEAU INTL","702S006","2009-12-05 07:00","2009","12","05","07:00","-0.6","","-5.7","","68","","","","26","","4","","","","101.79","","","","-2","","NA"
"-73.74","45.47","MONTREAL/PIERRE ELLIOTT TRUDEAU INTL","702S006","2009-12-05 08:00","2009","12","05","08:00","-0.3","","-5.8","","66","","","","13","","2","","","","101.76","","","","-1","","NA"
"-73.74","45.47","MONTREAL/PIERRE ELLIOTT TRUDEAU INTL","702S006","2009-12-05 09:00","2009","12","05","09:00","0.2","","-5.4","","66","","","","","","0","","","","101.73","","","","","","NA"
"-73.74","45.47","MONTREAL/PIERRE ELLIOTT TRUDEAU INTL","702S006","2009-12-05 10:00","2009","12","05","10:00","1.0","","-5.0","","64","","","","33","","6","","","","101.75","","","","","","NA"
"-73.74","45.47","MONTREAL/PIERRE ELLIOTT TRUDEAU INTL","702S006","2009-12-05 11:00","2009","12","05","11:00","1.3","","-5.9","","59","","","","23","","2","","","","101.71","","","","","","NA"
"-73.74","45.47","MONTREAL/PIERRE ELLIOTT TRUDEAU INTL","702S006","2009-12-05 12:00","2009","12","05","12:00","1.7","","-5.2","","60","","","","35","","2","","","","101.60","","","","","","NA"
"-73.74","45.47","MONTREAL/PIERRE ELLIOTT TRUDEAU INTL","702S006","2009-12-05 13:00","2009","12","05","13:00","1.8","","-5.5","","58","","","","5","","2","","","","101.40","","","","","","NA"
"-73.74","45.47","MONTREAL/PIERRE ELLIOTT TRUDEAU INTL","702S006","2009-12-05 14:00","2009","12","05","14:00","1.7","","-6.0","","57","","","","34","","4","","","","101.40","","","","","","NA"
"-73.74","45.47","MONTREAL/PIERRE ELLIOTT TRUDEAU INTL","702S006","2009-12-05 15:00","2009","12","05","15:00","1.4","","-5.4","","61","","","","33","","6","","","","101.41","","","","","","NA"
"-73.74","45.47","MONTREAL/PIERRE ELLIOTT TRUDEAU INTL","702S006","2009-12-05 16:00","2009","12","05","16:00","0.5","","-5.1","","66","","","","32","","7","","","","101.41","","","","","","NA"
"-73.74","45.47","MONTREAL/PIERRE ELLIOTT TRUDEAU INTL","702S006","2009-12-05 17:00","2009","12","05","17:00","-0.3","","-4.5","","73","","","","32","","6","","","","101.41","","","","-2","","NA"
"-73.74","45.47","MONTREAL/PIERRE ELLIOTT TRUDEAU INTL","702S006","2009-12-05 18:00","2009","12","05","18:00","0.4","","-5.4","","65","","","","1","","6","","","","101.35","","","","","","NA"
"-73.74","45.47","MONTREAL/PIERRE ELLIOTT TRUDEAU INTL","702S006","2009-12-05 19:00","2009","12","05","19:00","-0.2","","-4.5","","73","","","","1","","4","","","","101.34","","","","-1","","NA"
"-73.74","45.47","MONTREAL/PIERRE ELLIOTT TRUDEAU INTL","702S006","2009-12-05 20:00","2009","12","05","20:00","-0.2","","-4.1","","75","","","","36","","4","","","","101.23","","","","-1","","NA"
"-73.74","45.47","MONTREAL/PIERRE ELLIOTT TRUDEAU INTL","702S006","2009-12-05 21:00","2009","12","05","21:00","-0.9","","-3.6","","82","","","","34","","7","","","","101.18","","","","-3","","NA"
"-73.74","45.47","MONTREAL/PIERRE ELLIOTT TRUDEAU INTL","702S006","2009-12-05 22:00","2009","12","05","22:00","-1.8","","-4.2","","84","","","","33","","6","","","","101.14","","","","-4","","NA"
"-73.74","45.47","MONTREAL/PIERRE ELLIOTT TRUDEAU INTL","702S006","2009-12-05 23:00","2009","12","05","23:00","-2.2","","-4.1","","87","","","","33","","6","","","","101.14","","","","-5","","NA"
"-73.74","45.47","MONTREAL/PIERRE ELLIOTT TRUDEAU INTL","702S006","2009-12-06 00:00","2009","12","06","00:00","-2.2","","-4.3","","85","","","","33","","4","","","","101.10","","","","-4","","NA"
"-73.74","45.47","MONTREAL/PIERRE ELLIOTT TRUDEAU INTL","702S006","2009-12-06 01:00","2009","12","06","01:00","-3.4","","-5.0","","89","","","","31","","6","","","","101.13","","","","-6","","NA"
"-73.74","45.47","MONTREAL/PIERRE ELLIOTT TRUDEAU INTL","702S006","2009-12-06 02:00","2009","12","06","02:00","-3.4","","-4.8","","90","","","","35","","4","","","","101.17","","","","-5","","NA"
"-73.74","45.47","MONTREAL/PIERRE ELLIOTT TRUDEAU INTL","702S006","2009-12-06 03:00","2009","12","06","03:00","-4.6","","-5.9","","91","","","","30","","6","","","","101.14","","","","-7","","NA"
"-73.74","45.47","MONTREAL/PIERRE ELLIOTT TRUDEAU INTL","702S006","2009-12-06 04:00","2009","12","06","04:00","-4.5","","-5.9","","90","","","","31","","9","","","","101.16","","","","-8","","NA"
"-73.74","45.47","MONTREAL/PIERRE ELLIOTT TRUDEAU INTL","702S006","2009-12-06 05:00","2009","12","06","05:00","-4.4","","-5.9","","89","","","","31","","6","","","","101.17","","","","-7","","NA"
"-73.74","45.47","MONTREAL/PIERRE ELLIOTT TRUDEAU INTL","702S006","2009-12-06 06:00","2009","12","06","06:00","-5.4","","-6.8","","90","","","","29","","7","","","","101.26","","","","-9","","NA"
"-73.74","45.47","MONTREAL/PIERRE ELLIOTT TRUDEAU INTL","702S006","2009-12-06 07:00","2009","12","06","07:00","-4.1","","-5.7","","89","","","","27","","7","","","","101.29","","","","-7","","NA"
"-73.74","45.47","MONTREAL/PIERRE ELLIOTT TRUDEAU INTL","702S006","2009-12-06 08:00","2009","12","06","08:00","-3.3","","-5.4","","85","","","","26","","6","","","","101.32","","","","-6","","NA"
"-73.74","45.47","MONTREAL/PIERRE ELLIOTT TRUDEAU INTL","702S006","2009-12-06 09:00","2009","12","06","09:00","-1.2","","-4.6","","78","","","","24","","11","","","","101.37","","","","-5","","NA"
"-73.74","45.47","MONTREAL/PIERRE ELLIOTT TRUDEAU INTL","702S006","2009-12-06 10:00","2009","12","06","10:00","-0.6","","-3.9","","78","","","","26","","17","","","","101.44","","","","-6","","NA"
"-73.74","45.47","MONTREAL/PIERRE ELLIOTT TRUDEAU INTL","702S006","2009-12-06 11:00","2009","12","06","11:00","-0.1","","-4.6","","72","","","","25","","20","","","","101.41","","","","-5","","NA"
"-73.74","45.47","MONTREAL/PIERRE ELLIOTT TRUDEAU INTL","702S006","2009-12-06 12:00","2009","12","06","12:00","0.6","","-4.5","","69","","","","26","","26","","","","101.36","","","","","","NA"
"-73.74","45.47","MONTREAL/PIERRE ELLIOTT TRUDEAU INTL","702S006","2009-12-06 13:00","2009","12","06","13:00","1.0","","-4.6","","66","","","","26","","24","","","","101.35","","","","","","NA"
"-73.74","45.47","MONTREAL/PIERRE ELLIOTT TRUDEAU INTL","702S006","2009-12-06 14:00","2009","12","06","14:00","1.0","","-6.5","","57","","","","27","","30","","","","101.39","","","","","","NA"
"-73.74","45.47","MONTREAL/PIERRE ELLIOTT TRUDEAU INTL","702S006","2009-12-06 15:00","2009","12","06","15:00","1.5","","-7.7","","50","","","","27","","28","","","","101.44","","","","","","NA"
"-73.74","45.47","MONTREAL/PIERRE ELLIOTT TRUDEAU INTL","702S006","2009-12-06 16:00","2009","12","06","16:00","0.8","","-8.1","","51","","","","26","","22","","","","101.52","","","","","","NA"
"-73.74","45.47","MONTREAL/PIERRE ELLIOTT TRUDEAU INTL","702S006","2009-12-06 17:00","2009","12","06","17:00","0.3","","-9.0","","50","","","","26","","20","","","","101.53","","","","","","NA"
"-73.74","45.47","MONTREAL/PIERRE ELLIOTT TRUDEAU INTL","702S006","2009-12-06 18:00","2009","12","06","18:00","-0.1","","-8.4","","54","","","","26","","15","","","","101.59","","","","-5","","NA"
"-73.74","45.47","MONTREAL/PIERRE ELLIOTT TRUDEAU INTL","702S006","2009-12-06 19:00","2009","12","06","19:00","0.3","","-7.1","","58","","","","26","","17","","","","101.62","","","","","","NA"
"-73.74","45.47","MONTREAL/PIERRE ELLIOTT TRUDEAU INTL","702S006","2009-12-06 20:00","2009","12","06","20:00","-0.5","","-4.3","","75","","","","27","","20","","","","101.66","","","","-6","","NA"
"-73.74","45.47","MONTREAL/PIERRE ELLIOTT TRUDEAU INTL","702S006","2009-12-06 21:00","2009","12","06","21:00","-1.2","","-3.8","","82","","","","28","","11","","","","101.68","","","","-5","","NA"
"-73.74","45.47","MONTREAL/PIERRE ELLIOTT TRUDEAU INTL","702S006","2009-12-06 22:00","2009","12","06","22:00","-1.2","","-3.0","","88","","","","26","","13","","","","101.71","","","","-5","","NA"
"-73.74","45.47","MONTREAL/PIERRE ELLIOTT TRUDEAU INTL","702S006","2009-12-06 23:00","2009","12","06","23:00","-1.7","","-2.7","","93","","","","29","","9","","","","101.73","","","","-5","","NA"
"-73.74","45.47","MONTREAL/PIERRE ELLIOTT TRUDEAU INTL","702S006","2009-12-07 00:00","2009","12","07","00:00","-2.0","","-3.1","","92","","","","27","","4","","","","101.73","","","","-3","","NA"
"-73.74","45.47","MONTREAL/PIERRE ELLIOTT TRUDEAU INTL","702S006","2009-12-07 01:00","2009","12","07","01:00","-1.7","","-3.7","","86","","","","26","","4","","","","101.77","","","","-3","","NA"
"-73.74","45.47","MONTREAL/PIERRE ELLIOTT TRUDEAU INTL","702S006","2009-12-07 02:00","2009","12","07","02:00","-1.8","","-3.6","","87","","","","25","","4","","","","101.81","","","","-3","","NA"
"-73.74","45.47","MONTREAL/PIERRE ELLIOTT TRUDEAU INTL","702S006","2009-12-07 03:00","2009","12","07","03:00","-1.6","","-3.4","","87","","","","30","","6","","","","101.86","","","","-4","","NA"
"-73.74","45.47","MONTREAL/PIERRE ELLIOTT TRUDEAU INTL","702S006","2009-12-07 04:00","2009","12","07","04:00","-1.5","","-3.7","","85","","","","31","","9","","","","101.86","","","","-5","","NA"
"-73.74","45.47","MONTREAL/PIERRE ELLIOTT TRUDEAU INTL","702S006","2009-12-07 05:00","2009","12","07","05:00","-2.6","","-5.3","","82","","","","31","","9","","","","101.91","","","","-6","","NA"
"-73.74","45.47","MONTREAL/PIERRE ELLIOTT TRUDEAU INTL","702S006","2009-12-07 06:00","2009","12","07","06:00","-2.1","","-5.2","","79","","","","32","","9","","","","101.94","","","","-6","","NA"
"-73.74","45.47","MONTREAL/PIERRE ELLIOTT TRUDEAU INTL","702S006","2009-12-07 07:00","2009","12","07","07:00","-3.1","","-6.9","","75","","","","33","","7","","","","101.94","","","","-6","","NA"
"-73.74","45.47","MONTREAL/PIERRE ELLIOTT TRUDEAU INTL","702S006","2009-12-07 08:00","2009","12","07","08:00","-2.6","","-7.4","","70","","","","36","","6","","","","101.93","","","","-5","","NA"
"-73.74","45.47","MONTREAL/PIERRE ELLIOTT TRUDEAU INTL","702S006","2009-12-07 09:00","2009","12","07","09:00","-2.0","","-7.5","","66","","","","1","","2","","","","101.95","","","","-3","","NA"
"-73.74","45.47","MONTREAL/PIERRE ELLIOTT TRUDEAU INTL","702S006","2009-12-07 10:00","2009","12","07","10:00","-1.6","","-7.4","","65","","","","33","","2","","","","101.94","","","","-2","","NA"
"-73.74","45.47","MONTREAL/PIERRE ELLIOTT TRUDEAU INTL","702S006","2009-12-07 11:00","2009","12","07","11:00","-1.3","","-6.9","","66","","","","35","","2","","","","101.86","","","","-2","","NA"
"-73.74","45.47","MONTREAL/PIERRE ELLIOTT TRUDEAU INTL","702S006","2009-12-07 12:00","2009","12","07","12:00","-0.8","","-6.5","","65","","","","32","","2","","","","101.76","","","","-1","","NA"
"-73.74","45.47","MONTREAL/PIERRE ELLIOTT TRUDEAU INTL","702S006","2009-12-07 13:00","2009","12","07","13:00","-0.9","","-5.7","","70","","","","29","","6","","","","101.69","","","","-3","","NA"
"-73.74","45.47","MONTREAL/PIERRE ELLIOTT TRUDEAU INTL","702S006","2009-12-07 14:00","2009","12","07","14:00","-1.4","","-4.4","","80","","","","35","","2","","","","101.63","","","","-2","","NA"
"-73.74","45.47","MONTREAL/PIERRE ELLIOTT TRUDEAU INTL","702S006","2009-12-07 15:00","2009","12","07","15:00","-1.6","","-3.5","","87","","","","1","","6","","","","101.60","","","","-4","","NA"
"-73.74","45.47","MONTREAL/PIERRE ELLIOTT TRUDEAU INTL","702S006","2009-12-07 16:00","2009","12","07","16:00","-1.6","","-3.3","","88","","","","2","","6","","","","101.59","","","","-4","","NA"
"-73.74","45.47","MONTREAL/PIERRE ELLIOTT TRUDEAU INTL","702S006","2009-12-07 17:00","2009","12","07","17:00","-1.6","","-2.8","","92","","","","2","","9","","","","101.57","","","","-5","","NA"
"-73.74","45.47","MONTREAL/PIERRE ELLIOTT TRUDEAU INTL","702S006","2009-12-07 18:00","2009","12","07","18:00","-1.7","","-2.7","","93","","","","9","","6","","","","101.57","","","","-4","","NA"
"-73.74","45.47","MONTREAL/PIERRE ELLIOTT TRUDEAU INTL","702S006","2009-12-07 19:00","2009","12","07","19:00","-1.8","","-3.0","","91","","","","9","","4","","","","101.56","","","","-3","","NA"
"-73.74","45.47","MONTREAL/PIERRE ELLIOTT TRUDEAU INTL","702S006","2009-12-07 20:00","2009","12","07","20:00","-2.1","","-3.0","","94","","","","1","","6","","","","101.54","","","","-4","","NA"
"-73.74","45.47","MONTREAL/PIERRE ELLIOTT TRUDEAU INTL","702S006","2009-12-07 21:00","2009","12","07","21:00","-2.3","","-3.0","","95","","","","2","","7","","","","101.50","","","","-5","","NA"
"-73.74","45.47","MONTREAL/PIERRE ELLIOTT TRUDEAU INTL","702S006","2009-12-07 22:00","2009","12","07","22:00","-2.5","","-3.2","","95","","","","1","","6","","","","101.52","","","","-5","","NA"
"-73.74","45.47","MONTREAL/PIERRE ELLIOTT TRUDEAU INTL","702S006","2009-12-07 23:00","2009","12","07","23:00","-2.5","","-3.3","","94","","","","2","","7","","","","101.55","","","","-5","","NA"
"-73.74","45.47","MONTREAL/PIERRE ELLIOTT TRUDEAU INTL","702S006","2009-12-08 00:00","2009","12","08","00:00","-3.7","","-4.5","","94","","","","34","","6","","","","101.56","","","","-6","","NA"
"-73.74","45.47","MONTREAL/PIERRE ELLIOTT TRUDEAU INTL","702S006","2009-12-08 01:00","2009","12","08","01:00","-3.3","","-4.1","","94","","","","32","","2","","","","101.56","","","","-4","","NA"
"-73.74","45.47","MONTREAL/PIERRE ELLIOTT TRUDEAU INTL","702S006","2009-12-08 02:00","2009","12","08","02:00","-2.7","","-3.5","","94","","","","34","","6","","","","101.62","","","","-5","","NA"
"-73.74","45.47","MONTREAL/PIERRE ELLIOTT TRUDEAU INTL","702S006","2009-12-08 03:00","2009","12","08","03:00","-2.8","","-3.6","","94","","","","33","","4","","","","101.65","","","","-4","","NA"
"-73.74","45.47","MONTREAL/PIERRE ELLIOTT TRUDEAU INTL","702S006","2009-12-08 04:00","2009","12","08","04:00","-2.7","","-3.8","","92","","","","31","","11","","","","101.70","","","","-7","","NA"
"-73.74","45.47","MONTREAL/PIERRE ELLIOTT TRUDEAU INTL","702S006","2009-12-08 05:00","2009","12","08","05:00","-2.9","","-4.7","","87","","","","32","","15","","","","101.77","","","","-8","","NA"
"-73.74","45.47","MONTREAL/PIERRE ELLIOTT TRUDEAU INTL","702S006","2009-12-08 06:00","2009","12","08","06:00","-3.1","","-5.8","","82","","","","30","","11","","","","101.87","","","","-7","","NA"
"-73.74","45.47","MONTREAL/PIERRE ELLIOTT TRUDEAU INTL","702S006","2009-12-08 07:00","2009","12","08","07:00","-3.3","","-8.4","","68","","","","30","","22","","","","101.93","","","","-10","","NA"
"-73.74","45.47","MONTREAL/PIERRE ELLIOTT TRUDEAU INTL","702S006","2009-12-08 08:00","2009","12","08","08:00","-4.6","","-9.2","","70","","","","30","","17","","","","102.04","","","","-10","","NA"
"-73.74","45.47","MONTREAL/PIERRE ELLIOTT TRUDEAU INTL","702S006","2009-12-08 09:00","2009","12","08","09:00","-4.3","","-9.4","","68","","","","30","","19","","","","102.12","","","","-10","","NA"
"-73.74","45.47","MONTREAL/PIERRE ELLIOTT TRUDEAU INTL","702S006","2009-12-08 10:00","2009","12","08","10:00"
"-73.74","45.47","MONTREAL/PIERRE ELLIOTT TRUDEAU INTL","702S006","2009-12-08 11:00","2009","12","08","11:00"
"-73.74","45.47","MONTREAL/PIERRE ELLIOTT TRUDEAU INTL","702S006","2009-12-08 12:00","2009","12","08","12:00"
"-73.74","45.47","MONTREAL/PIERRE ELLIOTT TRUDEAU INTL","702S006","2009-12-08 13:00","2009","12","08","13:00","-2.7","","-10.4","","55","","","","29","","19","","","","102.26","","","","-8","","NA"
"-73.74","45.47","MONTREAL/PIERRE ELLIOTT TRUDEAU INTL","702S006","2009-12-08 14:00","2009","12","08","14:00","-2.1","","-9.9","","55","","","","26","","15","","","","102.24","","","","-7","","NA"
"-73.74","45.47","MONTREAL/PIERRE ELLIOTT TRUDEAU INTL","702S006","2009-12-08 15:00","2009","12","08","15:00","-2.7","","-10.1","","57","","","","28","","15","","","","102.29","","","","-8","","NA"
"-73.74","45.47","MONTREAL/PIERRE ELLIOTT TRUDEAU INTL","702S006","2009-12-08 16:00","2009","12","08","16:00","-3.3","","-9.3","","63","","","","27","","11","","","","102.33","","","","-8","","NA"
"-73.74","45.47","MONTREAL/PIERRE ELLIOTT TRUDEAU INTL","702S006","2009-12-08 17:00","2009","12","08","17:00","-5.6","","-10.0","","71","","","","29","","9","","","","102.34","","","","-10","","NA"
"-73.74","45.47","MONTREAL/PIERRE ELLIOTT TRUDEAU INTL","702S006","2009-12-08 18:00","2009","12","08","18:00","-5.5","","-9.5","","73","","","","28","","7","","","","102.36","","","","-9","","NA"
"-73.74","45.47","MONTREAL/PIERRE ELLIOTT TRUDEAU INTL","702S006","2009-12-08 19:00","2009","12","08","19:00","-4.7","","-9.0","","72","","","","","","0","","","","102.29","","","","","","NA"
"-73.74","45.47","MONTREAL/PIERRE ELLIOTT TRUDEAU INTL","702S006","2009-12-08 20:00","2009","12","08","20:00","-5.0","","-8.8","","75","","","","36","","6","","","","102.26","","","","-8","","NA"
"-73.74","45.47","MONTREAL/PIERRE ELLIOTT TRUDEAU INTL","702S006","2009-12-08 21:00","2009","12","08","21:00","-5.6","","-9.0","","77","","","","3","","4","","","","102.29","","","","-7","","NA"
"-73.74","45.47","MONTREAL/PIERRE ELLIOTT TRUDEAU INTL","702S006","2009-12-08 22:00","2009","12","08","22:00","-5.5","","-9.3","","75","","","","3","","9","","","","102.27","","","","-10","","NA"
"-73.74","45.47","MONTREAL/PIERRE ELLIOTT TRUDEAU INTL","702S006","2009-12-08 23:00","2009","12","08","23:00","-4.1","","-9.2","","68","","","","5","","7","","","","102.35","","","","-7","","NA"
"-73.74","45.47","MONTREAL/PIERRE ELLIOTT TRUDEAU INTL","702S006","2009-12-09 00:00","2009","12","09","00:00","-4.0","","-9.9","","63","","","","6","","9","","","","102.19","","","","-8","","NA"
"-73.74","45.47","MONTREAL/PIERRE ELLIOTT TRUDEAU INTL","702S006","2009-12-09 01:00","2009","12","09","01:00","-4.2","","-9.9","","64","","","","6","","9","","","","102.15","","","","-8","","NA"
"-73.74","45.47","MONTREAL/PIERRE ELLIOTT TRUDEAU INTL","702S006","2009-12-09 02:00","2009","12","09","02:00","-4.6","","-10.0","","66","","","","5","","15","","","","101.95","","","","-10","","NA"
"-73.74","45.47","MONTREAL/PIERRE ELLIOTT TRUDEAU INTL","702S006","2009-12-09 03:00","2009","12","09","03:00","-4.9","","-10.6","","64","","","","8","","13","","","","101.79","","","","-10","","NA"
"-73.74","45.47","MONTREAL/PIERRE ELLIOTT TRUDEAU INTL","702S006","2009-12-09 04:00","2009","12","09","04:00","-4.8","","-10.3","","65","","","","7","","9","","","","101.62","","","","-9","","NA"
"-73.74","45.47","MONTREAL/PIERRE ELLIOTT TRUDEAU INTL","702S006","2009-12-09 05:00","2009","12","09","05:00","-5.0","","-9.4","","71","","","","5","","15","","","","101.33","","","","-11","","NA"
"-73.74","45.47","MONTREAL/PIERRE ELLIOTT TRUDEAU INTL","702S006","2009-12-09 06:00","2009","12","09","06:00","-4.6","","-9.3","","70","","","","5","","13","","","","101.39","","","","-10","","NA"
"-73.74","45.47","MONTREAL/PIERRE ELLIOTT TRUDEAU INTL","702S006","2009-12-09 07:00","2009","12","09","07:00","-5.1","","-9.2","","73","","","","5","","20","","","","101.12","","","","-12","","NA"
"-73.74","45.47","MONTREAL/PIERRE ELLIOTT TRUDEAU INTL","702S006","2009-12-09 08:00","2009","12","09","08:00","-5.6","","-7.2","","88","","","","6","","17","","","","100.89","","","","-12","","NA"
"-73.74","45.47","MONTREAL/PIERRE ELLIOTT TRUDEAU INTL","702S006","2009-12-09 09:00","2009","12","09","09:00","-4.8","","-5.9","","92","","","","7","","17","","","","100.72","","","","-11","","NA"
"-73.74","45.47","MONTREAL/PIERRE ELLIOTT TRUDEAU INTL","702S006","2009-12-09 10:00","2009","12","09","10:00","-4.4","","-5.3","","93","","","","5","","26","","","","100.36","","","","-12","","NA"
"-73.74","45.47","MONTREAL/PIERRE ELLIOTT TRUDEAU INTL","702S006","2009-12-09 11:00","2009","12","09","11:00","-4.3","","-5.3","","93","","","","5","","28","","","","99.99","","","","-12","","NA"
"-73.74","45.47","MONTREAL/PIERRE ELLIOTT TRUDEAU INTL","702S006","2009-12-09 12:00","2009","12","09","12:00","-3.9","","-4.9","","93","","","","5","","22","","","","99.75","","","","-10","","NA"
"-73.74","45.47","MONTREAL/PIERRE ELLIOTT TRUDEAU INTL","702S006","2009-12-09 13:00","2009","12","09","13:00","-3.7","","-4.6","","93","","","","5","","24","","","","99.39","","","","-11","","NA"
"-73.74","45.47","MONTREAL/PIERRE ELLIOTT TRUDEAU INTL","702S006","2009-12-09 14:00","2009","12","09","14:00","-3.5","","-4.4","","93","","","","5","","22","","","","99.10","","","","-10","","NA"
"-73.74","45.47","MONTREAL/PIERRE ELLIOTT TRUDEAU INTL","702S006","2009-12-09 15:00","2009","12","09","15:00","-3.2","","-4.0","","94","","","","5","","20","","","","98.89","","","","-9","","NA"
"-73.74","45.47","MONTREAL/PIERRE ELLIOTT TRUDEAU INTL","702S006","2009-12-09 16:00","2009","12","09","16:00","-2.5","","-3.2","","95","","","","5","","19","","","","98.76","","","","-8","","NA"
"-73.74","45.47","MONTREAL/PIERRE ELLIOTT TRUDEAU INTL","702S006","2009-12-09 17:00","2009","12","09","17:00","-3.0","","-3.8","","94","","","","5","","22","","","","98.70","","","","-9","","NA"
"-73.74","45.47","MONTREAL/PIERRE ELLIOTT TRUDEAU INTL","702S006","2009-12-09 18:00","2009","12","09","18:00","-2.6","","-3.6","","93","","","","5","","24","","","","98.50","","","","-9","","NA"
"-73.74","45.47","MONTREAL/PIERRE ELLIOTT TRUDEAU INTL","702S006","2009-12-09 19:00","2009","12","09","19:00","-1.2","","-2.2","","93","","","","7","","7","","","","98.40","","","","-4","","NA"
"-73.74","45.47","MONTREAL/PIERRE ELLIOTT TRUDEAU INTL","702S006","2009-12-09 20:00","2009","12","09","20:00","-1.7","","-2.3","","96","","","","3","","20","","","","98.31","","","","-7","","NA"
"-73.74","45.47","MONTREAL/PIERRE ELLIOTT TRUDEAU INTL","702S006","2009-12-09 21:00","2009","12","09","21:00","-1.7","","-2.3","","96","","","","5","","22","","","","98.23","","","","-8","","NA"
"-73.74","45.47","MONTREAL/PIERRE ELLIOTT TRUDEAU INTL","702S006","2009-12-09 22:00","2009","12","09","22:00","-1.3","","-1.8","","96","","","","3","","13","","","","98.28","","","","-6","","NA"
"-73.74","45.47","MONTREAL/PIERRE ELLIOTT TRUDEAU INTL","702S006","2009-12-09 23:00","2009","12","09","23:00","-2.3","","-2.8","","96","","","","36","","13","","","","98.34","","","","-7","","NA"
"-73.74","45.47","MONTREAL/PIERRE ELLIOTT TRUDEAU INTL","702S006","2009-12-10 00:00","2009","12","10","00:00","-4.0","","-4.6","","96","","","","35","","13","","","","98.37","","","","-9","","NA"
"-73.74","45.47","MONTREAL/PIERRE ELLIOTT TRUDEAU INTL","702S006","2009-12-10 01:00","2009","12","10","01:00","-4.3","","-4.9","","96","","","","1","","11","","","","98.35","","","","-9","","NA"
"-73.74","45.47","MONTREAL/PIERRE ELLIOTT TRUDEAU INTL","702S006","2009-12-10 02:00","2009","12","10","02:00","-4.0","","-4.9","","93","","","","5","","7","","","","98.44","","","","-7","","NA"
"-73.74","45.47","MONTREAL/PIERRE ELLIOTT TRUDEAU INTL","702S006","2009-12-10 03:00","2009","12","10","03:00","-2.9","","-3.7","","94","","","","7","","4","","","","98.40","","","","-4","","NA"
"-73.74","45.47","MONTREAL/PIERRE ELLIOTT TRUDEAU INTL","702S006","2009-12-10 04:00","2009","12","10","04:00","-3.0","","-3.7","","95","","","","35","","6","","","","98.40","","","","-5","","NA"
"-73.74","45.47","MONTREAL/PIERRE ELLIOTT TRUDEAU INTL","702S006","2009-12-10 05:00","2009","12","10","05:00","1.1","","0.6","","96","","","","23","","17","","","","98.38","","","","","","NA"
"-73.74","45.47","MONTREAL/PIERRE ELLIOTT TRUDEAU INTL","702S006","2009-12-10 06:00","2009","12","10","06:00","1.2","","-0.3","","90","","","","24","","26","","","","98.42","","","","","","NA"
"-73.74","45.47","MONTREAL/PIERRE ELLIOTT TRUDEAU INTL","702S006","2009-12-10 07:00","2009","12","10","07:00","0.6","","-1.3","","87","","","","24","","33","","","","98.51","","","","","","NA"
"-73.74","45.47","MONTREAL/PIERRE ELLIOTT TRUDEAU INTL","702S006","2009-12-10 08:00","2009","12","10","08:00","0.7","","-2.5","","79","","","","24","","28","","","","98.54","","","","","","NA"
"-73.74","45.47","MONTREAL/PIERRE ELLIOTT TRUDEAU INTL","702S006","2009-12-10 09:00","2009","12","10","09:00","0.7","","-3.2","","75","","","","26","","28","","","","98.60","","","","","","NA"
"-73.74","45.47","MONTREAL/PIERRE ELLIOTT TRUDEAU INTL","702S006","2009-12-10 10:00","2009","12","10","10:00","0.7","","-4.8","","67","","","","26","","33","","","","98.65","","","","","","NA"
"-73.74","45.47","MONTREAL/PIERRE ELLIOTT TRUDEAU INTL","702S006","2009-12-10 11:00","2009","12","10","11:00","0.2","","-5.4","","66","","","","25","","35","","","","98.66","","","","","","NA"
"-73.74","45.47","MONTREAL/PIERRE ELLIOTT TRUDEAU INTL","702S006","2009-12-10 12:00","2009","12","10","12:00"
"-73.74","45.47","MONTREAL/PIERRE ELLIOTT TRUDEAU INTL","702S006","2009-12-10 13:00","2009","12","10","13:00","-0.3","","-6.8","","61","","","","25","","37","","","","98.76","","","","-8","","NA"
"-73.74","45.47","MONTREAL/PIERRE ELLIOTT TRUDEAU INTL","702S006","2009-12-10 14:00","2009","12","10","14:00","-2.2","","-5.7","","77","","","","27","","32","","","","98.85","","","","-10","","NA"
"-73.74","45.47","MONTREAL/PIERRE ELLIOTT TRUDEAU INTL","702S006","2009-12-10 15:00","2009","12","10","15:00","-1.8","","-5.7","","75","","","","26","","39","","","","98.91","","","","-10","","NA"
"-73.74","45.47","MONTREAL/PIERRE ELLIOTT TRUDEAU INTL","702S006","2009-12-10 16:00","2009","12","10","16:00","-2.2","","-5.5","","78","","","","25","","32","","","","99.01","","","","-10","","NA"
"-73.74","45.47","MONTREAL/PIERRE ELLIOTT TRUDEAU INTL","702S006","2009-12-10 17:00","2009","12","10","17:00","-2.8","","-4.5","","88","","","","27","","20","","","","99.07","","","","-9","","NA"
"-73.74","45.47","MONTREAL/PIERRE ELLIOTT TRUDEAU INTL","702S006","2009-12-10 18:00","2009","12","10","18:00","-2.7","","-5.4","","82","","","","26","","30","","","","99.12","","","","-10","","NA"
"-73.74","45.47","MONTREAL/PIERRE ELLIOTT TRUDEAU INTL","702S006","2009-12-10 19:00","2009","12","10","19:00","-2.9","","-6.1","","79","","","","26","","28","","","","99.19","","","","-10","","NA"
"-73.74","45.47","MONTREAL/PIERRE ELLIOTT TRUDEAU INTL","702S006","2009-12-10 20:00","2009","12","10","20:00","-2.8","","-7.4","","71","","","","26","","28","","","","99.22","","","","-10","","NA"
"-73.74","45.47","MONTREAL/PIERRE ELLIOTT TRUDEAU INTL","702S006","2009-12-10 21:00","2009","12","10","21:00","-3.1","","-7.4","","72","","","","25","","32","","","","99.25","","","","-11","","NA"
"-73.74","45.47","MONTREAL/PIERRE ELLIOTT TRUDEAU INTL","702S006","2009-12-10 22:00","2009","12","10","22:00","-3.7","","-7.7","","74","","","","26","","35","","","","99.34","","","","-12","","NA"
"-73.74","45.47","MONTREAL/PIERRE ELLIOTT TRUDEAU INTL","702S006","2009-12-10 23:00","2009","12","10","23:00","-4.1","","-7.8","","75","","","","25","","35","","","","99.42","","","","-12","","NA"
"-73.74","45.47","MONTREAL/PIERRE ELLIOTT TRUDEAU INTL","702S006","2009-12-11 00:00","2009","12","11","00:00","-4.9","","-8.8","","74","","","","25","","39","","","","99.55","","","","-14","","NA"
"-73.74","45.47","MONTREAL/PIERRE ELLIOTT TRUDEAU INTL","702S006","2009-12-11 01:00","2009","12","11","01:00","-5.6","","-9.9","","72","","","","26","","33","","","","99.63","","","","-14","","NA"
"-73.74","45.47","MONTREAL/PIERRE ELLIOTT TRUDEAU INTL","702S006","2009-12-11 02:00","2009","12","11","02:00","-6.1","","-11.0","","68","","","","26","","37","","","","99.73","","","","-15","","NA"
"-73.74","45.47","MONTREAL/PIERRE ELLIOTT TRUDEAU INTL","702S006","2009-12-11 03:00","2009","12","11","03:00","-6.5","","-11.1","","70","","","","25","","32","","","","99.83","","","","-15","","NA"
"-73.74","45.47","MONTREAL/PIERRE ELLIOTT TRUDEAU INTL","702S006","2009-12-11 04:00","2009","12","11","04:00","-6.8","","-11.2","","71","","","","25","","28","","","","99.90","","","","-15","","NA"
"-73.74","45.47","MONTREAL/PIERRE ELLIOTT TRUDEAU INTL","702S006","2009-12-11 05:00","2009","12","11","05:00","-7.1","","-11.3","","72","","","","25","","32","","","","99.97","","","","-16","","NA"
"-73.74","45.47","MONTREAL/PIERRE ELLIOTT TRUDEAU INTL","702S006","2009-12-11 06:00","2009","12","11","06:00","-7.2","","-11.4","","72","","","","25","","28","","","","100.06","","","","-16","","NA"
"-73.74","45.47","MONTREAL/PIERRE ELLIOTT TRUDEAU INTL","702S006","2009-12-11 07:00","2009","12","11","07:00","-7.6","","-11.5","","74","","","","26","","32","","","","100.14","","","","-17","","NA"
"-73.74","45.47","MONTREAL/PIERRE ELLIOTT TRUDEAU INTL","702S006","2009-12-11 08:00","2009","12","11","08:00","-7.6","","-11.5","","74","","","","26","","32","","","","100.23","","","","-17","","NA"
"-73.74","45.47","MONTREAL/PIERRE ELLIOTT TRUDEAU INTL","702S006","2009-12-11 09:00","2009","12","11","09:00","-7.1","","-11.1","","73","","","","26","","30","","","","100.31","","","","-16","","NA"
"-73.74","45.47","MONTREAL/PIERRE ELLIOTT TRUDEAU INTL","702S006","2009-12-11 10:00","2009","12","11","10:00","-6.3","","-10.8","","70","","","","26","","33","","","","100.35","","","","-15","","NA"
"-73.74","45.47","MONTREAL/PIERRE ELLIOTT TRUDEAU INTL","702S006","2009-12-11 11:00","2009","12","11","11:00","-6.1","","-11.1","","68","","","","26","","39","","","","100.33","","","","-15","","NA"
"-73.74","45.47","MONTREAL/PIERRE ELLIOTT TRUDEAU INTL","702S006","2009-12-11 12:00","2009","12","11","12:00","-5.7","","-12.2","","60","","","","27","","37","","","","100.32","","","","-15","","NA"
"-73.74","45.47","MONTREAL/PIERRE ELLIOTT TRUDEAU INTL","702S006","2009-12-11 13:00","2009","12","11","13:00","-6.1","","-14.1","","53","","","","28","","39","","","","100.37","","","","-15","","NA"
"-73.74","45.47","MONTREAL/PIERRE ELLIOTT TRUDEAU INTL","702S006","2009-12-11 14:00","2009","12","11","14:00","-5.5","","-13.7","","52","","","","27","","32","","","","100.45","","","","-14","","NA"
"-73.74","45.47","MONTREAL/PIERRE ELLIOTT TRUDEAU INTL","702S006","2009-12-11 15:00","2009","12","11","15:00","-5.6","","-14.3","","50","","","","27","","41","","","","100.56","","","","-15","","NA"
"-73.74","45.47","MONTREAL/PIERRE ELLIOTT TRUDEAU INTL","702S006","2009-12-11 16:00","2009","12","11","16:00","-6.0","","-14.8","","50","","","","27","","39","","","","100.67","","","","-15","","NA"
"-73.74","45.47","MONTREAL/PIERRE ELLIOTT TRUDEAU INTL","702S006","2009-12-11 17:00","2009","12","11","17:00","-6.0","","-15.3","","48","","","","27","","39","","","","100.79","","","","-15","","NA"
"-73.74","45.47","MONTREAL/PIERRE ELLIOTT TRUDEAU INTL","702S006","2009-12-11 18:00","2009","12","11","18:00","-6.7","","-15.2","","51","","","","27","","32","","","","100.90","","","","-15","","NA"
"-73.74","45.47","MONTREAL/PIERRE ELLIOTT TRUDEAU INTL","702S006","2009-12-11 19:00","2009","12","11","19:00","-6.9","","-15.1","","52","","","","27","","32","","","","101.00","","","","-16","","NA"
"-73.74","45.47","MONTREAL/PIERRE ELLIOTT TRUDEAU INTL","702S006","2009-12-11 20:00","2009","12","11","20:00","-7.4","","-14.9","","55","","","","27","","28","","","","101.11","","","","-16","","NA"
"-73.74","45.47","MONTREAL/PIERRE ELLIOTT TRUDEAU INTL","702S006","2009-12-11 21:00","2009","12","11","21:00","-7.6","","-15.8","","52","","","","28","","35","","","","101.22","","","","-17","","NA"
"-73.74","45.47","MONTREAL/PIERRE ELLIOTT TRUDEAU INTL","702S006","2009-12-11 22:00","2009","12","11","22:00","-7.9","","-15.2","","56","","","","27","","30","","","","101.31","","","","-17","","NA"
"-73.74","45.47","MONTREAL/PIERRE ELLIOTT TRUDEAU INTL","702S006","2009-12-11 23:00","2009","12","11","23:00","-8.8","","-14.9","","61","","","","26","","22","","","","101.44","","","","-17","","NA"
"-73.74","45.47","MONTREAL/PIERRE ELLIOTT TRUDEAU INTL","702S006","2009-12-12 00:00","2009","12","12","00:00","-8.7","","-15.7","","57","","","","28","","30","","","","101.54","","","","-18","","NA"
"-73.74","45.47","MONTREAL/PIERRE ELLIOTT TRUDEAU INTL","702S006","2009-12-12 01:00","2009","12","12","01:00","-9.5","","-15.4","","62","","","","27","","17","","","","101.61","","","","-17","","NA"
"-73.74","45.47","MONTREAL/PIERRE ELLIOTT TRUDEAU INTL","702S006","2009-12-12 02:00","2009","12","12","02:00","-9.1","","-14.0","","68","","","","27","","17","","","","101.67","","","","-16","","NA"
"-73.74","45.47","MONTREAL/PIERRE ELLIOTT TRUDEAU INTL","702S006","2009-12-12 03:00","2009","12","12","03:00","-9.8","","-13.4","","75","","","","27","","20","","","","101.74","","","","-18","","NA"
"-73.74","45.47","MONTREAL/PIERRE ELLIOTT TRUDEAU INTL","702S006","2009-12-12 04:00","2009","12","12","04:00","-10.2","","-13.4","","77","","","","26","","13","","","","101.82","","","","-16","","NA"
"-73.74","45.47","MONTREAL/PIERRE ELLIOTT TRUDEAU INTL","702S006","2009-12-12 05:00","2009","12","12","05:00","-9.9","","-13.0","","78","","","","26","","20","","","","101.88","","","","-18","","NA"
"-73.74","45.47","MONTREAL/PIERRE ELLIOTT TRUDEAU INTL","702S006","2009-12-12 06:00","2009","12","12","06:00","-10.0","","-12.7","","81","","","","26","","19","","","","101.99","","","","-18","","NA"
"-73.74","45.47","MONTREAL/PIERRE ELLIOTT TRUDEAU INTL","702S006","2009-12-12 07:00","2009","12","12","07:00","-9.9","","-12.5","","81","","","","26","","15","","","","102.09","","","","-17","","NA"
"-73.74","45.47","MONTREAL/PIERRE ELLIOTT TRUDEAU INTL","702S006","2009-12-12 08:00","2009","12","12","08:00","-9.6","","-12.1","","82","","","","26","","13","","","","102.25","","","","-16","","NA"
"-73.74","45.47","MONTREAL/PIERRE ELLIOTT TRUDEAU INTL","702S006","2009-12-12 09:00","2009","12","12","09:00","-8.4","","-12.0","","75","","","","27","","22","","","","102.34","","","","-16","","NA"
"-73.74","45.47","MONTREAL/PIERRE ELLIOTT TRUDEAU INTL","702S006","2009-12-12 10:00","2009","12","12","10:00","-7.3","","-11.8","","70","","","","26","","20","","","","102.38","","","","-14","","NA"
"-73.74","45.47","MONTREAL/PIERRE ELLIOTT TRUDEAU INTL","702S006","2009-12-12 11:00","2009","12","12","11:00","-6.7","","-12.2","","65","","","","25","","19","","","","102.37","","","","-14","","NA"
"-73.74","45.47","MONTREAL/PIERRE ELLIOTT TRUDEAU INTL","702S006","2009-12-12 12:00","2009","12","12","12:00","-5.7","","-13.8","","53","","","","27","","28","","","","102.33","","","","-14","","NA"
"-73.74","45.47","MONTREAL/PIERRE ELLIOTT TRUDEAU INTL","702S006","2009-12-12 13:00","2009","12","12","13:00","-5.1","","-13.6","","51","","","","28","","28","","","","102.31","","","","-13","","NA"
"-73.74","45.47","MONTREAL/PIERRE ELLIOTT TRUDEAU INTL","702S006","2009-12-12 14:00","2009","12","12","14:00","-4.6","","-12.9","","52","","","","26","","28","","","","102.34","","","","-12","","NA"
"-73.74","45.47","MONTREAL/PIERRE ELLIOTT TRUDEAU INTL","702S006","2009-12-12 15:00","2009","12","12","15:00","-4.4","","-11.4","","58","","","","26","","22","","","","102.34","","","","-11","","NA"
"-73.74","45.47","MONTREAL/PIERRE ELLIOTT TRUDEAU INTL","702S006","2009-12-12 16:00","2009","12","12","16:00","-4.7","","-11.3","","60","","","","26","","15","","","","102.39","","","","-10","","NA"
"-73.74","45.47","MONTREAL/PIERRE ELLIOTT TRUDEAU INTL","702S006","2009-12-12 17:00","2009","12","12","17:00","-4.9","","-10.9","","63","","","","25","","11","","","","102.47","","","","-9","","NA"
"-73.74","45.47","MONTREAL/PIERRE ELLIOTT TRUDEAU INTL","702S006","2009-12-12 18:00","2009","12","12","18:00","-3.9","","-9.1","","67","","","","22","","9","","","","102.50","","","","-8","","NA"
"-73.74","45.47","MONTREAL/PIERRE ELLIOTT TRUDEAU INTL","702S006","2009-12-12 19:00","2009","12","12","19:00","-3.3","","-8.5","","67","","","","24","","13","","","","102.49","","","","-8","","NA"
"-73.74","45.47","MONTREAL/PIERRE ELLIOTT TRUDEAU INTL","702S006","2009-12-12 20:00","2009","12","12","20:00","-2.8","","-7.7","","69","","","","23","","13","","","","102.47","","","","-7","","NA"
"-73.74","45.47","MONTREAL/PIERRE ELLIOTT TRUDEAU INTL","702S006","2009-12-12 21:00","2009","12","12","21:00","-4.5","","-8.1","","76","","","","18","","15","","","","102.46","","","","-10","","NA"
"-73.74","45.47","MONTREAL/PIERRE ELLIOTT TRUDEAU INTL","702S006","2009-12-12 22:00","2009","12","12","22:00","-4.3","","-8.4","","73","","","","19","","13","","","","102.43","","","","-9","","NA"
"-73.74","45.47","MONTREAL/PIERRE ELLIOTT TRUDEAU INTL","702S006","2009-12-12 23:00","2009","12","12","23:00","-3.5","","-7.0","","77","","","","19","","13","","","","102.39","","","","-8","","NA"
"-73.74","45.47","MONTREAL/PIERRE ELLIOTT TRUDEAU INTL","702S006","2009-12-13 00:00","2009","12","13","00:00","-5.2","","-8.4","","78","","","","16","","13","","","","102.28","","","","-10","","NA"
"-73.74","45.47","MONTREAL/PIERRE ELLIOTT TRUDEAU INTL","702S006","2009-12-13 01:00","2009","12","13","01:00","-5.6","","-8.7","","79","","","","15","","13","","","","102.20","","","","-11","","NA"
"-73.74","45.47","MONTREAL/PIERRE ELLIOTT TRUDEAU INTL","702S006","2009-12-13 02:00","2009","12","13","02:00","-5.9","","-9.2","","77","","","","16","","13","","","","102.15","","","","-11","","NA"
"-73.74","45.47","MONTREAL/PIERRE ELLIOTT TRUDEAU INTL","702S006","2009-12-13 03:00","2009","12","13","03:00","-7.1","","-10.0","","80","","","","16","","11","","","","102.13","","","","-12","","NA"
"-73.74","45.47","MONTREAL/PIERRE ELLIOTT TRUDEAU INTL","702S006","2009-12-13 04:00","2009","12","13","04:00","-7.9","","-10.6","","81","","","","14","","9","","","","102.07","","","","-12","","NA"
"-73.74","45.47","MONTREAL/PIERRE ELLIOTT TRUDEAU INTL","702S006","2009-12-13 05:00","2009","12","13","05:00","-8.1","","-11.6","","76","","","","14","","13","","","","101.96","","","","-14","","NA"
"-73.74","45.47","MONTREAL/PIERRE ELLIOTT TRUDEAU INTL","702S006","2009-12-13 06:00","2009","12","13","06:00","-6.6","","-10.5","","74","","","","14","","13","","","","101.87","","","","-12","","NA"
"-73.74","45.47","MONTREAL/PIERRE ELLIOTT TRUDEAU INTL","702S006","2009-12-13 07:00","2009","12","13","07:00","-5.5","","-9.7","","72","","","","13","","9","","","","101.77","","","","-10","","NA"
"-73.74","45.47","MONTREAL/PIERRE ELLIOTT TRUDEAU INTL","702S006","2009-12-13 08:00","2009","12","13","08:00","-4.6","","-9.2","","70","","","","14","","19","","","","101.70","","","","-11","","NA"
"-73.74","45.47","MONTREAL/PIERRE ELLIOTT TRUDEAU INTL","702S006","2009-12-13 09:00","2009","12","13","09:00","-3.4","","-8.9","","66","","","","16","","22","","","","101.58","","","","-10","","NA"
"-73.74","45.47","MONTREAL/PIERRE ELLIOTT TRUDEAU INTL","702S006","2009-12-13 10:00","2009","12","13","10:00","-2.8","","-7.9","","68","","","","15","","26","","","","101.40","","","","-10","","NA"
"-73.74","45.47","MONTREAL/PIERRE ELLIOTT TRUDEAU INTL","702S006","2009-12-13 11:00","2009","12","13","11:00","-1.9","","-7.8","","64","","","","15","","26","","","","101.17","","","","-8","","NA"
"-73.74","45.47","MONTREAL/PIERRE ELLIOTT TRUDEAU INTL","702S006","2009-12-13 12:00","2009","12","13","12:00","-1.1","","-7.3","","63","","","","16","","24","","","","101.02","","","","-7","","NA"
"-73.74","45.47","MONTREAL/PIERRE ELLIOTT TRUDEAU INTL","702S006","2009-12-13 13:00","2009","12","13","13:00","-1.4","","-7.1","","65","","","","22","","4","","","","100.89","","","","-3","","NA"
"-73.74","45.47","MONTREAL/PIERRE ELLIOTT TRUDEAU INTL","702S006","2009-12-13 14:00","2009","12","13","14:00","-1.0","","-6.0","","69","","","","13","","13","","","","100.76","","","","-5","","NA"
"-73.74","45.47","MONTREAL/PIERRE ELLIOTT TRUDEAU INTL","702S006","2009-12-13 15:00","2009","12","13","15:00","-2.4","","-3.4","","93","","","","13","","6","","","","100.72","","","","-5","","NA"
"-73.74","45.47","MONTREAL/PIERRE ELLIOTT TRUDEAU INTL","702S006","2009-12-13 16:00","2009","12","13","16:00","-2.4","","-3.0","","96","","","","2","","7","","","","100.66","","","","-5","","NA"
"-73.74","45.47","MONTREAL/PIERRE ELLIOTT TRUDEAU INTL","702S006","2009-12-13 17:00","2009","12","13","17:00","-2.2","","-2.8","","96","","","","3","","7","","","","100.61","","","","-5","","NA"
"-73.74","45.47","MONTREAL/PIERRE ELLIOTT TRUDEAU INTL","702S006","2009-12-13 18:00","2009","12","13","18:00","-2.1","","-2.6","","96","","","","34","","2","","","","100.63","","","","-3","","NA"
"-73.74","45.47","MONTREAL/PIERRE ELLIOTT TRUDEAU INTL","702S006","2009-12-13 19:00","2009","12","13","19:00","-1.9","","-2.4","","96","","","","29","","6","","","","100.67","","","","-4","","NA"
"-73.74","45.47","MONTREAL/PIERRE ELLIOTT TRUDEAU INTL","702S006","2009-12-13 20:00","2009","12","13","20:00","-2.0","","-2.5","","96","","","","30","","6","","","","100.72","","","","-4","","NA"
"-73.74","45.47","MONTREAL/PIERRE ELLIOTT TRUDEAU INTL","702S006","2009-12-13 21:00","2009","12","13","21:00","-1.6","","-2.2","","96","","","","26","","6","","","","100.74","","","","-4","","NA"
"-73.74","45.47","MONTREAL/PIERRE ELLIOTT TRUDEAU INTL","702S006","2009-12-13 22:00","2009","12","13","22:00","-1.8","","-2.6","","94","","","","25","","7","","","","100.84","","","","-4","","NA"
"-73.74","45.47","MONTREAL/PIERRE ELLIOTT TRUDEAU INTL","702S006","2009-12-13 23:00","2009","12","13","23:00","-1.7","","-2.4","","95","","","","25","","6","","","","100.88","","","","-4","","NA"
"-73.74","45.47","MONTREAL/PIERRE ELLIOTT TRUDEAU INTL","702S006","2009-12-14 00:00","2009","12","14","00:00","-1.3","","-1.8","","96","","","","26","","9","","","","100.92","","","","-5","","NA"
"-73.74","45.47","MONTREAL/PIERRE ELLIOTT TRUDEAU INTL","702S006","2009-12-14 01:00","2009","12","14","01:00","-1.4","","-1.8","","97","","","","23","","7","","","","100.92","","","","-4","","NA"
"-73.74","45.47","MONTREAL/PIERRE ELLIOTT TRUDEAU INTL","702S006","2009-12-14 02:00","2009","12","14","02:00","-1.4","","-1.9","","96","","","","24","","7","","","","101.08","","","","-4","","NA"
"-73.74","45.47","MONTREAL/PIERRE ELLIOTT TRUDEAU INTL","702S006","2009-12-14 03:00","2009","12","14","03:00","-1.9","","-2.4","","96","","","","25","","9","","","","101.14","","","","-5","","NA"
"-73.74","45.47","MONTREAL/PIERRE ELLIOTT TRUDEAU INTL","702S006","2009-12-14 04:00","2009","12","14","04:00","-2.3","","-2.9","","96","","","","23","","7","","","","101.19","","","","-5","","NA"
"-73.74","45.47","MONTREAL/PIERRE ELLIOTT TRUDEAU INTL","702S006","2009-12-14 05:00","2009","12","14","05:00","-3.8","","-4.4","","96","","","","25","","4","","","","101.28","","","","-5","","NA"
"-73.74","45.47","MONTREAL/PIERRE ELLIOTT TRUDEAU INTL","702S006","2009-12-14 06:00","2009","12","14","06:00","-4.8","","-5.2","","97","","","","26","","6","","","","101.35","","","","-8","","NA"
"-73.74","45.47","MONTREAL/PIERRE ELLIOTT TRUDEAU INTL","702S006","2009-12-14 07:00","2009","12","14","07:00","-4.3","","-4.6","","98","","","","","","0","","","","101.33","","","","","","NA"
"-73.74","45.47","MONTREAL/PIERRE ELLIOTT TRUDEAU INTL","702S006","2009-12-14 08:00","2009","12","14","08:00","-3.7","","-4.1","","97","","","","26","","4","","","","101.36","","","","-5","","NA"
"-73.74","45.47","MONTREAL/PIERRE ELLIOTT TRUDEAU INTL","702S006","2009-12-14 09:00","2009","12","14","09:00","-1.6","","-2.1","","96","","","","19","","7","","","","101.43","","","","-4","","NA"
"-73.74","45.47","MONTREAL/PIERRE ELLIOTT TRUDEAU INTL","702S006","2009-12-14 10:00","2009","12","14","10:00","-1.6","","-2.3","","95","","","","29","","7","","","","101.50","","","","-4","","NA"
"-73.74","45.47","MONTREAL/PIERRE ELLIOTT TRUDEAU INTL","702S006","2009-12-14 11:00","2009","12","14","11:00","-0.8","","-1.8","","93","","","","26","","2","","","","101.42","","","","-1","","NA"
"-73.74","45.47","MONTREAL/PIERRE ELLIOTT TRUDEAU INTL","702S006","2009-12-14 12:00","2009","12","14","12:00","-0.8","","-2.1","","91","","","","34","","2","","","","101.38","","","","-1","","NA"
"-73.74","45.47","MONTREAL/PIERRE ELLIOTT TRUDEAU INTL","702S006","2009-12-14 13:00","2009","12","14","13:00","0.0","","-1.7","","88","","","","2","","2","","","","101.31","","","","-1","","NA"
"-73.74","45.47","MONTREAL/PIERRE ELLIOTT TRUDEAU INTL","702S006","2009-12-14 14:00","2009","12","14","14:00","0.8","","-0.9","","88","","","","10","","6","","","","101.25","","","","","","NA"
"-73.74","45.47","MONTREAL/PIERRE ELLIOTT TRUDEAU INTL","702S006","2009-12-14 15:00","2009","12","14","15:00","0.8","","-1.4","","85","","","","11","","7","","","","101.18","","","","","","NA"
"-73.74","45.47","MONTREAL/PIERRE ELLIOTT TRUDEAU INTL","702S006","2009-12-14 16:00","2009","12","14","16:00","0.8","","-1.3","","86","","","","10","","6","","","","101.14","","","","","","NA"
"-73.74","45.47","MONTREAL/PIERRE ELLIOTT TRUDEAU INTL","702S006","2009-12-14 17:00","2009","12","14","17:00","0.8","","-1.3","","86","","","","9","","7","","","","101.13","","","","","","NA"
"-73.74","45.47","MONTREAL/PIERRE ELLIOTT TRUDEAU INTL","702S006","2009-12-14 18:00","2009","12","14","18:00","0.9","","-0.9","","88","","","","5","","6","","","","101.12","","","","","","NA"
"-73.74","45.47","MONTREAL/PIERRE ELLIOTT TRUDEAU INTL","702S006","2009-12-14 19:00","2009","12","14","19:00","1.1","","-0.8","","87","","","","7","","6","","","","101.05","","","","","","NA"
"-73.74","45.47","MONTREAL/PIERRE ELLIOTT TRUDEAU INTL","702S006","2009-12-14 20:00","2009","12","14","20:00","0.3","","-1.1","","90","","","","4","","7","","","","100.96","","","","","","NA"
"-73.74","45.47","MONTREAL/PIERRE ELLIOTT TRUDEAU INTL","702S006","2009-12-14 21:00","2009","12","14","21:00","0.1","","-1.2","","91","","","","5","","9","","","","100.88","","","","","","NA"
"-73.74","45.47","MONTREAL/PIERRE ELLIOTT TRUDEAU INTL","702S006","2009-12-14 22:00","2009","12","14","22:00","0.1","","-1.4","","90","","","","3","","9","","","","100.81","","","","","","NA"
"-73.74","45.47","MONTREAL/PIERRE ELLIOTT TRUDEAU INTL","702S006","2009-12-14 23:00","2009","12","14","23:00","-2.3","","-3.1","","94","","","","2","","15","","","","100.80","","","","-7","","NA"
"-73.74","45.47","MONTREAL/PIERRE ELLIOTT TRUDEAU INTL","702S006","2009-12-15 00:00","2009","12","15","00:00","-2.2","","-2.9","","95","","","","3","","15","","","","100.75","","","","-7","","NA"
"-73.74","45.47","MONTREAL/PIERRE ELLIOTT TRUDEAU INTL","702S006","2009-12-15 01:00","2009","12","15","01:00","-1.8","","-2.5","","95","","","","3","","15","","","","100.70","","","","-7","","NA"
"-73.74","45.47","MONTREAL/PIERRE ELLIOTT TRUDEAU INTL","702S006","2009-12-15 02:00","2009","12","15","02:00","-1.6","","-2.3","","95","","","","4","","13","","","","100.69","","","","-6","","NA"
"-73.74","45.47","MONTREAL/PIERRE ELLIOTT TRUDEAU INTL","702S006","2009-12-15 03:00","2009","12","15","03:00","-1.7","","-2.4","","95","","","","3","","15","","","","100.62","","","","-7","","NA"
"-73.74","45.47","MONTREAL/PIERRE ELLIOTT TRUDEAU INTL","702S006","2009-12-15 04:00","2009","12","15","04:00","-2.4","","-3.1","","95","","","","3","","13","","","","100.58","","","","-7","","NA"
"-73.74","45.47","MONTREAL/PIERRE ELLIOTT TRUDEAU INTL","702S006","2009-12-15 05:00","2009","12","15","05:00","-2.9","","-3.6","","95","","","","3","","19","","","","100.56","","","","-9","","NA"
"-73.74","45.47","MONTREAL/PIERRE ELLIOTT TRUDEAU INTL","702S006","2009-12-15 06:00","2009","12","15","06:00","-2.7","","-3.5","","94","","","","3","","17","","","","100.49","","","","-8","","NA"
"-73.74","45.47","MONTREAL/PIERRE ELLIOTT TRUDEAU INTL","702S006","2009-12-15 07:00","2009","12","15","07:00","-2.9","","-3.6","","95","","","","2","","19","","","","100.48","","","","-9","","NA"
"-73.74","45.47","MONTREAL/PIERRE ELLIOTT TRUDEAU INTL","702S006","2009-12-15 08:00","2009","12","15","08:00","-2.7","","-3.3","","96","","","","2","","19","","","","100.49","","","","-8","","NA"
"-73.74","45.47","MONTREAL/PIERRE ELLIOTT TRUDEAU INTL","702S006","2009-12-15 09:00","2009","12","15","09:00","-2.6","","-3.3","","95","","","","2","","19","","","","100.55","","","","-8","","NA"
"-73.74","45.47","MONTREAL/PIERRE ELLIOTT TRUDEAU INTL","702S006","2009-12-15 10:00","2009","12","15","10:00","-2.6","","-3.4","","94","","","","2","","22","","","","100.58","","","","-9","","NA"
"-73.74","45.47","MONTREAL/PIERRE ELLIOTT TRUDEAU INTL","702S006","2009-12-15 11:00","2009","12","15","11:00","-2.3","","-3.4","","92","","","","2","","15","","","","100.55","","","","-7","","NA"
"-73.74","45.47","MONTREAL/PIERRE ELLIOTT TRUDEAU INTL","702S006","2009-12-15 12:00","2009","12","15","12:00","-2.0","","-3.4","","90","","","","35","","11","","","","100.58","","","","-6","","NA"
"-73.74","45.47","MONTREAL/PIERRE ELLIOTT TRUDEAU INTL","702S006","2009-12-15 13:00","2009","12","15","13:00","-2.1","","-3.0","","94","","","","29","","13","","","","100.64","","","","-7","","NA"
"-73.74","45.47","MONTREAL/PIERRE ELLIOTT TRUDEAU INTL","702S006","2009-12-15 14:00","2009","12","15","14:00","-1.6","","-2.9","","91","","","","25","","6","","","","100.63","","","","-4","","NA"
"-73.74","45.47","MONTREAL/PIERRE ELLIOTT TRUDEAU INTL","702S006","2009-12-15 15:00","2009","12","15","15:00","-0.8","","-2.0","","92","","","","24","","15","","","","100.70","","","","-5","","NA"
"-73.74","45.47","MONTREAL/PIERRE ELLIOTT TRUDEAU INTL","702S006","2009-12-15 16:00","2009","12","15","16:00","-0.5","","-1.8","","91","","","","24","","17","","","","100.72","","","","-5","","NA"
"-73.74","45.47","MONTREAL/PIERRE ELLIOTT TRUDEAU INTL","702S006","2009-12-15 17:00","2009","12","15","17:00","-0.9","","-2.5","","89","","","","26","","17","","","","100.82","","","","-6","","NA"
"-73.74","45.47","MONTREAL/PIERRE ELLIOTT TRUDEAU INTL","702S006","2009-12-15 18:00","2009","12","15","18:00","-1.3","","-3.1","","88","","","","26","","17","","","","100.93","","","","-6","","NA"
"-73.74","45.47","MONTREAL/PIERRE ELLIOTT TRUDEAU INTL","702S006","2009-12-15 19:00","2009","12","15","19:00","-1.7","","-5.1","","78","","","","29","","20","","","","100.99","","","","-7","","NA"
"-73.74","45.47","MONTREAL/PIERRE ELLIOTT TRUDEAU INTL","702S006","2009-12-15 20:00","2009","12","15","20:00","-2.6","","-6.6","","74","","","","31","","20","","","","101.02","","","","-9","","NA"
"-73.74","45.47","MONTREAL/PIERRE ELLIOTT TRUDEAU INTL","702S006","2009-12-15 21:00","2009","12","15","21:00","-3.5","","-7.7","","73","","","","29","","26","","","","101.13","","","","-11","","NA"
"-73.74","45.47","MONTREAL/PIERRE ELLIOTT TRUDEAU INTL","702S006","2009-12-15 22:00","2009","12","15","22:00","-5.0","","-10.1","","67","","","","29","","24","","","","101.24","","","","-12","","NA"
"-73.74","45.47","MONTREAL/PIERRE ELLIOTT TRUDEAU INTL","702S006","2009-12-15 23:00","2009","12","15","23:00","-5.9","","-10.3","","71","","","","30","","19","","","","101.36","","","","-13","","NA"
"-73.74","45.47","MONTREAL/PIERRE ELLIOTT TRUDEAU INTL","702S006","2009-12-16 00:00","2009","12","16","00:00","-6.5","","-11.4","","68","","","","29","","20","","","","101.40","","","","-13","","NA"
"-73.74","45.47","MONTREAL/PIERRE ELLIOTT TRUDEAU INTL","702S006","2009-12-16 01:00","2009","12","16","01:00","-7.8","","-12.5","","69","","","","29","","22","","","","101.47","","","","-15","","NA"
"-73.74","45.47","MONTREAL/PIERRE ELLIOTT TRUDEAU INTL","702S006","2009-12-16 02:00","2009","12","16","02:00","-9.2","","-13.4","","71","","","","29","","24","","","","101.54","","","","-18","","NA"
"-73.74","45.47","MONTREAL/PIERRE ELLIOTT TRUDEAU INTL","702S006","2009-12-16 03:00","2009","12","16","03:00","-10.1","","-14.1","","72","","","","28","","22","","","","101.63","","","","-18","","NA"
"-73.74","45.47","MONTREAL/PIERRE ELLIOTT TRUDEAU INTL","702S006","2009-12-16 04:00","2009","12","16","04:00","-11.1","","-15.8","","68","","","","29","","30","","","","101.71","","","","-21","","NA"
"-73.74","45.47","MONTREAL/PIERRE ELLIOTT TRUDEAU INTL","702S006","2009-12-16 05:00","2009","12","16","05:00","-11.8","","-16.2","","70","","","","28","","28","","","","101.80","","","","-22","","NA"
"-73.74","45.47","MONTREAL/PIERRE ELLIOTT TRUDEAU INTL","702S006","2009-12-16 06:00","2009","12","16","06:00","-12.7","","-17.6","","67","","","","32","","15","","","","101.81","","","","-20","","NA"
"-73.74","45.47","MONTREAL/PIERRE ELLIOTT TRUDEAU INTL","702S006","2009-12-16 07:00","2009","12","16","07:00","-13.0","","-17.5","","69","","","","29","","11","","","","101.85","","","","-19","","NA"
"-73.74","45.47","MONTREAL/PIERRE ELLIOTT TRUDEAU INTL","702S006","2009-12-16 08:00","2009","12","16","08:00","-11.9","","-16.3","","70","","","","26","","15","","","","101.96","","","","-19","","NA"
"-73.74","45.47","MONTREAL/PIERRE ELLIOTT TRUDEAU INTL","702S006","2009-12-16 09:00","2009","12","16","09:00","-11.5","","-16.3","","68","","","","29","","20","","","","101.99","","","","-20","","NA"
"-73.74","45.47","MONTREAL/PIERRE ELLIOTT TRUDEAU INTL","702S006","2009-12-16 10:00","2009","12","16","10:00","-11.1","","-15.2","","72","","","","29","","9","","","","101.91","","","","-16","","NA"
"-73.74","45.47","MONTREAL/PIERRE ELLIOTT TRUDEAU INTL","702S006","2009-12-16 11:00","2009","12","16","11:00","-10.6","","-13.9","","77","","","","27","","9","","","","101.80","","","","-16","","NA"
"-73.74","45.47","MONTREAL/PIERRE ELLIOTT TRUDEAU INTL","702S006","2009-12-16 12:00","2009","12","16","12:00","-10.4","","-12.8","","83","","","","29","","4","","","","101.73","","","","-13","","NA"
"-73.74","45.47","MONTREAL/PIERRE ELLIOTT TRUDEAU INTL","702S006","2009-12-16 13:00","2009","12","16","13:00","-10.3","","-12.8","","82","","","","1","","6","","","","101.66","","","","-14","","NA"
"-73.74","45.47","MONTREAL/PIERRE ELLIOTT TRUDEAU INTL","702S006","2009-12-16 14:00","2009","12","16","14:00","-10.0","","-12.6","","81","","","","31","","6","","","","101.64","","","","-14","","NA"
"-73.74","45.47","MONTREAL/PIERRE ELLIOTT TRUDEAU INTL","702S006","2009-12-16 15:00","2009","12","16","15:00","-9.6","","-12.7","","78","","","","30","","19","","","","101.65","","","","-17","","NA"
"-73.74","45.47","MONTREAL/PIERRE ELLIOTT TRUDEAU INTL","702S006","2009-12-16 16:00","2009","12","16","16:00","-9.8","","-15.1","","65","","","","31","","22","","","","101.70","","","","-18","","NA"
"-73.74","45.47","MONTREAL/PIERRE ELLIOTT TRUDEAU INTL","702S006","2009-12-16 17:00","2009","12","16","17:00","-10.1","","-15.1","","67","","","","30","","22","","","","101.74","","","","-18","","NA"
"-73.74","45.47","MONTREAL/PIERRE ELLIOTT TRUDEAU INTL","702S006","2009-12-16 18:00","2009","12","16","18:00","-10.4","","-15.5","","66","","","","31","","20","","","","101.79","","","","-18","","NA"
"-73.74","45.47","MONTREAL/PIERRE ELLIOTT TRUDEAU INTL","702S006","2009-12-16 19:00","2009","12","16","19:00","-10.9","","-15.9","","67","","","","31","","26","","","","101.80","","","","-20","","NA"
"-73.74","45.47","MONTREAL/PIERRE ELLIOTT TRUDEAU INTL","702S006","2009-12-16 20:00","2009","12","16","20:00","-12.1","","-17.6","","64","","","","32","","32","","","","101.85","","","","-23","","NA"
"-73.74","45.47","MONTREAL/PIERRE ELLIOTT TRUDEAU INTL","702S006","2009-12-16 21:00","2009","12","16","21:00","-13.6","","-19.4","","62","","","","32","","30","","","","101.91","","","","-24","","NA"
"-73.74","45.47","MONTREAL/PIERRE ELLIOTT TRUDEAU INTL","702S006","2009-12-16 22:00","2009","12","16","22:00","-14.5","","-20.8","","59","","","","32","","30","","","","101.97","","","","-25","","NA"
"-73.74","45.47","MONTREAL/PIERRE ELLIOTT TRUDEAU INTL","702S006","2009-12-16 23:00","2009","12","16","23:00","-15.3","","-21.3","","60","","","","31","","26","","","","102.06","","","","-26","","NA"
"-73.74","45.47","MONTREAL/PIERRE ELLIOTT TRUDEAU INTL","702S006","2009-12-17 00:00","2009","12","17","00:00","-16.2","","-22.4","","59","","","","30","","24","","","","102.10","","","","-27","","NA"
"-73.74","45.47","MONTREAL/PIERRE ELLIOTT TRUDEAU INTL","702S006","2009-12-17 01:00","2009","12","17","01:00","-17.0","","-23.1","","59","","","","30","","22","","","","102.15","","","","-27","","NA"
"-73.74","45.47","MONTREAL/PIERRE ELLIOTT TRUDEAU INTL","702S006","2009-12-17 02:00","2009","12","17","02:00","-17.9","","-24.1","","58","","","","31","","17","","","","102.27","","","","-27","","NA"
"-73.74","45.47","MONTREAL/PIERRE ELLIOTT TRUDEAU INTL","702S006","2009-12-17 03:00","2009","12","17","03:00","-18.6","","-24.5","","60","","","","30","","17","","","","102.32","","","","-28","","NA"
"-73.74","45.47","MONTREAL/PIERRE ELLIOTT TRUDEAU INTL","702S006","2009-12-17 04:00","2009","12","17","04:00","-19.1","","-24.5","","62","","","","29","","17","","","","102.37","","","","-29","","NA"
"-73.74","45.47","MONTREAL/PIERRE ELLIOTT TRUDEAU INTL","702S006","2009-12-17 05:00","2009","12","17","05:00","-19.0","","-24.2","","63","","","","28","","15","","","","102.40","","","","-28","","NA"
"-73.74","45.47","MONTREAL/PIERRE ELLIOTT TRUDEAU INTL","702S006","2009-12-17 06:00","2009","12","17","06:00","-19.1","","-24.5","","62","","","","28","","20","","","","102.38","","","","-29","","NA"
"-73.74","45.47","MONTREAL/PIERRE ELLIOTT TRUDEAU INTL","702S006","2009-12-17 07:00","2009","12","17","07:00","-19.0","","-24.6","","61","","","","28","","20","","","","102.42","","","","-29","","NA"
"-73.74","45.47","MONTREAL/PIERRE ELLIOTT TRUDEAU INTL","702S006","2009-12-17 08:00","2009","12","17","08:00","-19.3","","-24.7","","62","","","","28","","24","","","","102.47","","","","-31","","NA"
"-73.74","45.47","MONTREAL/PIERRE ELLIOTT TRUDEAU INTL","702S006","2009-12-17 09:00","2009","12","17","09:00","-18.4","","-24.3","","60","","","","28","","24","","","","102.50","","","","-29","","NA"
"-73.74","45.47","MONTREAL/PIERRE ELLIOTT TRUDEAU INTL","702S006","2009-12-17 10:00","2009","12","17","10:00","-17.5","","-22.7","","64","","","","28","","24","","","","102.55","","","","-28","","NA"
"-73.74","45.47","MONTREAL/PIERRE ELLIOTT TRUDEAU INTL","702S006","2009-12-17 11:00","2009","12","17","11:00","-17.1","","-22.5","","63","","","","27","","26","","","","102.54","","","","-28","","NA"
"-73.74","45.47","MONTREAL/PIERRE ELLIOTT TRUDEAU INTL","702S006","2009-12-17 12:00","2009","12","17","12:00","-16.8","","-22.4","","62","","","","29","","26","","","","102.45","","","","-28","","NA"
"-73.74","45.47","MONTREAL/PIERRE ELLIOTT TRUDEAU INTL","702S006","2009-12-17 13:00","2009","12","17","13:00","-16.0","","-21.3","","64","","","","27","","22","","","","102.39","","","","-26","","NA"
"-73.74","45.47","MONTREAL/PIERRE ELLIOTT TRUDEAU INTL","702S006","2009-12-17 14:00","2009","12","17","14:00","-15.4","","-21.3","","61","","","","27","","24","","","","102.36","","","","-26","","NA"
"-73.74","45.47","MONTREAL/PIERRE ELLIOTT TRUDEAU INTL","702S006","2009-12-17 15:00","2009","12","17","15:00","-15.2","","-21.0","","61","","","","27","","22","","","","102.40","","","","-25","","NA"
"-73.74","45.47","MONTREAL/PIERRE ELLIOTT TRUDEAU INTL","702S006","2009-12-17 16:00","2009","12","17","16:00","-15.6","","-21.3","","62","","","","27","","26","","","","102.42","","","","-26","","NA"
"-73.74","45.47","MONTREAL/PIERRE ELLIOTT TRUDEAU INTL","702S006","2009-12-17 17:00","2009","12","17","17:00","-15.8","","-21.4","","62","","","","26","","20","","","","102.47","","","","-25","","NA"
"-73.74","45.47","MONTREAL/PIERRE ELLIOTT TRUDEAU INTL","702S006","2009-12-17 18:00","2009","12","17","18:00","-16.0","","-21.0","","65","","","","26","","17","","","","102.48","","","","-25","","NA"
"-73.74","45.47","MONTREAL/PIERRE ELLIOTT TRUDEAU INTL","702S006","2009-12-17 19:00","2009","12","17","19:00","-16.4","","-21.3","","66","","","","26","","20","","","","102.48","","","","-26","","NA"
"-73.74","45.47","MONTREAL/PIERRE ELLIOTT TRUDEAU INTL","702S006","2009-12-17 20:00","2009","12","17","20:00","-17.1","","-21.3","","70","","","","25","","15","","","","102.47","","","","-26","","NA"
"-73.74","45.47","MONTREAL/PIERRE ELLIOTT TRUDEAU INTL","702S006","2009-12-17 21:00","2009","12","17","21:00","-16.6","","-20.6","","71","","","","26","","17","","","","102.43","","","","-25","","NA"
"-73.74","45.47","MONTREAL/PIERRE ELLIOTT TRUDEAU INTL","702S006","2009-12-17 22:00","2009","12","17","22:00","-16.3","","-20.4","","71","","","","26","","17","","","","102.41","","","","-25","","NA"
"-73.74","45.47","MONTREAL/PIERRE ELLIOTT TRUDEAU INTL","702S006","2009-12-17 23:00","2009","12","17","23:00","-16.2","","-19.9","","73","","","","27","","15","","","","102.41","","","","-24","","NA"
"-73.74","45.47","MONTREAL/PIERRE ELLIOTT TRUDEAU INTL","702S006","2009-12-18 00:00","2009","12","18","00:00","-17.2","","-20.7","","74","","","","25","","13","","","","102.39","","","","-25","","NA"
"-73.74","45.47","MONTREAL/PIERRE ELLIOTT TRUDEAU INTL","702S006","2009-12-18 01:00","2009","12","18","01:00","-16.5","","-20.0","","74","","","","27","","13","","","","102.39","","","","-24","","NA"
"-73.74","45.47","MONTREAL/PIERRE ELLIOTT TRUDEAU INTL","702S006","2009-12-18 02:00","2009","12","18","02:00","-17.1","","-20.3","","76","","","","28","","19","","","","102.39","","","","-27","","NA"
"-73.74","45.47","MONTREAL/PIERRE ELLIOTT TRUDEAU INTL","702S006","2009-12-18 03:00","2009","12","18","03:00","-16.8","","-19.6","","79","","","","27","","15","","","","102.36","","","","-25","","NA"
"-73.74","45.47","MONTREAL/PIERRE ELLIOTT TRUDEAU INTL","702S006","2009-12-18 04:00","2009","12","18","04:00","-17.4","","-20.3","","78","","","","26","","15","","","","102.35","","","","-26","","NA"
"-73.74","45.47","MONTREAL/PIERRE ELLIOTT TRUDEAU INTL","702S006","2009-12-18 05:00","2009","12","18","05:00","-18.8","","-21.5","","79","","","","26","","17","","","","102.33","","","","-28","","NA"
"-73.74","45.47","MONTREAL/PIERRE ELLIOTT TRUDEAU INTL","702S006","2009-12-18 06:00","2009","12","18","06:00","-18.5","","-20.9","","81","","","","23","","4","","","","102.36","","","","-22","","NA"
"-73.74","45.47","MONTREAL/PIERRE ELLIOTT TRUDEAU INTL","702S006","2009-12-18 07:00","2009","12","18","07:00","-18.2","","-20.8","","80","","","","26","","6","","","","102.33","","","","-23","","NA"
"-73.74","45.47","MONTREAL/PIERRE ELLIOTT TRUDEAU INTL","702S006","2009-12-18 08:00","2009","12","18","08:00","-18.6","","-21.1","","81","","","","25","","4","","","","102.30","","","","-22","","NA"
"-73.74","45.47","MONTREAL/PIERRE ELLIOTT TRUDEAU INTL","702S006","2009-12-18 09:00","2009","12","18","09:00","-17.1","","-20.1","","77","","","","26","","11","","","","102.28","","","","-24","","NA"
"-73.74","45.47","MONTREAL/PIERRE ELLIOTT TRUDEAU INTL","702S006","2009-12-18 10:00","2009","12","18","10:00","-15.5","","-19.5","","71","","","","26","","13","","","","102.30","","","","-23","","NA"
"-73.74","45.47","MONTREAL/PIERRE ELLIOTT TRUDEAU INTL","702S006","2009-12-18 11:00","2009","12","18","11:00","-14.2","","-19.2","","66","","","","27","","19","","","","102.26","","","","-23","","NA"
"-73.74","45.47","MONTREAL/PIERRE ELLIOTT TRUDEAU INTL","702S006","2009-12-18 12:00","2009","12","18","12:00","-12.7","","-18.1","","64","","","","26","","9","","","","102.17","","","","-18","","NA"
"-73.74","45.47","MONTREAL/PIERRE ELLIOTT TRUDEAU INTL","702S006","2009-12-18 13:00","2009","12","18","13:00","-12.0","","-18.1","","60","","","","27","","13","","","","102.07","","","","-19","","NA"
"-73.74","45.47","MONTREAL/PIERRE ELLIOTT TRUDEAU INTL","702S006","2009-12-18 14:00","2009","12","18","14:00","-11.4","","-19.0","","53","","","","26","","11","","","","102.00","","","","-17","","NA"
"-73.74","45.47","MONTREAL/PIERRE ELLIOTT TRUDEAU INTL","702S006","2009-12-18 15:00","2009","12","18","15:00","-11.5","","-19.1","","53","","","","26","","11","","","","101.95","","","","-17","","NA"
"-73.74","45.47","MONTREAL/PIERRE ELLIOTT TRUDEAU INTL","702S006","2009-12-18 16:00","2009","12","18","16:00","-12.1","","-19.8","","53","","","","25","","9","","","","101.92","","","","-17","","NA"
"-73.74","45.47","MONTREAL/PIERRE ELLIOTT TRUDEAU INTL","702S006","2009-12-18 17:00","2009","12","18","17:00","-12.8","","-19.8","","56","","","","25","","9","","","","101.90","","","","-18","","NA"
"-73.74","45.47","MONTREAL/PIERRE ELLIOTT TRUDEAU INTL","702S006","2009-12-18 18:00","2009","12","18","18:00","-13.5","","-20.3","","57","","","","27","","7","","","","101.88","","","","-18","","NA"
"-73.74","45.47","MONTREAL/PIERRE ELLIOTT TRUDEAU INTL","702S006","2009-12-18 19:00","2009","12","18","19:00","-13.4","","-19.7","","59","","","","24","","7","","","","101.91","","","","-18","","NA"
"-73.74","45.47","MONTREAL/PIERRE ELLIOTT TRUDEAU INTL","702S006","2009-12-18 20:00","2009","12","18","20:00","-14.0","","-20.2","","59","","","","26","","6","","","","101.86","","","","-18","","NA"
"-73.74","45.47","MONTREAL/PIERRE ELLIOTT TRUDEAU INTL","702S006","2009-12-18 21:00","2009","12","18","21:00","-14.3","","-19.1","","67","","","","29","","2","","","","101.82","","","","-16","","NA"
"-73.74","45.47","MONTREAL/PIERRE ELLIOTT TRUDEAU INTL","702S006","2009-12-18 22:00","2009","12","18","22:00","-15.5","","-19.6","","71","","","","28","","4","","","","101.78","","","","-18","","NA"
"-73.74","45.47","MONTREAL/PIERRE ELLIOTT TRUDEAU INTL","702S006","2009-12-18 23:00","2009","12","18","23:00","-16.3","","-19.5","","76","","","","","","0","","","","101.68","","","","","","NA"
"-73.74","45.47","MONTREAL/PIERRE ELLIOTT TRUDEAU INTL","702S006","2009-12-19 00:00","2009","12","19","00:00","-18.9","","-21.2","","82","","","","27","","4","","","","101.63","","","","-22","","NA"
"-73.74","45.47","MONTREAL/PIERRE ELLIOTT TRUDEAU INTL","702S006","2009-12-19 01:00","2009","12","19","01:00","-18.2","","-20.2","","84","","","","26","","4","","","","101.59","","","","-21","","NA"
"-73.74","45.47","MONTREAL/PIERRE ELLIOTT TRUDEAU INTL","702S006","2009-12-19 02:00","2009","12","19","02:00","-16.7","","-18.8","","84","","","","32","","4","","","","101.57","","","","-20","","NA"
"-73.74","45.47","MONTREAL/PIERRE ELLIOTT TRUDEAU INTL","702S006","2009-12-19 03:00","2009","12","19","03:00","-17.1","","-19.1","","84","","","","","","0","","","","101.59","","","","","","NA"
"-73.74","45.47","MONTREAL/PIERRE ELLIOTT TRUDEAU INTL","702S006","2009-12-19 04:00","2009","12","19","04:00","-18.3","","-20.3","","84","","","","25","","4","","","","101.54","","","","-22","","NA"
"-73.74","45.47","MONTREAL/PIERRE ELLIOTT TRUDEAU INTL","702S006","2009-12-19 05:00","2009","12","19","05:00","-20.6","","-22.6","","84","","","","34","","4","","","","101.49","","","","-24","","NA"
"-73.74","45.47","MONTREAL/PIERRE ELLIOTT TRUDEAU INTL","702S006","2009-12-19 06:00","2009","12","19","06:00","-18.4","","-20.3","","85","","","","2","","6","","","","101.43","","","","-23","","NA"
"-73.74","45.47","MONTREAL/PIERRE ELLIOTT TRUDEAU INTL","702S006","2009-12-19 07:00","2009","12","19","07:00","-18.6","","-20.8","","83","","","","2","","6","","","","101.35","","","","-23","","NA"
"-73.74","45.47","MONTREAL/PIERRE ELLIOTT TRUDEAU INTL","702S006","2009-12-19 08:00","2009","12","19","08:00","-21.0","","-23.2","","82","","","","29","","6","","","","101.40","","","","-26","","NA"
"-73.74","45.47","MONTREAL/PIERRE ELLIOTT TRUDEAU INTL","702S006","2009-12-19 09:00","2009","12","19","09:00","-17.6","","-19.6","","84","","","","34","","6","","","","101.43","","","","-22","","NA"
"-73.74","45.47","MONTREAL/PIERRE ELLIOTT TRUDEAU INTL","702S006","2009-12-19 10:00","2009","12","19","10:00","-15.0","","-17.1","","84","","","","36","","4","","","","101.47","","","","-18","","NA"
"-73.74","45.47","MONTREAL/PIERRE ELLIOTT TRUDEAU INTL","702S006","2009-12-19 11:00","2009","12","19","11:00","-12.4","","-15.6","","77","","","","36","","4","","","","101.33","","","","-15","","NA"
"-73.74","45.47","MONTREAL/PIERRE ELLIOTT TRUDEAU INTL","702S006","2009-12-19 12:00","2009","12","19","12:00","-9.1","","-14.6","","64","","","","","","0","","","","101.25","","","","","","NA"
"-73.74","45.47","MONTREAL/PIERRE ELLIOTT TRUDEAU INTL","702S006","2009-12-19 13:00","2009","12","19","13:00","-8.5","","-16.4","","53","","","","","","0","","","","101.11","","","","","","NA"
"-73.74","45.47","MONTREAL/PIERRE ELLIOTT TRUDEAU INTL","702S006","2009-12-19 14:00","2009","12","19","14:00","-7.3","","-18.7","","40","","","","26","","2","","","","101.07","","","","-8","","NA"
"-73.74","45.47","MONTREAL/PIERRE ELLIOTT TRUDEAU INTL","702S006","2009-12-19 15:00","2009","12","19","15:00","-7.7","","-24.2","","25","","","","27","","4","","","","101.06","","","","-10","","NA"
"-73.74","45.47","MONTREAL/PIERRE ELLIOTT TRUDEAU INTL","702S006","2009-12-19 16:00","2009","12","19","16:00","-8.7","","-16.3","","54","","","","25","","4","","","","101.06","","","","-11","","NA"
"-73.74","45.47","MONTREAL/PIERRE ELLIOTT TRUDEAU INTL","702S006","2009-12-19 17:00","2009","12","19","17:00","-11.4","","-18.4","","56","","","","28","","7","","","","101.06","","","","-16","","NA"
"-73.74","45.47","MONTREAL/PIERRE ELLIOTT TRUDEAU INTL","702S006","2009-12-19 18:00","2009","12","19","18:00","-11.5","","-18.3","","57","","","","30","","4","","","","101.01","","","","-14","","NA"
"-73.74","45.47","MONTREAL/PIERRE ELLIOTT TRUDEAU INTL","702S006","2009-12-19 19:00","2009","12","19","19:00","-10.4","","-17.8","","55","","","","1","","6","","","","100.95","","","","-14","","NA"
"-73.74","45.47","MONTREAL/PIERRE ELLIOTT TRUDEAU INTL","702S006","2009-12-19 20:00","2009","12","19","20:00","-12.5","","-17.9","","64","","","","32","","6","","","","100.94","","","","-16","","NA"
"-73.74","45.47","MONTREAL/PIERRE ELLIOTT TRUDEAU INTL","702S006","2009-12-19 21:00","2009","12","19","21:00","-12.2","","-18.8","","58","","","","32","","4","","","","100.98","","","","-15","","NA"
"-73.74","45.47","MONTREAL/PIERRE ELLIOTT TRUDEAU INTL","702S006","2009-12-19 22:00","2009","12","19","22:00","-12.7","","-18.9","","60","","","","32","","2","","","","100.97","","","","-14","","NA"
"-73.74","45.47","MONTREAL/PIERRE ELLIOTT TRUDEAU INTL","702S006","2009-12-19 23:00","2009","12","19","23:00","-12.8","","-18.5","","62","","","","2","","6","","","","100.94","","","","-17","","NA"
"-73.74","45.47","MONTREAL/PIERRE ELLIOTT TRUDEAU INTL","702S006","2009-12-20 00:00","2009","12","20","00:00","-13.2","","-18.6","","64","","","","31","","2","","","","100.93","","","","-15","","NA"
"-73.74","45.47","MONTREAL/PIERRE ELLIOTT TRUDEAU INTL","702S006","2009-12-20 01:00","2009","12","20","01:00","-13.8","","-18.1","","70","","","","32","","2","","","","100.88","","","","-15","","NA"
"-73.74","45.47","MONTREAL/PIERRE ELLIOTT TRUDEAU INTL","702S006","2009-12-20 02:00","2009","12","20","02:00","-13.5","","-18.2","","68","","","","33","","6","","","","100.86","","","","-18","","NA"
"-73.74","45.47","MONTREAL/PIERRE ELLIOTT TRUDEAU INTL","702S006","2009-12-20 03:00","2009","12","20","03:00","-14.1","","-18.2","","71","","","","31","","4","","","","100.84","","","","-17","","NA"
"-73.74","45.47","MONTREAL/PIERRE ELLIOTT TRUDEAU INTL","702S006","2009-12-20 04:00","2009","12","20","04:00","-11.5","","-17.2","","63","","","","2","","9","","","","100.77","","","","-17","","NA"
"-73.74","45.47","MONTREAL/PIERRE ELLIOTT TRUDEAU INTL","702S006","2009-12-20 05:00","2009","12","20","05:00","-11.7","","-16.9","","65","","","","2","","7","","","","100.75","","","","-16","","NA"
"-73.74","45.47","MONTREAL/PIERRE ELLIOTT TRUDEAU INTL","702S006","2009-12-20 06:00","2009","12","20","06:00","-11.8","","-16.5","","68","","","","1","","7","","","","100.73","","","","-16","","NA"
"-73.74","45.47","MONTREAL/PIERRE ELLIOTT TRUDEAU INTL","702S006","2009-12-20 07:00","2009","12","20","07:00","-12.5","","-17.0","","69","","","","1","","9","","","","100.82","","","","-18","","NA"
"-73.74","45.47","MONTREAL/PIERRE ELLIOTT TRUDEAU INTL","702S006","2009-12-20 08:00","2009","12","20","08:00","-12.8","","-17.1","","70","","","","1","","6","","","","100.84","","","","-17","","NA"
"-73.74","45.47","MONTREAL/PIERRE ELLIOTT TRUDEAU INTL","702S006","2009-12-20 09:00","2009","12","20","09:00","-12.8","","-16.7","","73","","","","35","","4","","","","100.85","","","","-15","","NA"
"-73.74","45.47","MONTREAL/PIERRE ELLIOTT TRUDEAU INTL","702S006","2009-12-20 10:00","2009","12","20","10:00","-11.1","","-16.5","","64","","","","3","","6","","","","100.84","","","","-15","","NA"
"-73.74","45.47","MONTREAL/PIERRE ELLIOTT TRUDEAU INTL","702S006","2009-12-20 11:00","2009","12","20","11:00","-10.3","","-15.9","","63","","","","28","","4","","","","100.79","","","","-13","","NA"
"-73.74","45.47","MONTREAL/PIERRE ELLIOTT TRUDEAU INTL","702S006","2009-12-20 12:00","2009","12","20","12:00","-9.8","","-16.0","","61","","","","30","","7","","","","100.74","","","","-14","","NA"
"-73.74","45.47","MONTREAL/PIERRE ELLIOTT TRUDEAU INTL","702S006","2009-12-20 13:00","2009","12","20","13:00","-9.5","","-15.5","","62","","","","30","","9","","","","100.68","","","","-14","","NA"
"-73.74","45.47","MONTREAL/PIERRE ELLIOTT TRUDEAU INTL","702S006","2009-12-20 14:00","2009","12","20","14:00","-8.5","","-15.3","","58","","","","26","","6","","","","100.66","","","","-12","","NA"
"-73.74","45.47","MONTREAL/PIERRE ELLIOTT TRUDEAU INTL","702S006","2009-12-20 15:00","2009","12","20","15:00","-8.7","","-14.7","","62","","","","26","","7","","","","100.71","","","","-13","","NA"
"-73.74","45.47","MONTREAL/PIERRE ELLIOTT TRUDEAU INTL","702S006","2009-12-20 16:00","2009","12","20","16:00","-9.0","","-15.2","","61","","","","27","","19","","","","100.75","","","","-16","","NA"
"-73.74","45.47","MONTREAL/PIERRE ELLIOTT TRUDEAU INTL","702S006","2009-12-20 17:00","2009","12","20","17:00","-9.6","","-15.3","","63","","","","28","","15","","","","100.81","","","","-16","","NA"
"-73.74","45.47","MONTREAL/PIERRE ELLIOTT TRUDEAU INTL","702S006","2009-12-20 18:00","2009","12","20","18:00","-9.8","","-14.8","","67","","","","29","","19","","","","100.83","","","","-17","","NA"
"-73.74","45.47","MONTREAL/PIERRE ELLIOTT TRUDEAU INTL","702S006","2009-12-20 19:00","2009","12","20","19:00","-10.0","","-14.6","","69","","","","30","","17","","","","100.84","","","","-17","","NA"
"-73.74","45.47","MONTREAL/PIERRE ELLIOTT TRUDEAU INTL","702S006","2009-12-20 20:00","2009","12","20","20:00","-10.3","","-14.7","","70","","","","28","","17","","","","100.85","","","","-18","","NA"
"-73.74","45.47","MONTREAL/PIERRE ELLIOTT TRUDEAU INTL","702S006","2009-12-20 21:00","2009","12","20","21:00","-10.7","","-14.3","","75","","","","27","","11","","","","100.82","","","","-16","","NA"
"-73.74","45.47","MONTREAL/PIERRE ELLIOTT TRUDEAU INTL","702S006","2009-12-20 22:00","2009","12","20","22:00","-11.3","","-14.7","","76","","","","28","","11","","","","100.81","","","","-17","","NA"
"-73.74","45.47","MONTREAL/PIERRE ELLIOTT TRUDEAU INTL","702S006","2009-12-20 23:00","2009","12","20","23:00","-11.3","","-14.8","","75","","","","30","","17","","","","100.81","","","","-19","","NA"
"-73.74","45.47","MONTREAL/PIERRE ELLIOTT TRUDEAU INTL","702S006","2009-12-21 00:00","2009","12","21","00:00","-11.7","","-15.3","","75","","","","29","","15","","","","100.83","","","","-19","","NA"
"-73.74","45.47","MONTREAL/PIERRE ELLIOTT TRUDEAU INTL","702S006","2009-12-21 01:00","2009","12","21","01:00","-11.2","","-15.1","","73","","","","28","","15","","","","100.84","","","","-18","","NA"
"-73.74","45.47","MONTREAL/PIERRE ELLIOTT TRUDEAU INTL","702S006","2009-12-21 02:00","2009","12","21","02:00","-10.9","","-15.0","","72","","","","28","","13","","","","100.85","","","","-17","","NA"
"-73.74","45.47","MONTREAL/PIERRE ELLIOTT TRUDEAU INTL","702S006","2009-12-21 03:00","2009","12","21","03:00","-11.1","","-14.9","","73","","","","29","","11","","","","100.84","","","","-17","","NA"
"-73.74","45.47","MONTREAL/PIERRE ELLIOTT TRUDEAU INTL","702S006","2009-12-21 04:00","2009","12","21","04:00","-10.4","","-14.8","","70","","","","28","","19","","","","100.82","","","","-18","","NA"
"-73.74","45.47","MONTREAL/PIERRE ELLIOTT TRUDEAU INTL","702S006","2009-12-21 05:00","2009","12","21","05:00","-10.6","","-15.0","","70","","","","29","","17","","","","100.82","","","","-18","","NA"
"-73.74","45.47","MONTREAL/PIERRE ELLIOTT TRUDEAU INTL","702S006","2009-12-21 06:00","2009","12","21","06:00","-10.3","","-15.2","","67","","","","29","","19","","","","100.83","","","","-18","","NA"
"-73.74","45.47","MONTREAL/PIERRE ELLIOTT TRUDEAU INTL","702S006","2009-12-21 07:00","2009","12","21","07:00","-10.2","","-15.2","","67","","","","29","","19","","","","100.83","","","","-18","","NA"
"-73.74","45.47","MONTREAL/PIERRE ELLIOTT TRUDEAU INTL","702S006","2009-12-21 08:00","2009","12","21","08:00","-10.4","","-15.0","","69","","","","27","","13","","","","100.83","","","","-17","","NA"
"-73.74","45.47","MONTREAL/PIERRE ELLIOTT TRUDEAU INTL","702S006","2009-12-21 09:00","2009","12","21","09:00","-9.8","","-14.6","","68","","","","28","","15","","","","100.80","","","","-16","","NA"
"-73.74","45.47","MONTREAL/PIERRE ELLIOTT TRUDEAU INTL","702S006","2009-12-21 10:00","2009","12","21","10:00","-9.7","","-14.9","","66","","","","27","","19","","","","100.83","","","","-17","","NA"
"-73.74","45.47","MONTREAL/PIERRE ELLIOTT TRUDEAU INTL","702S006","2009-12-21 11:00","2009","12","21","11:00","-8.9","","-15.0","","61","","","","28","","26","","","","100.78","","","","-18","","NA"
"-73.74","45.47","MONTREAL/PIERRE ELLIOTT TRUDEAU INTL","702S006","2009-12-21 12:00","2009","12","21","12:00","-7.7","","-14.6","","58","","","","28","","20","","","","100.71","","","","-15","","NA"
"-73.74","45.47","MONTREAL/PIERRE ELLIOTT TRUDEAU INTL","702S006","2009-12-21 13:00","2009","12","21","13:00","-6.7","","-15.0","","52","","","","28","","28","","","","100.66","","","","-15","","NA"
"-73.74","45.47","MONTREAL/PIERRE ELLIOTT TRUDEAU INTL","702S006","2009-12-21 14:00","2009","12","21","14:00","-5.9","","-13.8","","54","","","","27","","22","","","","100.68","","","","-13","","NA"
"-73.74","45.47","MONTREAL/PIERRE ELLIOTT TRUDEAU INTL","702S006","2009-12-21 15:00","2009","12","21","15:00","-6.4","","-13.8","","56","","","","27","","26","","","","100.72","","","","-14","","NA"
"-73.74","45.47","MONTREAL/PIERRE ELLIOTT TRUDEAU INTL","702S006","2009-12-21 16:00","2009","12","21","16:00","-6.2","","-13.8","","55","","","","28","","26","","","","100.76","","","","-14","","NA"
"-73.74","45.47","MONTREAL/PIERRE ELLIOTT TRUDEAU INTL","702S006","2009-12-21 17:00","2009","12","21","17:00","-7.1","","-14.7","","55","","","","28","","28","","","","100.84","","","","-15","","NA"
"-73.74","45.47","MONTREAL/PIERRE ELLIOTT TRUDEAU INTL","702S006","2009-12-21 18:00","2009","12","21","18:00","-7.6","","-14.8","","56","","","","28","","30","","","","100.85","","","","-16","","NA"
"-73.74","45.47","MONTREAL/PIERRE ELLIOTT TRUDEAU INTL","702S006","2009-12-21 19:00","2009","12","21","19:00","-7.7","","-14.2","","60","","","","27","","26","","","","100.89","","","","-16","","NA"
"-73.74","45.47","MONTREAL/PIERRE ELLIOTT TRUDEAU INTL","702S006","2009-12-21 20:00","2009","12","21","20:00","-10.0","","-14.9","","67","","","","25","","17","","","","100.92","","","","-17","","NA"
"-73.74","45.47","MONTREAL/PIERRE ELLIOTT TRUDEAU INTL","702S006","2009-12-21 21:00","2009","12","21","21:00","-9.1","","-14.6","","64","","","","28","","24","","","","100.96","","","","-17","","NA"
"-73.74","45.47","MONTREAL/PIERRE ELLIOTT TRUDEAU INTL","702S006","2009-12-21 22:00","2009","12","21","22:00","-9.4","","-14.7","","65","","","","27","","22","","","","101.01","","","","-17","","NA"
"-73.74","45.47","MONTREAL/PIERRE ELLIOTT TRUDEAU INTL","702S006","2009-12-21 23:00","2009","12","21","23:00","-10.2","","-15.2","","67","","","","27","","20","","","","101.05","","","","-18","","NA"
"-73.74","45.47","MONTREAL/PIERRE ELLIOTT TRUDEAU INTL","702S006","2009-12-22 00:00","2009","12","22","00:00","-10.9","","-15.7","","68","","","","28","","22","","","","101.09","","","","-19","","NA"
"-73.74","45.47","MONTREAL/PIERRE ELLIOTT TRUDEAU INTL","702S006","2009-12-22 01:00","2009","12","22","01:00","-11.6","","-16.0","","70","","","","28","","20","","","","101.09","","","","-20","","NA"
"-73.74","45.47","MONTREAL/PIERRE ELLIOTT TRUDEAU INTL","702S006","2009-12-22 02:00","2009","12","22","02:00","-12.4","","-16.5","","71","","","","27","","20","","","","101.17","","","","-21","","NA"
"-73.74","45.47","MONTREAL/PIERRE ELLIOTT TRUDEAU INTL","702S006","2009-12-22 03:00","2009","12","22","03:00","-12.6","","-16.6","","72","","","","27","","20","","","","101.23","","","","-21","","NA"
"-73.74","45.47","MONTREAL/PIERRE ELLIOTT TRUDEAU INTL","702S006","2009-12-22 04:00","2009","12","22","04:00","-12.8","","-16.6","","73","","","","27","","19","","","","101.25","","","","-21","","NA"
"-73.74","45.47","MONTREAL/PIERRE ELLIOTT TRUDEAU INTL","702S006","2009-12-22 05:00","2009","12","22","05:00","-13.2","","-17.0","","73","","","","27","","20","","","","101.32","","","","-22","","NA"
"-73.74","45.47","MONTREAL/PIERRE ELLIOTT TRUDEAU INTL","702S006","2009-12-22 06:00","2009","12","22","06:00","-14.0","","-17.6","","74","","","","24","","15","","","","101.39","","","","-22","","NA"
"-73.74","45.47","MONTREAL/PIERRE ELLIOTT TRUDEAU INTL","702S006","2009-12-22 07:00","2009","12","22","07:00","-14.8","","-17.7","","79","","","","26","","15","","","","101.43","","","","-23","","NA"
"-73.74","45.47","MONTREAL/PIERRE ELLIOTT TRUDEAU INTL","702S006","2009-12-22 08:00","2009","12","22","08:00","-15.2","","-18.6","","75","","","","25","","15","","","","101.47","","","","-23","","NA"
"-73.74","45.47","MONTREAL/PIERRE ELLIOTT TRUDEAU INTL","702S006","2009-12-22 09:00","2009","12","22","09:00","-14.9","","-18.4","","75","","","","26","","19","","","","101.51","","","","-24","","NA"
"-73.74","45.47","MONTREAL/PIERRE ELLIOTT TRUDEAU INTL","702S006","2009-12-22 10:00","2009","12","22","10:00","-15.2","","-18.9","","73","","","","26","","22","","","","101.56","","","","-25","","NA"
"-73.74","45.47","MONTREAL/PIERRE ELLIOTT TRUDEAU INTL","702S006","2009-12-22 11:00","2009","12","22","11:00","-14.5","","-18.8","","70","","","","26","","22","","","","101.50","","","","-24","","NA"
"-73.74","45.47","MONTREAL/PIERRE ELLIOTT TRUDEAU INTL","702S006","2009-12-22 12:00","2009","12","22","12:00","-13.4","","-18.2","","67","","","","26","","20","","","","101.46","","","","-22","","NA"
"-73.74","45.47","MONTREAL/PIERRE ELLIOTT TRUDEAU INTL","702S006","2009-12-22 13:00","2009","12","22","13:00","-12.6","","-17.6","","66","","","","25","","17","","","","101.44","","","","-20","","NA"
"-73.74","45.47","MONTREAL/PIERRE ELLIOTT TRUDEAU INTL","702S006","2009-12-22 14:00","2009","12","22","14:00","-12.1","","-17.5","","64","","","","26","","20","","","","101.46","","","","-21","","NA"
"-73.74","45.47","MONTREAL/PIERRE ELLIOTT TRUDEAU INTL","702S006","2009-12-22 15:00","2009","12","22","15:00","-12.2","","-17.7","","64","","","","26","","22","","","","101.51","","","","-21","","NA"
"-73.74","45.47","MONTREAL/PIERRE ELLIOTT TRUDEAU INTL","702S006","2009-12-22 16:00","2009","12","22","16:00","-12.5","","-17.7","","65","","","","26","","20","","","","101.55","","","","-21","","NA"
"-73.74","45.47","MONTREAL/PIERRE ELLIOTT TRUDEAU INTL","702S006","2009-12-22 17:00","2009","12","22","17:00","-12.3","","-17.2","","67","","","","26","","24","","","","101.60","","","","-22","","NA"
"-73.74","45.47","MONTREAL/PIERRE ELLIOTT TRUDEAU INTL","702S006","2009-12-22 18:00","2009","12","22","18:00","-12.0","","-16.7","","68","","","","26","","22","","","","101.60","","","","-21","","NA"
"-73.74","45.47","MONTREAL/PIERRE ELLIOTT TRUDEAU INTL","702S006","2009-12-22 19:00","2009","12","22","19:00","-11.5","","-16.1","","69","","","","27","","22","","","","101.62","","","","-20","","NA"
"-73.74","45.47","MONTREAL/PIERRE ELLIOTT TRUDEAU INTL","702S006","2009-12-22 20:00","2009","12","22","20:00","-12.3","","-14.2","","86","","","","27","","20","","","","101.61","","","","-21","","NA"
"-73.74","45.47","MONTREAL/PIERRE ELLIOTT TRUDEAU INTL","702S006","2009-12-22 21:00","2009","12","22","21:00","-12.2","","-14.0","","86","","","","27","","20","","","","101.58","","","","-21","","NA"
"-73.74","45.47","MONTREAL/PIERRE ELLIOTT TRUDEAU INTL","702S006","2009-12-22 22:00","2009","12","22","22:00","-11.9","","-13.5","","88","","","","27","","20","","","","101.55","","","","-20","","NA"
"-73.74","45.47","MONTREAL/PIERRE ELLIOTT TRUDEAU INTL","702S006","2009-12-22 23:00","2009","12","22","23:00","-11.7","","-13.3","","88","","","","27","","19","","","","101.52","","","","-20","","NA"
"-73.74","45.47","MONTREAL/PIERRE ELLIOTT TRUDEAU INTL","702S006","2009-12-23 00:00","2009","12","23","00:00","-11.4","","-13.1","","87","","","","28","","26","","","","101.46","","","","-21","","NA"
"-73.74","45.47","MONTREAL/PIERRE ELLIOTT TRUDEAU INTL","702S006","2009-12-23 01:00","2009","12","23","01:00","-11.4","","-13.1","","87","","","","28","","24","","","","101.43","","","","-20","","NA"
"-73.74","45.47","MONTREAL/PIERRE ELLIOTT TRUDEAU INTL","702S006","2009-12-23 02:00","2009","12","23","02:00","-11.4","","-12.9","","89","","","","28","","24","","","","101.45","","","","-20","","NA"
"-73.74","45.47","MONTREAL/PIERRE ELLIOTT TRUDEAU INTL","702S006","2009-12-23 03:00","2009","12","23","03:00","-11.3","","-13.1","","87","","","","28","","26","","","","101.44","","","","-21","","NA"
"-73.74","45.47","MONTREAL/PIERRE ELLIOTT TRUDEAU INTL","702S006","2009-12-23 04:00","2009","12","23","04:00","-11.4","","-13.0","","88","","","","28","","24","","","","101.40","","","","-20","","NA"
"-73.74","45.47","MONTREAL/PIERRE ELLIOTT TRUDEAU INTL","702S006","2009-12-23 05:00","2009","12","23","05:00","-11.6","","-13.1","","89","","","","27","","24","","","","101.39","","","","-21","","NA"
"-73.74","45.47","MONTREAL/PIERRE ELLIOTT TRUDEAU INTL","702S006","2009-12-23 06:00","2009","12","23","06:00","-11.5","","-13.2","","87","","","","28","","22","","","","101.37","","","","-20","","NA"
"-73.74","45.47","MONTREAL/PIERRE ELLIOTT TRUDEAU INTL","702S006","2009-12-23 07:00","2009","12","23","07:00","-11.4","","-13.3","","86","","","","28","","26","","","","101.39","","","","-21","","NA"
"-73.74","45.47","MONTREAL/PIERRE ELLIOTT TRUDEAU INTL","702S006","2009-12-23 08:00","2009","12","23","08:00","-11.2","","-13.0","","87","","","","28","","26","","","","101.39","","","","-20","","NA"
"-73.74","45.47","MONTREAL/PIERRE ELLIOTT TRUDEAU INTL","702S006","2009-12-23 09:00","2009","12","23","09:00","-10.8","","-12.7","","86","","","","27","","20","","","","101.42","","","","-19","","NA"
"-73.74","45.47","MONTREAL/PIERRE ELLIOTT TRUDEAU INTL","702S006","2009-12-23 10:00","2009","12","23","10:00","-10.1","","-12.5","","83","","","","27","","15","","","","101.47","","","","-17","","NA"
"-73.74","45.47","MONTREAL/PIERRE ELLIOTT TRUDEAU INTL","702S006","2009-12-23 11:00","2009","12","23","11:00","-9.4","","-12.0","","81","","","","27","","15","","","","101.47","","","","-16","","NA"
"-73.74","45.47","MONTREAL/PIERRE ELLIOTT TRUDEAU INTL","702S006","2009-12-23 12:00","2009","12","23","12:00","-8.6","","-11.5","","80","","","","27","","15","","","","101.47","","","","-15","","NA"
"-73.74","45.47","MONTREAL/PIERRE ELLIOTT TRUDEAU INTL","702S006","2009-12-23 13:00","2009","12","23","13:00","-8.1","","-11.0","","80","","","","27","","15","","","","101.47","","","","-14","","NA"
"-73.74","45.47","MONTREAL/PIERRE ELLIOTT TRUDEAU INTL","702S006","2009-12-23 14:00","2009","12","23","14:00","-7.6","","-10.7","","78","","","","27","","17","","","","101.54","","","","-14","","NA"
"-73.74","45.47","MONTREAL/PIERRE ELLIOTT TRUDEAU INTL","702S006","2009-12-23 15:00","2009","12","23","15:00","-7.3","","-10.4","","78","","","","27","","19","","","","101.60","","","","-14","","NA"
"-73.74","45.47","MONTREAL/PIERRE ELLIOTT TRUDEAU INTL","702S006","2009-12-23 16:00","2009","12","23","16:00","-7.3","","-10.2","","80","","","","26","","17","","","","101.68","","","","-14","","NA"
"-73.74","45.47","MONTREAL/PIERRE ELLIOTT TRUDEAU INTL","702S006","2009-12-23 17:00","2009","12","23","17:00","-7.1","","-9.8","","81","","","","26","","17","","","","101.74","","","","-14","","NA"
"-73.74","45.47","MONTREAL/PIERRE ELLIOTT TRUDEAU INTL","702S006","2009-12-23 18:00","2009","12","23","18:00","-6.8","","-9.5","","81","","","","25","","15","","","","101.78","","","","-13","","NA"
"-73.74","45.47","MONTREAL/PIERRE ELLIOTT TRUDEAU INTL","702S006","2009-12-23 19:00","2009","12","23","19:00","-6.7","","-8.9","","84","","","","26","","19","","","","101.83","","","","-14","","NA"
"-73.74","45.47","MONTREAL/PIERRE ELLIOTT TRUDEAU INTL","702S006","2009-12-23 20:00","2009","12","23","20:00","-6.5","","-8.2","","88","","","","25","","15","","","","101.88","","","","-12","","NA"
"-73.74","45.47","MONTREAL/PIERRE ELLIOTT TRUDEAU INTL","702S006","2009-12-23 21:00","2009","12","23","21:00","-5.9","","-8.3","","83","","","","25","","13","","","","101.92","","","","-11","","NA"
"-73.74","45.47","MONTREAL/PIERRE ELLIOTT TRUDEAU INTL","702S006","2009-12-23 22:00","2009","12","23","22:00","-5.3","","-8.0","","81","","","","24","","11","","","","101.98","","","","-10","","NA"
"-73.74","45.47","MONTREAL/PIERRE ELLIOTT TRUDEAU INTL","702S006","2009-12-23 23:00","2009","12","23","23:00","-4.8","","-7.3","","83","","","","24","","11","","","","102.03","","","","-9","","NA"
"-73.74","45.47","MONTREAL/PIERRE ELLIOTT TRUDEAU INTL","702S006","2009-12-24 00:00","2009","12","24","00:00","-4.6","","-6.9","","84","","","","24","","13","","","","102.08","","","","-10","","NA"
"-73.74","45.47","MONTREAL/PIERRE ELLIOTT TRUDEAU INTL","702S006","2009-12-24 01:00","2009","12","24","01:00","-4.2","","-6.4","","85","","","","24","","9","","","","102.16","","","","-8","","NA"
"-73.74","45.47","MONTREAL/PIERRE ELLIOTT TRUDEAU INTL","702S006","2009-12-24 02:00","2009","12","24","02:00","-4.0","","-5.9","","87","","","","24","","13","","","","102.26","","","","-9","","NA"
"-73.74","45.47","MONTREAL/PIERRE ELLIOTT TRUDEAU INTL","702S006","2009-12-24 03:00","2009","12","24","03:00","-4.3","","-6.3","","86","","","","24","","11","","","","102.32","","","","-9","","NA"
"-73.74","45.47","MONTREAL/PIERRE ELLIOTT TRUDEAU INTL","702S006","2009-12-24 04:00","2009","12","24","04:00","-4.4","","-5.9","","89","","","","23","","7","","","","102.38","","","","-8","","NA"
"-73.74","45.47","MONTREAL/PIERRE ELLIOTT TRUDEAU INTL","702S006","2009-12-24 05:00","2009","12","24","05:00","-4.5","","-6.0","","89","","","","23","","9","","","","102.44","","","","-8","","NA"
"-73.74","45.47","MONTREAL/PIERRE ELLIOTT TRUDEAU INTL","702S006","2009-12-24 06:00","2009","12","24","06:00","-4.1","","-5.7","","89","","","","23","","6","","","","102.49","","","","-7","","NA"
"-73.74","45.47","MONTREAL/PIERRE ELLIOTT TRUDEAU INTL","702S006","2009-12-24 07:00","2009","12","24","07:00","-3.9","","-5.7","","87","","","","25","","6","","","","102.57","","","","-7","","NA"
"-73.74","45.47","MONTREAL/PIERRE ELLIOTT TRUDEAU INTL","702S006","2009-12-24 08:00","2009","12","24","08:00","-3.8","","-5.5","","88","","","","24","","6","","","","102.62","","","","-6","","NA"
"-73.74","45.47","MONTREAL/PIERRE ELLIOTT TRUDEAU INTL","702S006","2009-12-24 09:00","2009","12","24","09:00","-3.3","","-5.0","","88","","","","26","","9","","","","102.70","","","","-7","","NA"
"-73.74","45.47","MONTREAL/PIERRE ELLIOTT TRUDEAU INTL","702S006","2009-12-24 10:00","2009","12","24","10:00","-2.7","","-4.7","","86","","","","25","","6","","","","102.79","","","","-5","","NA"
"-73.74","45.47","MONTREAL/PIERRE ELLIOTT TRUDEAU INTL","702S006","2009-12-24 11:00","2009","12","24","11:00","-2.2","","-4.4","","85","","","","26","","6","","","","102.81","","","","-5","","NA"
"-73.74","45.47","MONTREAL/PIERRE ELLIOTT TRUDEAU INTL","702S006","2009-12-24 12:00","2009","12","24","12:00","-2.1","","-4.0","","87","","","","27","","9","","","","102.84","","","","-6","","NA"
"-73.74","45.47","MONTREAL/PIERRE ELLIOTT TRUDEAU INTL","702S006","2009-12-24 13:00","2009","12","24","13:00","-1.6","","-3.3","","88","","","","26","","2","","","","102.82","","","","-2","","NA"
"-73.74","45.47","MONTREAL/PIERRE ELLIOTT TRUDEAU INTL","702S006","2009-12-24 14:00","2009","12","24","14:00","-1.5","","-3.3","","88","","","","17","","6","","","","102.75","","","","-4","","NA"
"-73.74","45.47","MONTREAL/PIERRE ELLIOTT TRUDEAU INTL","702S006","2009-12-24 15:00","2009","12","24","15:00","-1.2","","-3.0","","88","","","","15","","4","","","","102.72","","","","-3","","NA"
"-73.74","45.47","MONTREAL/PIERRE ELLIOTT TRUDEAU INTL","702S006","2009-12-24 16:00","2009","12","24","16:00","-1.2","","-3.0","","88","","","","23","","6","","","","102.76","","","","-3","","NA"
"-73.74","45.47","MONTREAL/PIERRE ELLIOTT TRUDEAU INTL","702S006","2009-12-24 17:00","2009","12","24","17:00","-1.5","","-3.3","","88","","","","20","","7","","","","102.80","","","","-4","","NA"
"-73.74","45.47","MONTREAL/PIERRE ELLIOTT TRUDEAU INTL","702S006","2009-12-24 18:00","2009","12","24","18:00","-1.5","","-3.3","","88","","","","18","","4","","","","102.81","","","","-3","","NA"
"-73.74","45.47","MONTREAL/PIERRE ELLIOTT TRUDEAU INTL","702S006","2009-12-24 19:00","2009","12","24","19:00","-1.4","","-3.0","","89","","","","17","","7","","","","102.83","","","","-4","","NA"
"-73.74","45.47","MONTREAL/PIERRE ELLIOTT TRUDEAU INTL","702S006","2009-12-24 20:00","2009","12","24","20:00","-1.3","","-3.0","","88","","","","17","","4","","","","102.82","","","","-3","","NA"
"-73.74","45.47","MONTREAL/PIERRE ELLIOTT TRUDEAU INTL","702S006","2009-12-24 21:00","2009","12","24","21:00","-1.3","","-3.0","","88","","","","16","","6","","","","102.81","","","","-4","","NA"
"-73.74","45.47","MONTREAL/PIERRE ELLIOTT TRUDEAU INTL","702S006","2009-12-24 22:00","2009","12","24","22:00","-1.5","","-3.1","","89","","","","17","","6","","","","102.83","","","","-4","","NA"
"-73.74","45.47","MONTREAL/PIERRE ELLIOTT TRUDEAU INTL","702S006","2009-12-24 23:00","2009","12","24","23:00","-1.4","","-2.9","","89","","","","18","","6","","","","102.85","","","","-4","","NA"
"-73.74","45.47","MONTREAL/PIERRE ELLIOTT TRUDEAU INTL","702S006","2009-12-25 00:00","2009","12","25","00:00","-1.5","","-2.7","","92","","","","15","","4","","","","102.81","","","","-3","","NA"
"-73.74","45.47","MONTREAL/PIERRE ELLIOTT TRUDEAU INTL","702S006","2009-12-25 01:00","2009","12","25","01:00","-1.5","","-2.7","","92","","","","12","","2","","","","102.81","","","","-2","","NA"
"-73.74","45.47","MONTREAL/PIERRE ELLIOTT TRUDEAU INTL","702S006","2009-12-25 02:00","2009","12","25","02:00","-1.3","","-2.4","","92","","","","14","","2","","","","102.83","","","","-2","","NA"
"-73.74","45.47","MONTREAL/PIERRE ELLIOTT TRUDEAU INTL","702S006","2009-12-25 03:00","2009","12","25","03:00","-1.2","","-2.3","","92","","","","10","","4","","","","102.79","","","","-3","","NA"
"-73.74","45.47","MONTREAL/PIERRE ELLIOTT TRUDEAU INTL","702S006","2009-12-25 04:00","2009","12","25","04:00","-1.2","","-2.3","","92","","","","12","","2","","","","102.77","","","","-2","","NA"
"-73.74","45.47","MONTREAL/PIERRE ELLIOTT TRUDEAU INTL","702S006","2009-12-25 05:00","2009","12","25","05:00","-1.3","","-2.2","","94","","","","13","","6","","","","102.80","","","","-4","","NA"
"-73.74","45.47","MONTREAL/PIERRE ELLIOTT TRUDEAU INTL","702S006","2009-12-25 06:00","2009","12","25","06:00","-0.9","","-2.0","","92","","","","5","","11","","","","102.79","","","","-5","","NA"
"-73.74","45.47","MONTREAL/PIERRE ELLIOTT TRUDEAU INTL","702S006","2009-12-25 07:00","2009","12","25","07:00","-1.3","","-2.3","","93","","","","11","","7","","","","102.85","","","","-4","","NA"
"-73.74","45.47","MONTREAL/PIERRE ELLIOTT TRUDEAU INTL","702S006","2009-12-25 08:00","2009","12","25","08:00","-1.5","","-3.1","","89","","","","5","","13","","","","102.80","","","","-6","","NA"
"-73.74","45.47","MONTREAL/PIERRE ELLIOTT TRUDEAU INTL","702S006","2009-12-25 09:00","2009","12","25","09:00","-2.1","","-3.7","","89","","","","5","","15","","","","102.78","","","","-7","","NA"
"-73.74","45.47","MONTREAL/PIERRE ELLIOTT TRUDEAU INTL","702S006","2009-12-25 10:00","2009","12","25","10:00","-2.3","","-3.8","","89","","","","4","","13","","","","102.81","","","","-7","","NA"
"-73.74","45.47","MONTREAL/PIERRE ELLIOTT TRUDEAU INTL","702S006","2009-12-25 11:00","2009","12","25","11:00","-2.2","","-3.8","","89","","","","5","","9","","","","102.82","","","","-6","","NA"
"-73.74","45.47","MONTREAL/PIERRE ELLIOTT TRUDEAU INTL","702S006","2009-12-25 12:00","2009","12","25","12:00","-2.3","","-3.8","","89","","","","5","","13","","","","102.74","","","","-7","","NA"
"-73.74","45.47","MONTREAL/PIERRE ELLIOTT TRUDEAU INTL","702S006","2009-12-25 13:00","2009","12","25","13:00","-2.0","","-3.8","","87","","","","6","","9","","","","102.67","","","","-5","","NA"
"-73.74","45.47","MONTREAL/PIERRE ELLIOTT TRUDEAU INTL","702S006","2009-12-25 14:00","2009","12","25","14:00","-2.1","","-4.3","","85","","","","5","","15","","","","102.64","","","","-7","","NA"
"-73.74","45.47","MONTREAL/PIERRE ELLIOTT TRUDEAU INTL","702S006","2009-12-25 15:00","2009","12","25","15:00","-2.3","","-4.9","","82","","","","5","","19","","","","102.62","","","","-8","","NA"
"-73.74","45.47","MONTREAL/PIERRE ELLIOTT TRUDEAU INTL","702S006","2009-12-25 16:00","2009","12","25","16:00","-2.4","","-4.4","","86","","","","6","","15","","","","102.59","","","","-7","","NA"
"-73.74","45.47","MONTREAL/PIERRE ELLIOTT TRUDEAU INTL","702S006","2009-12-25 17:00","2009","12","25","17:00","-2.4","","-4.5","","85","","","","5","","19","","","","102.56","","","","-8","","NA"
"-73.74","45.47","MONTREAL/PIERRE ELLIOTT TRUDEAU INTL","702S006","2009-12-25 18:00","2009","12","25","18:00","-2.3","","-4.6","","84","","","","6","","17","","","","102.63","","","","-8","","NA"
"-73.74","45.47","MONTREAL/PIERRE ELLIOTT TRUDEAU INTL","702S006","2009-12-25 19:00","2009","12","25","19:00","-2.1","","-4.5","","84","","","","5","","19","","","","102.65","","","","-8","","NA"
"-73.74","45.47","MONTREAL/PIERRE ELLIOTT TRUDEAU INTL","702S006","2009-12-25 20:00","2009","12","25","20:00","-2.3","","-4.6","","84","","","","5","","17","","","","102.60","","","","-8","","NA"
"-73.74","45.47","MONTREAL/PIERRE ELLIOTT TRUDEAU INTL","702S006","2009-12-25 21:00","2009","12","25","21:00","-2.2","","-4.6","","84","","","","5","","13","","","","102.63","","","","-7","","NA"
"-73.74","45.47","MONTREAL/PIERRE ELLIOTT TRUDEAU INTL","702S006","2009-12-25 22:00","2009","12","25","22:00","-2.2","","-4.5","","84","","","","5","","20","","","","102.53","","","","-8","","NA"
"-73.74","45.47","MONTREAL/PIERRE ELLIOTT TRUDEAU INTL","702S006","2009-12-25 23:00","2009","12","25","23:00","-2.5","","-4.6","","85","","","","5","","19","","","","102.56","","","","-8","","NA"
"-73.74","45.47","MONTREAL/PIERRE ELLIOTT TRUDEAU INTL","702S006","2009-12-26 00:00","2009","12","26","00:00","-2.6","","-4.6","","86","","","","5","","19","","","","102.48","","","","-8","","NA"
"-73.74","45.47","MONTREAL/PIERRE ELLIOTT TRUDEAU INTL","702S006","2009-12-26 01:00","2009","12","26","01:00","-2.7","","-4.8","","85","","","","5","","19","","","","102.53","","","","-8","","NA"
"-73.74","45.47","MONTREAL/PIERRE ELLIOTT TRUDEAU INTL","702S006","2009-12-26 02:00","2009","12","26","02:00","-3.0","","-5.0","","86","","","","5","","22","","","","102.46","","","","-9","","NA"
"-73.74","45.47","MONTREAL/PIERRE ELLIOTT TRUDEAU INTL","702S006","2009-12-26 03:00","2009","12","26","03:00","-3.1","","-5.1","","86","","","","5","","22","","","","102.43","","","","-9","","NA"
"-73.74","45.47","MONTREAL/PIERRE ELLIOTT TRUDEAU INTL","702S006","2009-12-26 04:00","2009","12","26","04:00","-3.3","","-5.3","","86","","","","4","","20","","","","102.42","","","","-9","","NA"
"-73.74","45.47","MONTREAL/PIERRE ELLIOTT TRUDEAU INTL","702S006","2009-12-26 05:00","2009","12","26","05:00","-3.7","","-5.7","","86","","","","5","","22","","","","102.37","","","","-10","","NA"
"-73.74","45.47","MONTREAL/PIERRE ELLIOTT TRUDEAU INTL","702S006","2009-12-26 06:00","2009","12","26","06:00","-3.8","","-5.9","","85","","","","5","","20","","","","102.36","","","","-10","","NA"
"-73.74","45.47","MONTREAL/PIERRE ELLIOTT TRUDEAU INTL","702S006","2009-12-26 07:00","2009","12","26","07:00","-3.8","","-5.9","","85","","","","4","","20","","","","102.38","","","","-10","","NA"
"-73.74","45.47","MONTREAL/PIERRE ELLIOTT TRUDEAU INTL","702S006","2009-12-26 08:00","2009","12","26","08:00","-3.6","","-5.7","","85","","","","4","","20","","","","102.34","","","","-10","","NA"
"-73.74","45.47","MONTREAL/PIERRE ELLIOTT TRUDEAU INTL","702S006","2009-12-26 09:00","2009","12","26","09:00","-3.2","","-5.5","","84","","","","4","","20","","","","102.32","","","","-9","","NA"
"-73.74","45.47","MONTREAL/PIERRE ELLIOTT TRUDEAU INTL","702S006","2009-12-26 10:00","2009","12","26","10:00","-2.3","","-4.9","","82","","","","5","","22","","","","102.29","","","","-8","","NA"
"-73.74","45.47","MONTREAL/PIERRE ELLIOTT TRUDEAU INTL","702S006","2009-12-26 11:00","2009","12","26","11:00","-1.7","","-4.6","","81","","","","5","","20","","","","102.19","","","","-7","","NA"
"-73.74","45.47","MONTREAL/PIERRE ELLIOTT TRUDEAU INTL","702S006","2009-12-26 12:00","2009","12","26","12:00","-1.4","","-4.0","","82","","","","5","","19","","","","102.06","","","","-7","","NA"
"-73.74","45.47","MONTREAL/PIERRE ELLIOTT TRUDEAU INTL","702S006","2009-12-26 13:00","2009","12","26","13:00","-1.0","","-3.7","","82","","","","4","","22","","","","102.01","","","","-7","","NA"
"-73.74","45.47","MONTREAL/PIERRE ELLIOTT TRUDEAU INTL","702S006","2009-12-26 14:00","2009","12","26","14:00","-0.1","","-2.8","","82","","","","5","","19","","","","101.97","","","","-5","","NA"
"-73.74","45.47","MONTREAL/PIERRE ELLIOTT TRUDEAU INTL","702S006","2009-12-26 15:00","2009","12","26","15:00","0.2","","-2.5","","82","","","","4","","20","","","","101.92","","","","","","NA"
"-73.74","45.47","MONTREAL/PIERRE ELLIOTT TRUDEAU INTL","702S006","2009-12-26 16:00","2009","12","26","16:00","0.1","","-2.3","","84","","","","4","","19","","","","101.88","","","","","","NA"
"-73.74","45.47","MONTREAL/PIERRE ELLIOTT TRUDEAU INTL","702S006","2009-12-26 17:00","2009","12","26","17:00","0.1","","-1.8","","87","","","","4","","13","","","","101.91","","","","","","NA"
"-73.74","45.47","MONTREAL/PIERRE ELLIOTT TRUDEAU INTL","702S006","2009-12-26 18:00","2009","12","26","18:00","0.0","","-1.2","","92","","","","5","","11","","","","101.89","","","","-4","","NA"
"-73.74","45.47","MONTREAL/PIERRE ELLIOTT TRUDEAU INTL","702S006","2009-12-26 19:00","2009","12","26","19:00","0.1","","-0.7","","94","","","","5","","7","","","","101.85","","","","","","NA"
"-73.74","45.47","MONTREAL/PIERRE ELLIOTT TRUDEAU INTL","702S006","2009-12-26 20:00","2009","12","26","20:00","-0.1","","-0.9","","94","","","","5","","9","","","","101.77","","","","-3","","NA"
"-73.74","45.47","MONTREAL/PIERRE ELLIOTT TRUDEAU INTL","702S006","2009-12-26 21:00","2009","12","26","21:00","0.2","","-0.6","","94","","","","5","","7","","","","101.72","","","","","","NA"
"-73.74","45.47","MONTREAL/PIERRE ELLIOTT TRUDEAU INTL","702S006","2009-12-26 22:00","2009","12","26","22:00","0.7","","-0.4","","92","","","","5","","7","","","","101.66","","","","","","NA"
"-73.74","45.47","MONTREAL/PIERRE ELLIOTT TRUDEAU INTL","702S006","2009-12-26 23:00","2009","12","26","23:00","0.6","","-0.5","","92","","","","5","","7","","","","101.56","","","","","","NA"
"-73.74","45.47","MONTREAL/PIERRE ELLIOTT TRUDEAU INTL","702S006","2009-12-27 00:00","2009","12","27","00:00","0.5","","-0.3","","94","","","","5","","19","","","","101.47","","","","","","NA"
"-73.74","45.47","MONTREAL/PIERRE ELLIOTT TRUDEAU INTL","702S006","2009-12-27 01:00","2009","12","27","01:00","0.7","","-0.1","","94","","","","5","","20","","","","101.36","","","","","","NA"
"-73.74","45.47","MONTREAL/PIERRE ELLIOTT TRUDEAU INTL","702S006","2009-12-27 02:00","2009","12","27","02:00","0.7","","0.0","","95","","","","5","","20","","","","101.28","","","","","","NA"
"-73.74","45.47","MONTREAL/PIERRE ELLIOTT TRUDEAU INTL","702S006","2009-12-27 03:00","2009","12","27","03:00","0.8","","0.1","","95","","","","5","","19","","","","101.20","","","","","","NA"
"-73.74","45.47","MONTREAL/PIERRE ELLIOTT TRUDEAU INTL","702S006","2009-12-27 04:00","2009","12","27","04:00","1.0","","0.3","","95","","","","5","","20","","","","101.06","","","","","","NA"
"-73.74","45.47","MONTREAL/PIERRE ELLIOTT TRUDEAU INTL","702S006","2009-12-27 05:00","2009","12","27","05:00","1.0","","0.3","","95","","","","4","","20","","","","100.93","","","","","","NA"
"-73.74","45.47","MONTREAL/PIERRE ELLIOTT TRUDEAU INTL","702S006","2009-12-27 06:00","2009","12","27","06:00","1.2","","0.6","","96","","","","5","","15","","","","100.87","","","","","","NA"
"-73.74","45.47","MONTREAL/PIERRE ELLIOTT TRUDEAU INTL","702S006","2009-12-27 07:00","2009","12","27","07:00","1.6","","1.0","","96","","","","5","","17","","","","100.79","","","","","","NA"
"-73.74","45.47","MONTREAL/PIERRE ELLIOTT TRUDEAU INTL","702S006","2009-12-27 08:00","2009","12","27","08:00","1.5","","1.0","","96","","","","4","","11","","","","100.74","","","","","","NA"
"-73.74","45.47","MONTREAL/PIERRE ELLIOTT TRUDEAU INTL","702S006","2009-12-27 09:00","2009","12","27","09:00","1.6","","1.1","","96","","","","4","","15","","","","100.64","","","","","","NA"
"-73.74","45.47","MONTREAL/PIERRE ELLIOTT TRUDEAU INTL","702S006","2009-12-27 10:00","2009","12","27","10:00","1.3","","0.9","","97","","","","31","","6","","","","100.64","","","","","","NA"
"-73.74","45.47","MONTREAL/PIERRE ELLIOTT TRUDEAU INTL","702S006","2009-12-27 11:00","2009","12","27","11:00","1.6","","1.3","","98","","","","27","","4","","","","100.54","","","","","","NA"
"-73.74","45.47","MONTREAL/PIERRE ELLIOTT TRUDEAU INTL","702S006","2009-12-27 12:00","2009","12","27","12:00","1.3","","1.0","","98","","","","27","","6","","","","100.44","","","","","","NA"
"-73.74","45.47","MONTREAL/PIERRE ELLIOTT TRUDEAU INTL","702S006","2009-12-27 13:00","2009","12","27","13:00","1.4","","1.0","","97","","","","26","","20","","","","100.36","","","","","","NA"
"-73.74","45.47","MONTREAL/PIERRE ELLIOTT TRUDEAU INTL","702S006","2009-12-27 14:00","2009","12","27","14:00","1.2","","0.7","","96","","","","27","","22","","","","100.33","","","","","","NA"
"-73.74","45.47","MONTREAL/PIERRE ELLIOTT TRUDEAU INTL","702S006","2009-12-27 15:00","2009","12","27","15:00","0.9","","0.3","","96","","","","28","","17","","","","100.34","","","","","","NA"
"-73.74","45.47","MONTREAL/PIERRE ELLIOTT TRUDEAU INTL","702S006","2009-12-27 16:00","2009","12","27","16:00","0.8","","-0.4","","92","","","","27","","19","","","","100.35","","","","","","NA"
"-73.74","45.47","MONTREAL/PIERRE ELLIOTT TRUDEAU INTL","702S006","2009-12-27 17:00","2009","12","27","17:00","0.4","","-0.9","","91","","","","27","","17","","","","100.37","","","","","","NA"
"-73.74","45.47","MONTREAL/PIERRE ELLIOTT TRUDEAU INTL","702S006","2009-12-27 18:00","2009","12","27","18:00","-0.2","","-1.3","","92","","","","28","","9","","","","100.38","","","","-3","","NA"
"-73.74","45.47","MONTREAL/PIERRE ELLIOTT TRUDEAU INTL","702S006","2009-12-27 19:00","2009","12","27","19:00","-0.2","","-1.3","","92","","","","26","","11","","","","100.37","","","","-4","","NA"
"-73.74","45.47","MONTREAL/PIERRE ELLIOTT TRUDEAU INTL","702S006","2009-12-27 20:00","2009","12","27","20:00","0.2","","-1.0","","92","","","","23","","7","","","","100.35","","","","","","NA"
"-73.74","45.47","MONTREAL/PIERRE ELLIOTT TRUDEAU INTL","702S006","2009-12-27 21:00","2009","12","27","21:00","-0.2","","-1.2","","93","","","","24","","7","","","","100.32","","","","-3","","NA"
"-73.74","45.47","MONTREAL/PIERRE ELLIOTT TRUDEAU INTL","702S006","2009-12-27 22:00","2009","12","27","22:00","-0.1","","-1.1","","93","","","","23","","6","","","","100.32","","","","-2","","NA"
"-73.74","45.47","MONTREAL/PIERRE ELLIOTT TRUDEAU INTL","702S006","2009-12-27 23:00","2009","12","27","23:00","0.2","","-0.8","","93","","","","22","","7","","","","100.29","","","","","","NA"
"-73.74","45.47","MONTREAL/PIERRE ELLIOTT TRUDEAU INTL","702S006","2009-12-28 00:00","2009","12","28","00:00","0.2","","-0.7","","94","","","","21","","9","","","","100.23","","","","","","NA"
"-73.74","45.47","MONTREAL/PIERRE ELLIOTT TRUDEAU INTL","702S006","2009-12-28 01:00","2009","12","28","01:00","0.2","","-1.7","","87","","","","23","","7","","","","100.15","","","","","","NA"
"-73.74","45.47","MONTREAL/PIERRE ELLIOTT TRUDEAU INTL","702S006","2009-12-28 02:00","2009","12","28","02:00","0.4","","-1.6","","86","","","","24","","11","","","","100.10","","","","","","NA"
"-73.74","45.47","MONTREAL/PIERRE ELLIOTT TRUDEAU INTL","702S006","2009-12-28 03:00","2009","12","28","03:00","0.4","","-1.9","","85","","","","22","","11","","","","100.06","","","","","","NA"
"-73.74","45.47","MONTREAL/PIERRE ELLIOTT TRUDEAU INTL","702S006","2009-12-28 04:00","2009","12","28","04:00","0.4","","-2.2","","83","","","","22","","13","","","","99.96","","","","","","NA"
"-73.74","45.47","MONTREAL/PIERRE ELLIOTT TRUDEAU INTL","702S006","2009-12-28 05:00","2009","12","28","05:00","0.2","","-2.3","","83","","","","22","","9","","","","99.89","","","","","","NA"
"-73.74","45.47","MONTREAL/PIERRE ELLIOTT TRUDEAU INTL","702S006","2009-12-28 06:00","2009","12","28","06:00","-0.4","","-1.9","","90","","","","25","","6","","","","99.82","","","","-2","","NA"
"-73.74","45.47","MONTREAL/PIERRE ELLIOTT TRUDEAU INTL","702S006","2009-12-28 07:00","2009","12","28","07:00","-0.9","","-1.8","","94","","","","27","","4","","","","99.76","","","","-2","","NA"
"-73.74","45.47","MONTREAL/PIERRE ELLIOTT TRUDEAU INTL","702S006","2009-12-28 08:00","2009","12","28","08:00","-0.8","","-1.4","","96","","","","27","","2","","","","99.71","","","","-1","","NA"
"-73.74","45.47","MONTREAL/PIERRE ELLIOTT TRUDEAU INTL","702S006","2009-12-28 09:00","2009","12","28","09:00","-0.8","","-1.3","","96","","","","1","","6","","","","99.64","","","","-3","","NA"
"-73.74","45.47","MONTREAL/PIERRE ELLIOTT TRUDEAU INTL","702S006","2009-12-28 10:00","2009","12","28","10:00","-0.6","","-1.4","","94","","","","35","","6","","","","99.61","","","","-3","","NA"
"-73.74","45.47","MONTREAL/PIERRE ELLIOTT TRUDEAU INTL","702S006","2009-12-28 11:00","2009","12","28","11:00","-0.7","","-1.6","","94","","","","2","","7","","","","99.50","","","","-3","","NA"
"-73.74","45.47","MONTREAL/PIERRE ELLIOTT TRUDEAU INTL","702S006","2009-12-28 12:00","2009","12","28","12:00","-0.4","","-1.4","","93","","","","35","","7","","","","99.37","","","","-3","","NA"
"-73.74","45.47","MONTREAL/PIERRE ELLIOTT TRUDEAU INTL","702S006","2009-12-28 13:00","2009","12","28","13:00","-0.4","","-1.3","","94","","","","33","","9","","","","99.29","","","","-4","","NA"
"-73.74","45.47","MONTREAL/PIERRE ELLIOTT TRUDEAU INTL","702S006","2009-12-28 14:00","2009","12","28","14:00","-0.7","","-2.3","","89","","","","32","","17","","","","99.28","","","","-6","","NA"
"-73.74","45.47","MONTREAL/PIERRE ELLIOTT TRUDEAU INTL","702S006","2009-12-28 15:00","2009","12","28","15:00","-0.6","","-2.7","","86","","","","29","","17","","","","99.32","","","","-6","","NA"
"-73.74","45.47","MONTREAL/PIERRE ELLIOTT TRUDEAU INTL","702S006","2009-12-28 16:00","2009","12","28","16:00","-1.2","","-3.7","","83","","","","28","","20","","","","99.37","","","","-7","","NA"
"-73.74","45.47","MONTREAL/PIERRE ELLIOTT TRUDEAU INTL","702S006","2009-12-28 17:00","2009","12","28","17:00","-1.7","","-3.9","","85","","","","26","","17","","","","99.37","","","","-7","","NA"
"-73.74","45.47","MONTREAL/PIERRE ELLIOTT TRUDEAU INTL","702S006","2009-12-28 18:00","2009","12","28","18:00","-1.2","","-3.6","","84","","","","26","","15","","","","99.38","","","","-6","","NA"
"-73.74","45.47","MONTREAL/PIERRE ELLIOTT TRUDEAU INTL","702S006","2009-12-28 19:00","2009","12","28","19:00","-1.2","","-3.6","","84","","","","26","","17","","","","99.38","","","","-6","","NA"
"-73.74","45.47","MONTREAL/PIERRE ELLIOTT TRUDEAU INTL","702S006","2009-12-28 20:00","2009","12","28","20:00","-1.4","","-3.6","","85","","","","26","","19","","","","99.37","","","","-7","","NA"
"-73.74","45.47","MONTREAL/PIERRE ELLIOTT TRUDEAU INTL","702S006","2009-12-28 21:00","2009","12","28","21:00","-1.3","","-3.5","","85","","","","26","","19","","","","99.35","","","","-7","","NA"
"-73.74","45.47","MONTREAL/PIERRE ELLIOTT TRUDEAU INTL","702S006","2009-12-28 22:00","2009","12","28","22:00","-1.8","","-3.5","","88","","","","27","","17","","","","99.33","","","","-7","","NA"
"-73.74","45.47","MONTREAL/PIERRE ELLIOTT TRUDEAU INTL","702S006","2009-12-28 23:00","2009","12","28","23:00","-2.1","","-3.3","","91","","","","26","","17","","","","99.34","","","","-7","","NA"
"-73.74","45.47","MONTREAL/PIERRE ELLIOTT TRUDEAU INTL","702S006","2009-12-29 00:00","2009","12","29","00:00","-2.6","","-4.2","","89","","","","26","","19","","","","99.32","","","","-8","","NA"
"-73.74","45.47","MONTREAL/PIERRE ELLIOTT TRUDEAU INTL","702S006","2009-12-29 01:00","2009","12","29","01:00","-2.9","","-3.8","","93","","","","27","","13","","","","99.32","","","","-8","","NA"
"-73.74","45.47","MONTREAL/PIERRE ELLIOTT TRUDEAU INTL","702S006","2009-12-29 02:00","2009","12","29","02:00","-5.0","","-6.2","","91","","","","30","","30","","","","99.42","","","","-13","","NA"
"-73.74","45.47","MONTREAL/PIERRE ELLIOTT TRUDEAU INTL","702S006","2009-12-29 03:00","2009","12","29","03:00","-7.6","","-10.2","","82","","","","32","","30","","","","99.66","","","","-16","","NA"
"-73.74","45.47","MONTREAL/PIERRE ELLIOTT TRUDEAU INTL","702S006","2009-12-29 04:00","2009","12","29","04:00","-11.2","","-12.8","","88","","","","29","","30","","","","100.00","","","","-21","","NA"
"-73.74","45.47","MONTREAL/PIERRE ELLIOTT TRUDEAU INTL","702S006","2009-12-29 05:00","2009","12","29","05:00","-12.4","","-13.9","","89","","","","31","","28","","","","100.26","","","","-22","","NA"
"-73.74","45.47","MONTREAL/PIERRE ELLIOTT TRUDEAU INTL","702S006","2009-12-29 06:00","2009","12","29","06:00","-13.1","","-14.8","","87","","","","30","","22","","","","100.49","","","","-22","","NA"
"-73.74","45.47","MONTREAL/PIERRE ELLIOTT TRUDEAU INTL","702S006","2009-12-29 07:00","2009","12","29","07:00","-14.4","","-16.1","","87","","","","30","","28","","","","100.71","","","","-25","","NA"
"-73.74","45.47","MONTREAL/PIERRE ELLIOTT TRUDEAU INTL","702S006","2009-12-29 08:00","2009","12","29","08:00","-15.0","","-16.9","","85","","","","29","","30","","","","100.90","","","","-26","","NA"
"-73.74","45.47","MONTREAL/PIERRE ELLIOTT TRUDEAU INTL","702S006","2009-12-29 09:00","2009","12","29","09:00","-15.3","","-17.5","","83","","","","30","","32","","","","101.05","","","","-27","","NA"
"-73.74","45.47","MONTREAL/PIERRE ELLIOTT TRUDEAU INTL","702S006","2009-12-29 10:00","2009","12","29","10:00","-15.9","","-19.4","","74","","","","29","","35","","","","101.21","","","","-28","","NA"
"-73.74","45.47","MONTREAL/PIERRE ELLIOTT TRUDEAU INTL","702S006","2009-12-29 11:00","2009","12","29","11:00","-15.8","","-20.3","","68","","","","29","","35","","","","101.31","","","","-28","","NA"
"-73.74","45.47","MONTREAL/PIERRE ELLIOTT TRUDEAU INTL","702S006","2009-12-29 12:00","2009","12","29","12:00","-15.3","","-19.9","","68","","","","29","","37","","","","101.35","","","","-27","","NA"
"-73.74","45.47","MONTREAL/PIERRE ELLIOTT TRUDEAU INTL","702S006","2009-12-29 13:00","2009","12","29","13:00","-14.5","","-19.1","","68","","","","28","","33","","","","101.39","","","","-26","","NA"
"-73.74","45.47","MONTREAL/PIERRE ELLIOTT TRUDEAU INTL","702S006","2009-12-29 14:00","2009","12","29","14:00","-14.3","","-19.6","","64","","","","29","","32","","","","101.51","","","","-25","","NA"
"-73.74","45.47","MONTREAL/PIERRE ELLIOTT TRUDEAU INTL","702S006","2009-12-29 15:00","2009","12","29","15:00","-14.4","","-19.5","","65","","","","29","","24","","","","101.63","","","","-24","","NA"
"-73.74","45.47","MONTREAL/PIERRE ELLIOTT TRUDEAU INTL","702S006","2009-12-29 16:00","2009","12","29","16:00","-14.4","","-19.3","","66","","","","29","","28","","","","101.72","","","","-25","","NA"
"-73.74","45.47","MONTREAL/PIERRE ELLIOTT TRUDEAU INTL","702S006","2009-12-29 17:00","2009","12","29","17:00","-14.8","","-19.9","","65","","","","29","","26","","","","101.85","","","","-25","","NA"
"-73.74","45.47","MONTREAL/PIERRE ELLIOTT TRUDEAU INTL","702S006","2009-12-29 18:00","2009","12","29","18:00","-14.6","","-18.7","","71","","","","28","","24","","","","101.95","","","","-24","","NA"
"-73.74","45.47","MONTREAL/PIERRE ELLIOTT TRUDEAU INTL","702S006","2009-12-29 19:00","2009","12","29","19:00","-14.9","","-19.4","","68","","","","28","","28","","","","102.01","","","","-26","","NA"
"-73.74","45.47","MONTREAL/PIERRE ELLIOTT TRUDEAU INTL","702S006","2009-12-29 20:00","2009","12","29","20:00","-16.0","","-19.4","","75","","","","26","","20","","","","102.08","","","","-25","","NA"
"-73.74","45.47","MONTREAL/PIERRE ELLIOTT TRUDEAU INTL","702S006","2009-12-29 21:00","2009","12","29","21:00","-16.3","","-19.7","","75","","","","26","","20","","","","102.14","","","","-26","","NA"
"-73.74","45.47","MONTREAL/PIERRE ELLIOTT TRUDEAU INTL","702S006","2009-12-29 22:00","2009","12","29","22:00","-16.5","","-20.1","","74","","","","26","","19","","","","102.17","","","","-26","","NA"
"-73.74","45.47","MONTREAL/PIERRE ELLIOTT TRUDEAU INTL","702S006","2009-12-29 23:00","2009","12","29","23:00","-16.5","","-20.3","","72","","","","26","","22","","","","102.18","","","","-27","","NA"
"-73.74","45.47","MONTREAL/PIERRE ELLIOTT TRUDEAU INTL","702S006","2009-12-30 00:00","2009","12","30","00:00","-16.9","","-20.6","","73","","","","26","","19","","","","102.20","","","","-26","","NA"
"-73.74","45.47","MONTREAL/PIERRE ELLIOTT TRUDEAU INTL","702S006","2009-12-30 01:00","2009","12","30","01:00","-16.9","","-20.6","","73","","","","27","","17","","","","102.22","","","","-26","","NA"
"-73.74","45.47","MONTREAL/PIERRE ELLIOTT TRUDEAU INTL","702S006","2009-12-30 02:00","2009","12","30","02:00","-16.7","","-21.1","","69","","","","28","","20","","","","102.28","","","","-26","","NA"
"-73.74","45.47","MONTREAL/PIERRE ELLIOTT TRUDEAU INTL","702S006","2009-12-30 03:00","2009","12","30","03:00","-16.9","","-21.1","","70","","","","28","","22","","","","102.32","","","","-27","","NA"
"-73.74","45.47","MONTREAL/PIERRE ELLIOTT TRUDEAU INTL","702S006","2009-12-30 04:00","2009","12","30","04:00","-17.8","","-21.3","","74","","","","25","","11","","","","102.32","","","","-25","","NA"
"-73.74","45.47","MONTREAL/PIERRE ELLIOTT TRUDEAU INTL","702S006","2009-12-30 05:00","2009","12","30","05:00","-17.9","","-21.1","","76","","","","25","","11","","","","102.36","","","","-25","","NA"
"-73.74","45.47","MONTREAL/PIERRE ELLIOTT TRUDEAU INTL","702S006","2009-12-30 06:00","2009","12","30","06:00","-17.6","","-21.0","","75","","","","25","","13","","","","102.39","","","","-25","","NA"
"-73.74","45.47","MONTREAL/PIERRE ELLIOTT TRUDEAU INTL","702S006","2009-12-30 07:00","2009","12","30","07:00","-17.3","","-20.7","","75","","","","26","","17","","","","102.41","","","","-26","","NA"
"-73.74","45.47","MONTREAL/PIERRE ELLIOTT TRUDEAU INTL","702S006","2009-12-30 08:00","2009","12","30","08:00","-17.1","","-20.6","","74","","","","26","","15","","","","102.45","","","","-26","","NA"
"-73.74","45.47","MONTREAL/PIERRE ELLIOTT TRUDEAU INTL","702S006","2009-12-30 09:00","2009","12","30","09:00","-16.3","","-20.1","","72","","","","26","","17","","","","102.46","","","","-25","","NA"
"-73.74","45.47","MONTREAL/PIERRE ELLIOTT TRUDEAU INTL","702S006","2009-12-30 10:00","2009","12","30","10:00","-14.5","","-17.9","","75","","","","26","","15","","","","102.44","","","","-22","","NA"
"-73.74","45.47","MONTREAL/PIERRE ELLIOTT TRUDEAU INTL","702S006","2009-12-30 11:00","2009","12","30","11:00","-12.7","","-16.9","","71","","","","26","","13","","","","102.37","","","","-20","","NA"
"-73.74","45.47","MONTREAL/PIERRE ELLIOTT TRUDEAU INTL","702S006","2009-12-30 12:00","2009","12","30","12:00","-11.1","","-16.2","","66","","","","24","","9","","","","102.29","","","","-16","","NA"
"-73.74","45.47","MONTREAL/PIERRE ELLIOTT TRUDEAU INTL","702S006","2009-12-30 13:00","2009","12","30","13:00","-10.0","","-15.7","","63","","","","22","","13","","","","102.22","","","","-16","","NA"
"-73.74","45.47","MONTREAL/PIERRE ELLIOTT TRUDEAU INTL","702S006","2009-12-30 14:00","2009","12","30","14:00","-9.4","","-14.1","","69","","","","24","","6","","","","102.18","","","","-13","","NA"
"-73.74","45.47","MONTREAL/PIERRE ELLIOTT TRUDEAU INTL","702S006","2009-12-30 15:00","2009","12","30","15:00","-8.5","","-12.6","","72","","","","22","","11","","","","102.16","","","","-14","","NA"
"-73.74","45.47","MONTREAL/PIERRE ELLIOTT TRUDEAU INTL","702S006","2009-12-30 16:00","2009","12","30","16:00","-8.6","","-12.9","","71","","","","16","","11","","","","102.16","","","","-14","","NA"
"-73.74","45.47","MONTREAL/PIERRE ELLIOTT TRUDEAU INTL","702S006","2009-12-30 17:00","2009","12","30","17:00","-8.5","","-12.3","","74","","","","14","","9","","","","102.11","","","","-13","","NA"
"-73.74","45.47","MONTREAL/PIERRE ELLIOTT TRUDEAU INTL","702S006","2009-12-30 18:00","2009","12","30","18:00","-7.8","","-11.0","","78","","","","16","","11","","","","102.05","","","","-13","","NA"
"-73.74","45.47","MONTREAL/PIERRE ELLIOTT TRUDEAU INTL","702S006","2009-12-30 19:00","2009","12","30","19:00","-8.5","","-11.3","","80","","","","14","","9","","","","102.00","","","","-13","","NA"
"-73.74","45.47","MONTREAL/PIERRE ELLIOTT TRUDEAU INTL","702S006","2009-12-30 20:00","2009","12","30","20:00","-7.6","","-9.6","","86","","","","14","","9","","","","101.97","","","","-12","","NA"
"-73.74","45.47","MONTREAL/PIERRE ELLIOTT TRUDEAU INTL","702S006","2009-12-30 21:00","2009","12","30","21:00","-7.3","","-9.5","","84","","","","14","","6","","","","101.95","","","","-10","","NA"
"-73.74","45.47","MONTREAL/PIERRE ELLIOTT TRUDEAU INTL","702S006","2009-12-30 22:00","2009","12","30","22:00","-6.4","","-9.3","","80","","","","15","","13","","","","101.90","","","","-12","","NA"
"-73.74","45.47","MONTREAL/PIERRE ELLIOTT TRUDEAU INTL","702S006","2009-12-30 23:00","2009","12","30","23:00","-6.0","","-9.3","","77","","","","15","","15","","","","101.85","","","","-12","","NA"
"-73.74","45.47","MONTREAL/PIERRE ELLIOTT TRUDEAU INTL","702S006","2009-12-31 00:00","2009","12","31","00:00","-5.8","","-9.2","","77","","","","13","","11","","","","101.78","","","","-11","","NA"
"-73.74","45.47","MONTREAL/PIERRE ELLIOTT TRUDEAU INTL","702S006","2009-12-31 01:00","2009","12","31","01:00","-6.0","","-9.1","","79","","","","15","","9","","","","101.73","","","","-10","","NA"
"-73.74","45.47","MONTREAL/PIERRE ELLIOTT TRUDEAU INTL","702S006","2009-12-31 02:00","2009","12","31","02:00","-6.1","","-8.5","","83","","","","14","","11","","","","101.74","","","","-11","","NA"
"-73.74","45.47","MONTREAL/PIERRE ELLIOTT TRUDEAU INTL","702S006","2009-12-31 03:00","2009","12","31","03:00","-5.8","","-8.0","","84","","","","9","","6","","","","101.72","","","","-9","","NA"
"-73.74","45.47","MONTREAL/PIERRE ELLIOTT TRUDEAU INTL","702S006","2009-12-31 04:00","2009","12","31","04:00","-6.5","","-9.2","","81","","","","4","","7","","","","101.66","","","","-10","","NA"
"-73.74","45.47","MONTREAL/PIERRE ELLIOTT TRUDEAU INTL","702S006","2009-12-31 05:00","2009","12","31","05:00","-8.4","","-10.3","","86","","","","2","","15","","","","101.61","","","","-15","","NA"
"-73.74","45.47","MONTREAL/PIERRE ELLIOTT TRUDEAU INTL","702S006","2009-12-31 06:00","2009","12","31","06:00","-8.4","","-10.1","","88","","","","2","","15","","","","101.60","","","","-15","","NA"
"-73.74","45.47","MONTREAL/PIERRE ELLIOTT TRUDEAU INTL","702S006","2009-12-31 07:00","2009","12","31","07:00","-8.6","","-10.4","","87","","","","2","","15","","","","101.61","","","","-15","","NA"
"-73.74","45.47","MONTREAL/PIERRE ELLIOTT TRUDEAU INTL","702S006","2009-12-31 08:00","2009","12","31","08:00","-8.6","","-10.3","","87","","","","1","","15","","","","101.59","","","","-15","","NA"
"-73.74","45.47","MONTREAL/PIERRE ELLIOTT TRUDEAU INTL","702S006","2009-12-31 09:00","2009","12","31","09:00","-8.2","","-10.0","","87","","","","3","","17","","","","101.53","","","","-15","","NA"
"-73.74","45.47","MONTREAL/PIERRE ELLIOTT TRUDEAU INTL","702S006","2009-12-31 10:00","2009","12","31","10:00","-8.0","","-9.9","","86","","","","2","","15","","","","101.51","","","","-14","","NA"
"-73.74","45.47","MONTREAL/PIERRE ELLIOTT TRUDEAU INTL","702S006","2009-12-31 11:00","2009","12","31","11:00","-7.7","","-9.8","","85","","","","2","","15","","","","101.51","","","","-14","","NA"
"-73.74","45.47","MONTREAL/PIERRE ELLIOTT TRUDEAU INTL","702S006","2009-12-31 12:00","2009","12","31","12:00","-7.6","","-9.8","","84","","","","2","","19","","","","101.43","","","","-15","","NA"
"-73.74","45.47","MONTREAL/PIERRE ELLIOTT TRUDEAU INTL","702S006","2009-12-31 13:00","2009","12","31","13:00","-6.8","","-9.2","","83","","","","2","","15","","","","101.36","","","","-13","","NA"
"-73.74","45.47","MONTREAL/PIERRE ELLIOTT TRUDEAU INTL","702S006","2009-12-31 14:00","2009","12","31","14:00","-5.9","","-8.6","","81","","","","2","","15","","","","101.32","","","","-12","","NA"
"-73.74","45.47","MONTREAL/PIERRE ELLIOTT TRUDEAU INTL","702S006","2009-12-31 15:00","2009","12","31","15:00","-5.3","","-8.0","","81","","","","2","","15","","","","101.33","","","","-11","","NA"
"-73.74","45.47","MONTREAL/PIERRE ELLIOTT TRUDEAU INTL","702S006","2009-12-31 16:00","2009","12","31","16:00","-4.7","","-7.5","","81","","","","3","","15","","","","101.32","","","","-10","","NA"
"-73.74","45.47","MONTREAL/PIERRE ELLIOTT TRUDEAU INTL","702S006","2009-12-31 17:00","2009","12","31","17:00","-5.6","","-7.9","","84","","","","3","","13","","","","101.32","","","","-11","","NA"
"-73.74","45.47","MONTREAL/PIERRE ELLIOTT TRUDEAU INTL","702S006","2009-12-31 18:00","2009","12","31","18:00","-4.8","","-7.1","","84","","","","4","","11","","","","101.33","","","","-9","","NA"
"-73.74","45.47","MONTREAL/PIERRE ELLIOTT TRUDEAU INTL","702S006","2009-12-31 19:00","2009","12","31","19:00","-5.0","","-7.3","","84","","","","3","","13","","","","101.30","","","","-10","","NA"
"-73.74","45.47","MONTREAL/PIERRE ELLIOTT TRUDEAU INTL","702S006","2009-12-31 20:00","2009","12","31","20:00","-4.4","","-6.5","","85","","","","3","","11","","","","101.29","","","","-9","","NA"
"-73.74","45.47","MONTREAL/PIERRE ELLIOTT TRUDEAU INTL","702S006","2009-12-31 21:00","2009","12","31","21:00","-3.6","","-4.9","","91","","","","4","","7","","","","101.24","","","","-7","","NA"
"-73.74","45.47","MONTREAL/PIERRE ELLIOTT TRUDEAU INTL","702S006","2009-12-31 22:00","2009","12","31","22:00","-3.7","","-5.1","","90","","","","4","","7","","","","101.20","","","","-7","","NA"
"-73.74","45.47","MONTREAL/PIERRE ELLIOTT TRUDEAU INTL","702S006","2009-12-31 23:00","2009","12","31","23:00","-3.3","","-4.5","","91","","","","5","","11","","","","101.13","","","","-8","","NA"
