"Longitude (x)","Latitude (y)","Station Name","Climate ID","Date/Time (LST)","Year","Month","Day","Time (LST)","Temp (°C)","Temp Flag","Dew Point Temp (°C)","Dew Point Temp Flag","Rel Hum (%)","Rel Hum Flag","Precip. Amount (mm)","Precip. Amount Flag","Wind Dir (10s deg)","Wind Dir Flag","Wind Spd (km/h)","Wind Spd Flag","Visibility (km)","Visibility Flag","Stn Press (kPa)","Stn Press Flag","Hmdx","Hmdx Flag","Wind Chill","Wind Chill Flag","Weather"
"-73.74","45.47","MONTREAL/PIERRE ELLIOTT TRUDEAU INTL","702S006","2013-04-01 00:00","2013","04","01","00:00","5.6","","3.7","","88","","","","16","","17","","","","99.93","","","","","","NA"
"-73.74","45.47","MONTREAL/PIERRE ELLIOTT TRUDEAU INTL","702S006","2013-04-01 01:00","2013","04","01","01:00","5.3","","3.3","","87","","","","15","","24","","","","99.84","","","","","","NA"
"-73.74","45.47","MONTREAL/PIERRE ELLIOTT TRUDEAU INTL","702S006","2013-04-01 02:00","2013","04","01","02:00","5.2","","3.0","","86","","","","15","","24","","","","99.77","","","","","","NA"
"-73.74","45.47","MONTREAL/PIERRE ELLIOTT TRUDEAU INTL","702S006","2013-04-01 03:00","2013","04","01","03:00","5.0","","2.7","","85","","","","15","","24","","","","99.66","","","","","","NA"
"-73.74","45.47","MONTREAL/PIERRE ELLIOTT TRUDEAU INTL","702S006","2013-04-01 04:00","2013","04","01","04:00","4.7","","2.7","","87","","","","15","","20","","","","99.62","","","","","","NA"
"-73.74","45.47","MONTREAL/PIERRE ELLIOTT TRUDEAU INTL","702S006","2013-04-01 05:00","2013","04","01","05:00","4.6","","2.6","","87","","","","16","","17","","","","99.59","","","","","","NA"
"-73.74","45.47","MONTREAL/PIERRE ELLIOTT TRUDEAU INTL","702S006","2013-04-01 06:00","2013","04","01","06:00","4.6","","2.5","","86","","","","16","","15","","","","99.55","","","","","","NA"
"-73.74","45.47","MONTREAL/PIERRE ELLIOTT TRUDEAU INTL","702S006","2013-04-01 07:00","2013","04","01","07:00","4.9","","2.5","","84","","","","16","","15","","","","99.53","","","","","","NA"
"-73.74","45.47","MONTREAL/PIERRE ELLIOTT TRUDEAU INTL","702S006","2013-04-01 08:00","2013","04","01","08:00","4.8","","2.7","","86","","","","17","","19","","","","99.51","","","","","","NA"
"-73.74","45.47","MONTREAL/PIERRE ELLIOTT TRUDEAU INTL","702S006","2013-04-01 09:00","2013","04","01","09:00","6.0","","3.5","","84","","","","21","","19","","","","99.46","","","","","","NA"
"-73.74","45.47","MONTREAL/PIERRE ELLIOTT TRUDEAU INTL","702S006","2013-04-01 10:00","2013","04","01","10:00","6.4","","3.8","","83","","","","23","","17","","","","99.44","","","","","","NA"
"-73.74","45.47","MONTREAL/PIERRE ELLIOTT TRUDEAU INTL","702S006","2013-04-01 11:00","2013","04","01","11:00","5.8","","3.5","","85","","","","23","","19","","","","99.43","","","","","","NA"
"-73.74","45.47","MONTREAL/PIERRE ELLIOTT TRUDEAU INTL","702S006","2013-04-01 12:00","2013","04","01","12:00","5.5","","2.6","","82","","","","23","","24","","","","99.47","","","","","","NA"
"-73.74","45.47","MONTREAL/PIERRE ELLIOTT TRUDEAU INTL","702S006","2013-04-01 13:00","2013","04","01","13:00","4.3","","-0.9","","69","","","","26","","41","","","","99.58","","","","","","NA"
"-73.74","45.47","MONTREAL/PIERRE ELLIOTT TRUDEAU INTL","702S006","2013-04-01 14:00","2013","04","01","14:00","5.3","","-6.5","","42","","","","26","","46","","","","99.62","","","","","","NA"
"-73.74","45.47","MONTREAL/PIERRE ELLIOTT TRUDEAU INTL","702S006","2013-04-01 15:00","2013","04","01","15:00","4.4","","-9.3","","36","","","","26","","46","","","","99.73","","","","","","NA"
"-73.74","45.47","MONTREAL/PIERRE ELLIOTT TRUDEAU INTL","702S006","2013-04-01 16:00","2013","04","01","16:00","2.4","","-9.5","","41","","","","25","","37","","","","99.85","","","","","","NA"
"-73.74","45.47","MONTREAL/PIERRE ELLIOTT TRUDEAU INTL","702S006","2013-04-01 17:00","2013","04","01","17:00","1.7","","-9.7","","42","","","","27","","39","","","","99.97","","","","","","NA"
"-73.74","45.47","MONTREAL/PIERRE ELLIOTT TRUDEAU INTL","702S006","2013-04-01 18:00","2013","04","01","18:00","0.0","","-7.1","","59","","","","28","","41","","","","100.13","","","","-7","","NA"
"-73.74","45.47","MONTREAL/PIERRE ELLIOTT TRUDEAU INTL","702S006","2013-04-01 19:00","2013","04","01","19:00","-0.5","","-8.2","","56","","","","26","","33","","","","100.24","","","","-7","","NA"
"-73.74","45.47","MONTREAL/PIERRE ELLIOTT TRUDEAU INTL","702S006","2013-04-01 20:00","2013","04","01","20:00","-1.4","","-11.5","","46","","","","27","","33","","","","100.34","","","","-9","","NA"
"-73.74","45.47","MONTREAL/PIERRE ELLIOTT TRUDEAU INTL","702S006","2013-04-01 21:00","2013","04","01","21:00","-2.4","","-11.4","","50","","","","28","","24","","","","100.39","","","","-9","","NA"
"-73.74","45.47","MONTREAL/PIERRE ELLIOTT TRUDEAU INTL","702S006","2013-04-01 22:00","2013","04","01","22:00","-3.6","","-9.5","","64","","","","28","","32","","","","100.43","","","","-11","","NA"
"-73.74","45.47","MONTREAL/PIERRE ELLIOTT TRUDEAU INTL","702S006","2013-04-01 23:00","2013","04","01","23:00","-4.1","","-10.7","","60","","","","28","","32","","","","100.45","","","","-12","","NA"
"-73.74","45.47","MONTREAL/PIERRE ELLIOTT TRUDEAU INTL","702S006","2013-04-02 00:00","2013","04","02","00:00","-4.9","","-11.9","","58","","","","29","","19","","","","100.47","","","","-11","","NA"
"-73.74","45.47","MONTREAL/PIERRE ELLIOTT TRUDEAU INTL","702S006","2013-04-02 01:00","2013","04","02","01:00","-5.4","","-12.7","","56","","","","29","","20","","","","100.46","","","","-12","","NA"
"-73.74","45.47","MONTREAL/PIERRE ELLIOTT TRUDEAU INTL","702S006","2013-04-02 02:00","2013","04","02","02:00","-5.6","","-11.6","","63","","","","28","","19","","","","100.47","","","","-12","","NA"
"-73.74","45.47","MONTREAL/PIERRE ELLIOTT TRUDEAU INTL","702S006","2013-04-02 03:00","2013","04","02","03:00","-5.8","","-12.5","","59","","","","28","","20","","","","100.47","","","","-13","","NA"
"-73.74","45.47","MONTREAL/PIERRE ELLIOTT TRUDEAU INTL","702S006","2013-04-02 04:00","2013","04","02","04:00","-5.9","","-11.9","","63","","","","28","","17","","","","100.48","","","","-12","","NA"
"-73.74","45.47","MONTREAL/PIERRE ELLIOTT TRUDEAU INTL","702S006","2013-04-02 05:00","2013","04","02","05:00","-6.1","","-12.1","","62","","","","27","","24","","","","100.49","","","","-14","","NA"
"-73.74","45.47","MONTREAL/PIERRE ELLIOTT TRUDEAU INTL","702S006","2013-04-02 06:00","2013","04","02","06:00","-6.6","","-14.3","","54","","","","28","","20","","","","100.56","","","","-14","","NA"
"-73.74","45.47","MONTREAL/PIERRE ELLIOTT TRUDEAU INTL","702S006","2013-04-02 07:00","2013","04","02","07:00","-6.1","","-14.2","","53","","","","27","","26","","","","100.57","","","","-14","","NA"
"-73.74","45.47","MONTREAL/PIERRE ELLIOTT TRUDEAU INTL","702S006","2013-04-02 08:00","2013","04","02","08:00","-5.1","","-13.4","","52","","","","27","","32","","","","100.55","","","","-13","","NA"
"-73.74","45.47","MONTREAL/PIERRE ELLIOTT TRUDEAU INTL","702S006","2013-04-02 09:00","2013","04","02","09:00","-4.7","","-13.7","","49","","","","27","","33","","","","100.55","","","","-13","","NA"
"-73.74","45.47","MONTREAL/PIERRE ELLIOTT TRUDEAU INTL","702S006","2013-04-02 10:00","2013","04","02","10:00","-4.4","","-13.8","","48","","","","27","","33","","","","100.57","","","","-13","","NA"
"-73.74","45.47","MONTREAL/PIERRE ELLIOTT TRUDEAU INTL","702S006","2013-04-02 11:00","2013","04","02","11:00","-3.4","","-14.8","","41","","","","28","","39","","","","100.53","","","","-12","","NA"
"-73.74","45.47","MONTREAL/PIERRE ELLIOTT TRUDEAU INTL","702S006","2013-04-02 12:00","2013","04","02","12:00","-3.6","","-12.5","","50","","","","27","","32","","","","100.48","","","","-11","","NA"
"-73.74","45.47","MONTREAL/PIERRE ELLIOTT TRUDEAU INTL","702S006","2013-04-02 13:00","2013","04","02","13:00","-3.3","","-13.5","","45","","","","27","","41","","","","100.49","","","","-12","","NA"
"-73.74","45.47","MONTREAL/PIERRE ELLIOTT TRUDEAU INTL","702S006","2013-04-02 14:00","2013","04","02","14:00","-2.0","","-11.8","","47","","","","27","","43","","","","100.42","","","","-10","","NA"
"-73.74","45.47","MONTREAL/PIERRE ELLIOTT TRUDEAU INTL","702S006","2013-04-02 15:00","2013","04","02","15:00","-1.8","","-11.9","","46","","","","27","","39","","","","100.41","","","","-10","","NA"
"-73.74","45.47","MONTREAL/PIERRE ELLIOTT TRUDEAU INTL","702S006","2013-04-02 16:00","2013","04","02","16:00","-1.2","","-12.5","","42","","","","28","","35","","","","100.39","","","","-9","","NA"
"-73.74","45.47","MONTREAL/PIERRE ELLIOTT TRUDEAU INTL","702S006","2013-04-02 17:00","2013","04","02","17:00","-1.1","","-12.6","","41","","","","28","","35","","","","100.45","","","","-8","","NA"
"-73.74","45.47","MONTREAL/PIERRE ELLIOTT TRUDEAU INTL","702S006","2013-04-02 18:00","2013","04","02","18:00","-1.2","","-12.3","","43","","","","28","","33","","","","100.49","","","","-8","","NA"
"-73.74","45.47","MONTREAL/PIERRE ELLIOTT TRUDEAU INTL","702S006","2013-04-02 19:00","2013","04","02","19:00","-1.3","","-13.8","","38","","","","28","","32","","","","100.56","","","","-8","","NA"
"-73.74","45.47","MONTREAL/PIERRE ELLIOTT TRUDEAU INTL","702S006","2013-04-02 20:00","2013","04","02","20:00","-1.4","","-13.6","","39","","","","28","","26","","","","100.63","","","","-8","","NA"
"-73.74","45.47","MONTREAL/PIERRE ELLIOTT TRUDEAU INTL","702S006","2013-04-02 21:00","2013","04","02","21:00","-1.5","","-13.2","","40","","","","28","","24","","","","100.66","","","","-8","","NA"
"-73.74","45.47","MONTREAL/PIERRE ELLIOTT TRUDEAU INTL","702S006","2013-04-02 22:00","2013","04","02","22:00","-1.6","","-13.6","","39","","","","28","","30","","","","100.69","","","","-9","","NA"
"-73.74","45.47","MONTREAL/PIERRE ELLIOTT TRUDEAU INTL","702S006","2013-04-02 23:00","2013","04","02","23:00","-1.9","","-13.2","","42","","","","28","","26","","","","100.70","","","","-8","","NA"
"-73.74","45.47","MONTREAL/PIERRE ELLIOTT TRUDEAU INTL","702S006","2013-04-03 00:00","2013","04","03","00:00","-2.2","","-12.9","","44","","","","28","","30","","","","100.74","","","","-9","","NA"
"-73.74","45.47","MONTREAL/PIERRE ELLIOTT TRUDEAU INTL","702S006","2013-04-03 01:00","2013","04","03","01:00","-2.8","","-13.5","","43","","","","29","","26","","","","100.78","","","","-10","","NA"
"-73.74","45.47","MONTREAL/PIERRE ELLIOTT TRUDEAU INTL","702S006","2013-04-03 02:00","2013","04","03","02:00","-3.4","","-13.4","","46","","","","29","","22","","","","100.77","","","","-10","","NA"
"-73.74","45.47","MONTREAL/PIERRE ELLIOTT TRUDEAU INTL","702S006","2013-04-03 03:00","2013","04","03","03:00","-3.7","","-14.0","","45","","","","29","","30","","","","100.76","","","","-11","","NA"
"-73.74","45.47","MONTREAL/PIERRE ELLIOTT TRUDEAU INTL","702S006","2013-04-03 04:00","2013","04","03","04:00","-4.0","","-13.3","","48","","","","28","","26","","","","100.80","","","","-11","","NA"
"-73.74","45.47","MONTREAL/PIERRE ELLIOTT TRUDEAU INTL","702S006","2013-04-03 05:00","2013","04","03","05:00","-4.3","","-13.2","","50","","","","28","","30","","","","100.85","","","","-12","","NA"
"-73.74","45.47","MONTREAL/PIERRE ELLIOTT TRUDEAU INTL","702S006","2013-04-03 06:00","2013","04","03","06:00","-4.5","","-12.8","","52","","","","28","","28","","","","100.95","","","","-12","","NA"
"-73.74","45.47","MONTREAL/PIERRE ELLIOTT TRUDEAU INTL","702S006","2013-04-03 07:00","2013","04","03","07:00","-4.3","","-12.9","","51","","","","28","","35","","","","101.01","","","","-13","","NA"
"-73.74","45.47","MONTREAL/PIERRE ELLIOTT TRUDEAU INTL","702S006","2013-04-03 08:00","2013","04","03","08:00","-3.8","","-13.1","","48","","","","27","","41","","","","101.01","","","","-13","","NA"
"-73.74","45.47","MONTREAL/PIERRE ELLIOTT TRUDEAU INTL","702S006","2013-04-03 09:00","2013","04","03","09:00","-3.0","","-12.5","","48","","","","27","","41","","","","101.05","","","","-11","","NA"
"-73.74","45.47","MONTREAL/PIERRE ELLIOTT TRUDEAU INTL","702S006","2013-04-03 10:00","2013","04","03","10:00","-2.4","","-12.3","","47","","","","27","","41","","","","101.06","","","","-11","","NA"
"-73.74","45.47","MONTREAL/PIERRE ELLIOTT TRUDEAU INTL","702S006","2013-04-03 11:00","2013","04","03","11:00","-1.4","","-12.0","","44","","","","27","","43","","","","101.06","","","","-10","","NA"
"-73.74","45.47","MONTREAL/PIERRE ELLIOTT TRUDEAU INTL","702S006","2013-04-03 12:00","2013","04","03","12:00","-0.4","","-12.0","","41","","","","28","","44","","","","101.06","","","","-8","","NA"
"-73.74","45.47","MONTREAL/PIERRE ELLIOTT TRUDEAU INTL","702S006","2013-04-03 13:00","2013","04","03","13:00","0.7","","-10.9","","41","","","","27","","43","","","","101.07","","","","","","NA"
"-73.74","45.47","MONTREAL/PIERRE ELLIOTT TRUDEAU INTL","702S006","2013-04-03 14:00","2013","04","03","14:00","1.3","","-10.4","","41","","","","27","","43","","","","101.14","","","","","","NA"
"-73.74","45.47","MONTREAL/PIERRE ELLIOTT TRUDEAU INTL","702S006","2013-04-03 15:00","2013","04","03","15:00","1.8","","-10.4","","40","","","","28","","39","","","","101.18","","","","","","NA"
"-73.74","45.47","MONTREAL/PIERRE ELLIOTT TRUDEAU INTL","702S006","2013-04-03 16:00","2013","04","03","16:00","1.6","","-10.0","","42","","","","28","","37","","","","101.21","","","","","","NA"
"-73.74","45.47","MONTREAL/PIERRE ELLIOTT TRUDEAU INTL","702S006","2013-04-03 17:00","2013","04","03","17:00","1.5","","-9.2","","45","","","","28","","26","","","","101.31","","","","","","NA"
"-73.74","45.47","MONTREAL/PIERRE ELLIOTT TRUDEAU INTL","702S006","2013-04-03 18:00","2013","04","03","18:00","1.2","","-9.4","","45","","","","30","","32","","","","101.42","","","","","","NA"
"-73.74","45.47","MONTREAL/PIERRE ELLIOTT TRUDEAU INTL","702S006","2013-04-03 19:00","2013","04","03","19:00","0.5","","-9.3","","48","","","","29","","20","","","","101.57","","","","","","NA"
"-73.74","45.47","MONTREAL/PIERRE ELLIOTT TRUDEAU INTL","702S006","2013-04-03 20:00","2013","04","03","20:00","0.2","","-9.3","","49","","","","28","","20","","","","101.65","","","","","","NA"
"-73.74","45.47","MONTREAL/PIERRE ELLIOTT TRUDEAU INTL","702S006","2013-04-03 21:00","2013","04","03","21:00","-0.4","","-9.1","","52","","","","26","","19","","","","101.70","","","","-6","","NA"
"-73.74","45.47","MONTREAL/PIERRE ELLIOTT TRUDEAU INTL","702S006","2013-04-03 22:00","2013","04","03","22:00","-0.9","","-9.1","","54","","","","26","","17","","","","101.73","","","","-6","","NA"
"-73.74","45.47","MONTREAL/PIERRE ELLIOTT TRUDEAU INTL","702S006","2013-04-03 23:00","2013","04","03","23:00","-1.1","","-9.5","","53","","","","27","","17","","","","101.78","","","","-6","","NA"
"-73.74","45.47","MONTREAL/PIERRE ELLIOTT TRUDEAU INTL","702S006","2013-04-04 00:00","2013","04","04","00:00","-0.5","","-11.7","","42","","","","28","","20","","","","101.83","","","","-6","","NA"
"-73.74","45.47","MONTREAL/PIERRE ELLIOTT TRUDEAU INTL","702S006","2013-04-04 01:00","2013","04","04","01:00","-0.8","","-12.2","","42","","","","28","","19","","","","101.81","","","","-6","","NA"
"-73.74","45.47","MONTREAL/PIERRE ELLIOTT TRUDEAU INTL","702S006","2013-04-04 02:00","2013","04","04","02:00","-2.2","","-11.9","","47","","","","29","","13","","","","101.77","","","","-7","","NA"
"-73.74","45.47","MONTREAL/PIERRE ELLIOTT TRUDEAU INTL","702S006","2013-04-04 03:00","2013","04","04","03:00","-1.4","","-10.8","","49","","","","27","","13","","","","101.82","","","","-6","","NA"
"-73.74","45.47","MONTREAL/PIERRE ELLIOTT TRUDEAU INTL","702S006","2013-04-04 04:00","2013","04","04","04:00","-3.2","","-10.6","","57","","","","24","","7","","","","101.85","","","","-6","","NA"
"-73.74","45.47","MONTREAL/PIERRE ELLIOTT TRUDEAU INTL","702S006","2013-04-04 05:00","2013","04","04","05:00","-3.1","","-10.2","","58","","","","26","","13","","","","101.88","","","","-8","","NA"
"-73.74","45.47","MONTREAL/PIERRE ELLIOTT TRUDEAU INTL","702S006","2013-04-04 06:00","2013","04","04","06:00","-2.8","","-9.9","","58","","","","25","","17","","","","101.91","","","","-8","","NA"
"-73.74","45.47","MONTREAL/PIERRE ELLIOTT TRUDEAU INTL","702S006","2013-04-04 07:00","2013","04","04","07:00","-1.7","","-8.7","","59","","","","24","","19","","","","101.92","","","","-7","","NA"
"-73.74","45.47","MONTREAL/PIERRE ELLIOTT TRUDEAU INTL","702S006","2013-04-04 08:00","2013","04","04","08:00","0.4","","-8.5","","51","","","","25","","20","","","","101.88","","","","","","NA"
"-73.74","45.47","MONTREAL/PIERRE ELLIOTT TRUDEAU INTL","702S006","2013-04-04 09:00","2013","04","04","09:00","1.3","","-7.3","","53","","","","23","","19","","","","101.79","","","","","","NA"
"-73.74","45.47","MONTREAL/PIERRE ELLIOTT TRUDEAU INTL","702S006","2013-04-04 10:00","2013","04","04","10:00","2.5","","-8.8","","43","","","","23","","20","","","","101.67","","","","","","NA"
"-73.74","45.47","MONTREAL/PIERRE ELLIOTT TRUDEAU INTL","702S006","2013-04-04 11:00","2013","04","04","11:00","4.7","","-9.5","","35","","","","24","","32","","","","101.55","","","","","","NA"
"-73.74","45.47","MONTREAL/PIERRE ELLIOTT TRUDEAU INTL","702S006","2013-04-04 12:00","2013","04","04","12:00","5.7","","-9.2","","33","","","","23","","28","","","","101.40","","","","","","NA"
"-73.74","45.47","MONTREAL/PIERRE ELLIOTT TRUDEAU INTL","702S006","2013-04-04 13:00","2013","04","04","13:00","6.8","","-8.3","","33","","","","23","","24","","","","101.30","","","","","","NA"
"-73.74","45.47","MONTREAL/PIERRE ELLIOTT TRUDEAU INTL","702S006","2013-04-04 14:00","2013","04","04","14:00","8.4","","-6.6","","34","","","","24","","28","","","","101.16","","","","","","NA"
"-73.74","45.47","MONTREAL/PIERRE ELLIOTT TRUDEAU INTL","702S006","2013-04-04 15:00","2013","04","04","15:00","8.6","","-6.6","","33","","","","24","","26","","","","101.02","","","","","","NA"
"-73.74","45.47","MONTREAL/PIERRE ELLIOTT TRUDEAU INTL","702S006","2013-04-04 16:00","2013","04","04","16:00","8.7","","-6.7","","33","","","","26","","28","","","","100.94","","","","","","NA"
"-73.74","45.47","MONTREAL/PIERRE ELLIOTT TRUDEAU INTL","702S006","2013-04-04 17:00","2013","04","04","17:00","8.0","","-7.6","","32","","","","26","","26","","","","100.89","","","","","","NA"
"-73.74","45.47","MONTREAL/PIERRE ELLIOTT TRUDEAU INTL","702S006","2013-04-04 18:00","2013","04","04","18:00","6.6","","-8.0","","34","","","","26","","22","","","","100.92","","","","","","NA"
"-73.74","45.47","MONTREAL/PIERRE ELLIOTT TRUDEAU INTL","702S006","2013-04-04 19:00","2013","04","04","19:00","6.4","","-7.9","","35","","","","26","","22","","","","100.92","","","","","","NA"
"-73.74","45.47","MONTREAL/PIERRE ELLIOTT TRUDEAU INTL","702S006","2013-04-04 20:00","2013","04","04","20:00","6.1","","-7.7","","36","","","","28","","17","","","","100.92","","","","","","NA"
"-73.74","45.47","MONTREAL/PIERRE ELLIOTT TRUDEAU INTL","702S006","2013-04-04 21:00","2013","04","04","21:00","5.7","","-7.4","","38","","","","25","","7","","","","100.91","","","","","","NA"
"-73.74","45.47","MONTREAL/PIERRE ELLIOTT TRUDEAU INTL","702S006","2013-04-04 22:00","2013","04","04","22:00","3.8","","-5.2","","52","","","","21","","6","","","","100.86","","","","","","NA"
"-73.74","45.47","MONTREAL/PIERRE ELLIOTT TRUDEAU INTL","702S006","2013-04-04 23:00","2013","04","04","23:00","2.6","","-5.7","","54","","","","35","","6","","","","100.78","","","","","","NA"
"-73.74","45.47","MONTREAL/PIERRE ELLIOTT TRUDEAU INTL","702S006","2013-04-05 00:00","2013","04","05","00:00","0.9","","-3.4","","73","","","","17","","4","","","","100.70","","","","","","NA"
"-73.74","45.47","MONTREAL/PIERRE ELLIOTT TRUDEAU INTL","702S006","2013-04-05 01:00","2013","04","05","01:00","1.4","","-2.9","","73","","","","18","","7","","","","100.65","","","","","","NA"
"-73.74","45.47","MONTREAL/PIERRE ELLIOTT TRUDEAU INTL","702S006","2013-04-05 02:00","2013","04","05","02:00","1.1","","-2.8","","75","","","","16","","6","","","","100.55","","","","","","NA"
"-73.74","45.47","MONTREAL/PIERRE ELLIOTT TRUDEAU INTL","702S006","2013-04-05 03:00","2013","04","05","03:00","0.9","","-3.0","","75","","","","16","","4","","","","100.49","","","","","","NA"
"-73.74","45.47","MONTREAL/PIERRE ELLIOTT TRUDEAU INTL","702S006","2013-04-05 04:00","2013","04","05","04:00","2.7","","-4.8","","58","","","","21","","13","","","","100.50","","","","","","NA"
"-73.74","45.47","MONTREAL/PIERRE ELLIOTT TRUDEAU INTL","702S006","2013-04-05 05:00","2013","04","05","05:00","1.0","","-1.3","","85","","","","26","","13","","","","100.50","","","","","","NA"
"-73.74","45.47","MONTREAL/PIERRE ELLIOTT TRUDEAU INTL","702S006","2013-04-05 06:00","2013","04","05","06:00","1.1","","-0.3","","90","","","","25","","13","","","","100.51","","","","","","NA"
"-73.74","45.47","MONTREAL/PIERRE ELLIOTT TRUDEAU INTL","702S006","2013-04-05 07:00","2013","04","05","07:00","1.0","","-0.3","","91","","","","26","","17","","","","100.53","","","","","","NA"
"-73.74","45.47","MONTREAL/PIERRE ELLIOTT TRUDEAU INTL","702S006","2013-04-05 08:00","2013","04","05","08:00","1.5","","0.4","","92","","","","26","","13","","","","100.54","","","","","","NA"
"-73.74","45.47","MONTREAL/PIERRE ELLIOTT TRUDEAU INTL","702S006","2013-04-05 09:00","2013","04","05","09:00","3.1","","1.5","","89","","","","27","","19","","","","100.55","","","","","","NA"
"-73.74","45.47","MONTREAL/PIERRE ELLIOTT TRUDEAU INTL","702S006","2013-04-05 10:00","2013","04","05","10:00","3.5","","0.0","","78","","","","27","","22","","","","100.59","","","","","","NA"
"-73.74","45.47","MONTREAL/PIERRE ELLIOTT TRUDEAU INTL","702S006","2013-04-05 11:00","2013","04","05","11:00","3.9","","0.5","","78","","","","29","","17","","","","100.62","","","","","","NA"
"-73.74","45.47","MONTREAL/PIERRE ELLIOTT TRUDEAU INTL","702S006","2013-04-05 12:00","2013","04","05","12:00","5.8","","-1.5","","59","","","","29","","32","","","","100.59","","","","","","NA"
"-73.74","45.47","MONTREAL/PIERRE ELLIOTT TRUDEAU INTL","702S006","2013-04-05 13:00","2013","04","05","13:00","5.2","","-3.2","","55","","","","30","","32","","","","100.64","","","","","","NA"
"-73.74","45.47","MONTREAL/PIERRE ELLIOTT TRUDEAU INTL","702S006","2013-04-05 14:00","2013","04","05","14:00","5.0","","-4.2","","51","","","","31","","32","","","","100.68","","","","","","NA"
"-73.74","45.47","MONTREAL/PIERRE ELLIOTT TRUDEAU INTL","702S006","2013-04-05 15:00","2013","04","05","15:00","4.4","","-4.5","","52","","","","31","","28","","","","100.70","","","","","","NA"
"-73.74","45.47","MONTREAL/PIERRE ELLIOTT TRUDEAU INTL","702S006","2013-04-05 16:00","2013","04","05","16:00","3.8","","-7.3","","44","","","","30","","32","","","","100.74","","","","","","NA"
"-73.74","45.47","MONTREAL/PIERRE ELLIOTT TRUDEAU INTL","702S006","2013-04-05 17:00","2013","04","05","17:00","2.5","","-8.9","","43","","","","31","","28","","","","100.82","","","","","","NA"
"-73.74","45.47","MONTREAL/PIERRE ELLIOTT TRUDEAU INTL","702S006","2013-04-05 18:00","2013","04","05","18:00","1.0","","-9.3","","46","","","","33","","20","","","","100.92","","","","","","NA"
"-73.74","45.47","MONTREAL/PIERRE ELLIOTT TRUDEAU INTL","702S006","2013-04-05 19:00","2013","04","05","19:00","0.3","","-9.4","","48","","","","32","","17","","","","100.99","","","","","","NA"
"-73.74","45.47","MONTREAL/PIERRE ELLIOTT TRUDEAU INTL","702S006","2013-04-05 20:00","2013","04","05","20:00","-0.7","","-9.9","","50","","","","33","","22","","","","101.10","","","","-6","","NA"
"-73.74","45.47","MONTREAL/PIERRE ELLIOTT TRUDEAU INTL","702S006","2013-04-05 21:00","2013","04","05","21:00","-1.6","","-10.1","","52","","","","31","","20","","","","101.19","","","","-7","","NA"
"-73.74","45.47","MONTREAL/PIERRE ELLIOTT TRUDEAU INTL","702S006","2013-04-05 22:00","2013","04","05","22:00","-2.4","","-11.1","","51","","","","32","","19","","","","101.22","","","","-8","","NA"
"-73.74","45.47","MONTREAL/PIERRE ELLIOTT TRUDEAU INTL","702S006","2013-04-05 23:00","2013","04","05","23:00","-2.1","","-11.4","","49","","","","33","","30","","","","101.33","","","","-9","","NA"
"-73.74","45.47","MONTREAL/PIERRE ELLIOTT TRUDEAU INTL","702S006","2013-04-06 00:00","2013","04","06","00:00","-3.4","","-13.7","","45","","","","33","","32","","","","101.40","","","","-11","","NA"
"-73.74","45.47","MONTREAL/PIERRE ELLIOTT TRUDEAU INTL","702S006","2013-04-06 01:00","2013","04","06","01:00","-4.1","","-13.1","","50","","","","34","","20","","","","101.48","","","","-10","","NA"
"-73.74","45.47","MONTREAL/PIERRE ELLIOTT TRUDEAU INTL","702S006","2013-04-06 02:00","2013","04","06","02:00","-5.1","","-12.6","","56","","","","33","","17","","","","101.58","","","","-11","","NA"
"-73.74","45.47","MONTREAL/PIERRE ELLIOTT TRUDEAU INTL","702S006","2013-04-06 03:00","2013","04","06","03:00","-5.0","","-13.8","","50","","","","31","","24","","","","101.67","","","","-12","","NA"
"-73.74","45.47","MONTREAL/PIERRE ELLIOTT TRUDEAU INTL","702S006","2013-04-06 04:00","2013","04","06","04:00","-5.8","","-12.5","","59","","","","31","","15","","","","101.82","","","","-12","","NA"
"-73.74","45.47","MONTREAL/PIERRE ELLIOTT TRUDEAU INTL","702S006","2013-04-06 05:00","2013","04","06","05:00","-6.2","","-13.0","","59","","","","31","","15","","","","101.94","","","","-12","","NA"
"-73.74","45.47","MONTREAL/PIERRE ELLIOTT TRUDEAU INTL","702S006","2013-04-06 06:00","2013","04","06","06:00","-5.8","","-13.8","","53","","","","31","","17","","","","102.05","","","","-12","","NA"
"-73.74","45.47","MONTREAL/PIERRE ELLIOTT TRUDEAU INTL","702S006","2013-04-06 07:00","2013","04","06","07:00","-4.8","","-13.9","","49","","","","31","","19","","","","102.14","","","","-11","","NA"
"-73.74","45.47","MONTREAL/PIERRE ELLIOTT TRUDEAU INTL","702S006","2013-04-06 08:00","2013","04","06","08:00","-4.2","","-15.3","","42","","","","32","","19","","","","102.19","","","","-10","","NA"
"-73.74","45.47","MONTREAL/PIERRE ELLIOTT TRUDEAU INTL","702S006","2013-04-06 09:00","2013","04","06","09:00","-3.4","","-14.7","","41","","","","30","","24","","","","102.24","","","","-10","","NA"
"-73.74","45.47","MONTREAL/PIERRE ELLIOTT TRUDEAU INTL","702S006","2013-04-06 10:00","2013","04","06","10:00","-2.8","","-14.3","","41","","","","28","","15","","","","102.25","","","","-8","","NA"
"-73.74","45.47","MONTREAL/PIERRE ELLIOTT TRUDEAU INTL","702S006","2013-04-06 11:00","2013","04","06","11:00","-2.0","","-15.6","","34","","","","29","","13","","","","102.24","","","","-6","","NA"
"-73.74","45.47","MONTREAL/PIERRE ELLIOTT TRUDEAU INTL","702S006","2013-04-06 12:00","2013","04","06","12:00","-0.7","","-15.1","","33","","","","30","","15","","","","102.19","","","","-5","","NA"
"-73.74","45.47","MONTREAL/PIERRE ELLIOTT TRUDEAU INTL","702S006","2013-04-06 13:00","2013","04","06","13:00","0.3","","-14.5","","32","","","","27","","17","","","","102.19","","","","","","NA"
"-73.74","45.47","MONTREAL/PIERRE ELLIOTT TRUDEAU INTL","702S006","2013-04-06 14:00","2013","04","06","14:00","1.1","","-14.1","","31","","","","29","","15","","","","102.16","","","","","","NA"
"-73.74","45.47","MONTREAL/PIERRE ELLIOTT TRUDEAU INTL","702S006","2013-04-06 15:00","2013","04","06","15:00","1.3","","-13.4","","32","","","","23","","19","","","","102.11","","","","","","NA"
"-73.74","45.47","MONTREAL/PIERRE ELLIOTT TRUDEAU INTL","702S006","2013-04-06 16:00","2013","04","06","16:00","2.0","","-14.0","","29","","","","26","","17","","","","102.11","","","","","","NA"
"-73.74","45.47","MONTREAL/PIERRE ELLIOTT TRUDEAU INTL","702S006","2013-04-06 17:00","2013","04","06","17:00","2.3","","-13.1","","31","","","","25","","15","","","","102.11","","","","","","NA"
"-73.74","45.47","MONTREAL/PIERRE ELLIOTT TRUDEAU INTL","702S006","2013-04-06 18:00","2013","04","06","18:00","1.6","","-12.8","","33","","","","23","","13","","","","102.11","","","","","","NA"
"-73.74","45.47","MONTREAL/PIERRE ELLIOTT TRUDEAU INTL","702S006","2013-04-06 19:00","2013","04","06","19:00","0.9","","-13.5","","33","","","","25","","6","","","","102.08","","","","","","NA"
"-73.74","45.47","MONTREAL/PIERRE ELLIOTT TRUDEAU INTL","702S006","2013-04-06 20:00","2013","04","06","20:00","0.8","","-13.4","","34","","","","18","","2","","","","102.09","","","","","","NA"
"-73.74","45.47","MONTREAL/PIERRE ELLIOTT TRUDEAU INTL","702S006","2013-04-06 21:00","2013","04","06","21:00","0.7","","-8.4","","51","","","","15","","9","","","","102.09","","","","","","NA"
"-73.74","45.47","MONTREAL/PIERRE ELLIOTT TRUDEAU INTL","702S006","2013-04-06 22:00","2013","04","06","22:00","-0.1","","-9.9","","48","","","","15","","19","","","","102.05","","","","-5","","NA"
"-73.74","45.47","MONTREAL/PIERRE ELLIOTT TRUDEAU INTL","702S006","2013-04-06 23:00","2013","04","06","23:00","-0.2","","-9.4","","50","","","","14","","15","","","","102.00","","","","-5","","NA"
"-73.74","45.47","MONTREAL/PIERRE ELLIOTT TRUDEAU INTL","702S006","2013-04-07 00:00","2013","04","07","00:00","0.3","","-10.2","","45","","","","12","","15","","","","101.88","","","","","","NA"
"-73.74","45.47","MONTREAL/PIERRE ELLIOTT TRUDEAU INTL","702S006","2013-04-07 01:00","2013","04","07","01:00","0.7","","-9.5","","46","","","","12","","19","","","","101.70","","","","","","NA"
"-73.74","45.47","MONTREAL/PIERRE ELLIOTT TRUDEAU INTL","702S006","2013-04-07 02:00","2013","04","07","02:00","1.0","","-10.0","","44","","","","11","","15","","","","101.58","","","","","","NA"
"-73.74","45.47","MONTREAL/PIERRE ELLIOTT TRUDEAU INTL","702S006","2013-04-07 03:00","2013","04","07","03:00","1.0","","-9.9","","44","","","","13","","20","","","","101.46","","","","","","NA"
"-73.74","45.47","MONTREAL/PIERRE ELLIOTT TRUDEAU INTL","702S006","2013-04-07 04:00","2013","04","07","04:00","1.5","","-8.4","","48","","","","14","","19","","","","101.38","","","","","","NA"
"-73.74","45.47","MONTREAL/PIERRE ELLIOTT TRUDEAU INTL","702S006","2013-04-07 05:00","2013","04","07","05:00","2.8","","-7.1","","48","","","","15","","11","","","","101.36","","","","","","NA"
"-73.74","45.47","MONTREAL/PIERRE ELLIOTT TRUDEAU INTL","702S006","2013-04-07 06:00","2013","04","07","06:00","2.1","","-4.9","","60","","","","14","","22","","","","101.24","","","","","","NA"
"-73.74","45.47","MONTREAL/PIERRE ELLIOTT TRUDEAU INTL","702S006","2013-04-07 07:00","2013","04","07","07:00","2.4","","-3.9","","63","","","","13","","28","","","","101.02","","","","","","NA"
"-73.74","45.47","MONTREAL/PIERRE ELLIOTT TRUDEAU INTL","702S006","2013-04-07 08:00","2013","04","07","08:00","4.1","","-4.7","","53","","","","15","","26","","","","100.89","","","","","","NA"
"-73.74","45.47","MONTREAL/PIERRE ELLIOTT TRUDEAU INTL","702S006","2013-04-07 09:00","2013","04","07","09:00","5.6","","-4.4","","49","","","","15","","26","","","","100.77","","","","","","NA"
"-73.74","45.47","MONTREAL/PIERRE ELLIOTT TRUDEAU INTL","702S006","2013-04-07 10:00","2013","04","07","10:00","6.9","","-3.8","","46","","","","15","","26","","","","100.61","","","","","","NA"
"-73.74","45.47","MONTREAL/PIERRE ELLIOTT TRUDEAU INTL","702S006","2013-04-07 11:00","2013","04","07","11:00","9.7","","-3.4","","40","","","","15","","30","","","","100.45","","","","","","NA"
"-73.74","45.47","MONTREAL/PIERRE ELLIOTT TRUDEAU INTL","702S006","2013-04-07 12:00","2013","04","07","12:00","12.0","","-2.8","","35","","","","15","","33","","","","100.30","","","","","","NA"
"-73.74","45.47","MONTREAL/PIERRE ELLIOTT TRUDEAU INTL","702S006","2013-04-07 13:00","2013","04","07","13:00","12.0","","-2.2","","37","","","","16","","35","","","","100.28","","","","","","NA"
"-73.74","45.47","MONTREAL/PIERRE ELLIOTT TRUDEAU INTL","702S006","2013-04-07 14:00","2013","04","07","14:00","10.1","","1.0","","53","","","","15","","22","","","","100.19","","","","","","NA"
"-73.74","45.47","MONTREAL/PIERRE ELLIOTT TRUDEAU INTL","702S006","2013-04-07 15:00","2013","04","07","15:00","11.7","","1.7","","50","","","","17","","24","","","","100.17","","","","","","NA"
"-73.74","45.47","MONTREAL/PIERRE ELLIOTT TRUDEAU INTL","702S006","2013-04-07 16:00","2013","04","07","16:00","12.2","","2.5","","51","","","","17","","24","","","","100.10","","","","","","NA"
"-73.74","45.47","MONTREAL/PIERRE ELLIOTT TRUDEAU INTL","702S006","2013-04-07 17:00","2013","04","07","17:00","12.5","","2.3","","50","","","","17","","32","","","","100.01","","","","","","NA"
"-73.74","45.47","MONTREAL/PIERRE ELLIOTT TRUDEAU INTL","702S006","2013-04-07 18:00","2013","04","07","18:00","11.0","","3.1","","58","","","","17","","26","","","","100.01","","","","","","NA"
"-73.74","45.47","MONTREAL/PIERRE ELLIOTT TRUDEAU INTL","702S006","2013-04-07 19:00","2013","04","07","19:00","9.0","","4.3","","72","","","","32","","17","","","","100.23","","","","","","NA"
"-73.74","45.47","MONTREAL/PIERRE ELLIOTT TRUDEAU INTL","702S006","2013-04-07 20:00","2013","04","07","20:00","8.6","","3.8","","72","","","","28","","32","","","","100.40","","","","","","NA"
"-73.74","45.47","MONTREAL/PIERRE ELLIOTT TRUDEAU INTL","702S006","2013-04-07 21:00","2013","04","07","21:00","6.7","","2.2","","73","","","","28","","33","","","","100.52","","","","","","NA"
"-73.74","45.47","MONTREAL/PIERRE ELLIOTT TRUDEAU INTL","702S006","2013-04-07 22:00","2013","04","07","22:00","6.1","","1.5","","72","","","","26","","26","","","","100.67","","","","","","NA"
"-73.74","45.47","MONTREAL/PIERRE ELLIOTT TRUDEAU INTL","702S006","2013-04-07 23:00","2013","04","07","23:00","5.9","","1.2","","72","","","","26","","28","","","","100.77","","","","","","NA"
"-73.74","45.47","MONTREAL/PIERRE ELLIOTT TRUDEAU INTL","702S006","2013-04-08 00:00","2013","04","08","00:00","5.4","","1.0","","73","","","","26","","22","","","","100.88","","","","","","NA"
"-73.74","45.47","MONTREAL/PIERRE ELLIOTT TRUDEAU INTL","702S006","2013-04-08 01:00","2013","04","08","01:00","5.2","","1.0","","74","","","","27","","19","","","","100.95","","","","","","NA"
"-73.74","45.47","MONTREAL/PIERRE ELLIOTT TRUDEAU INTL","702S006","2013-04-08 02:00","2013","04","08","02:00","4.6","","0.5","","75","","","","28","","24","","","","101.04","","","","","","NA"
"-73.74","45.47","MONTREAL/PIERRE ELLIOTT TRUDEAU INTL","702S006","2013-04-08 03:00","2013","04","08","03:00","4.0","","-0.3","","74","","","","29","","15","","","","101.13","","","","","","NA"
"-73.74","45.47","MONTREAL/PIERRE ELLIOTT TRUDEAU INTL","702S006","2013-04-08 04:00","2013","04","08","04:00","3.3","","-1.5","","71","","","","28","","13","","","","101.21","","","","","","NA"
"-73.74","45.47","MONTREAL/PIERRE ELLIOTT TRUDEAU INTL","702S006","2013-04-08 05:00","2013","04","08","05:00","3.5","","-1.2","","71","","","","27","","13","","","","101.30","","","","","","NA"
"-73.74","45.47","MONTREAL/PIERRE ELLIOTT TRUDEAU INTL","702S006","2013-04-08 06:00","2013","04","08","06:00","3.8","","-1.1","","70","","","","28","","15","","","","101.42","","","","","","NA"
"-73.74","45.47","MONTREAL/PIERRE ELLIOTT TRUDEAU INTL","702S006","2013-04-08 07:00","2013","04","08","07:00","4.3","","-1.6","","65","","","","28","","17","","","","101.50","","","","","","NA"
"-73.74","45.47","MONTREAL/PIERRE ELLIOTT TRUDEAU INTL","702S006","2013-04-08 08:00","2013","04","08","08:00","5.0","","-1.6","","62","","","","27","","17","","","","101.52","","","","","","NA"
"-73.74","45.47","MONTREAL/PIERRE ELLIOTT TRUDEAU INTL","702S006","2013-04-08 09:00","2013","04","08","09:00","5.5","","-1.4","","61","","","","29","","19","","","","101.63","","","","","","NA"
"-73.74","45.47","MONTREAL/PIERRE ELLIOTT TRUDEAU INTL","702S006","2013-04-08 10:00","2013","04","08","10:00","5.5","","-2.1","","58","","","","28","","15","","","","101.73","","","","","","NA"
"-73.74","45.47","MONTREAL/PIERRE ELLIOTT TRUDEAU INTL","702S006","2013-04-08 11:00","2013","04","08","11:00","6.4","","-2.4","","53","","","","27","","7","","","","101.73","","","","","","NA"
"-73.74","45.47","MONTREAL/PIERRE ELLIOTT TRUDEAU INTL","702S006","2013-04-08 12:00","2013","04","08","12:00","6.9","","-2.1","","53","","","","25","","9","","","","101.67","","","","","","NA"
"-73.74","45.47","MONTREAL/PIERRE ELLIOTT TRUDEAU INTL","702S006","2013-04-08 13:00","2013","04","08","13:00","7.6","","-1.7","","52","","","","22","","11","","","","101.61","","","","","","NA"
"-73.74","45.47","MONTREAL/PIERRE ELLIOTT TRUDEAU INTL","702S006","2013-04-08 14:00","2013","04","08","14:00","7.8","","-1.7","","51","","","","24","","13","","","","101.61","","","","","","NA"
"-73.74","45.47","MONTREAL/PIERRE ELLIOTT TRUDEAU INTL","702S006","2013-04-08 15:00","2013","04","08","15:00","7.5","","-2.1","","51","","","","18","","13","","","","101.52","","","","","","NA"
"-73.74","45.47","MONTREAL/PIERRE ELLIOTT TRUDEAU INTL","702S006","2013-04-08 16:00","2013","04","08","16:00","8.1","","-2.0","","49","","","","11","","7","","","","101.42","","","","","","NA"
"-73.74","45.47","MONTREAL/PIERRE ELLIOTT TRUDEAU INTL","702S006","2013-04-08 17:00","2013","04","08","17:00","8.8","","-1.4","","49","","","","9","","7","","","","101.41","","","","","","NA"
"-73.74","45.47","MONTREAL/PIERRE ELLIOTT TRUDEAU INTL","702S006","2013-04-08 18:00","2013","04","08","18:00","8.8","","-1.8","","47","","","","6","","7","","","","101.36","","","","","","NA"
"-73.74","45.47","MONTREAL/PIERRE ELLIOTT TRUDEAU INTL","702S006","2013-04-08 19:00","2013","04","08","19:00","7.7","","-0.1","","58","","","","5","","17","","","","101.35","","","","","","NA"
"-73.74","45.47","MONTREAL/PIERRE ELLIOTT TRUDEAU INTL","702S006","2013-04-08 20:00","2013","04","08","20:00","6.7","","-0.2","","61","","","","5","","11","","","","101.40","","","","","","NA"
"-73.74","45.47","MONTREAL/PIERRE ELLIOTT TRUDEAU INTL","702S006","2013-04-08 21:00","2013","04","08","21:00","6.2","","-0.6","","62","","","","6","","11","","","","101.25","","","","","","NA"
"-73.74","45.47","MONTREAL/PIERRE ELLIOTT TRUDEAU INTL","702S006","2013-04-08 22:00","2013","04","08","22:00","6.1","","-1.4","","59","","","","5","","13","","","","101.10","","","","","","NA"
"-73.74","45.47","MONTREAL/PIERRE ELLIOTT TRUDEAU INTL","702S006","2013-04-08 23:00","2013","04","08","23:00","5.4","","-1.3","","62","","","","5","","17","","","","101.08","","","","","","NA"
"-73.74","45.47","MONTREAL/PIERRE ELLIOTT TRUDEAU INTL","702S006","2013-04-09 00:00","2013","04","09","00:00","4.3","","0.0","","74","","","","5","","22","","","","100.85","","","","","","NA"
"-73.74","45.47","MONTREAL/PIERRE ELLIOTT TRUDEAU INTL","702S006","2013-04-09 01:00","2013","04","09","01:00","3.2","","1.0","","85","","","","4","","22","","","","100.90","","","","","","NA"
"-73.74","45.47","MONTREAL/PIERRE ELLIOTT TRUDEAU INTL","702S006","2013-04-09 02:00","2013","04","09","02:00","3.1","","1.3","","88","","","","5","","24","","","","100.69","","","","","","NA"
"-73.74","45.47","MONTREAL/PIERRE ELLIOTT TRUDEAU INTL","702S006","2013-04-09 03:00","2013","04","09","03:00","2.8","","1.3","","90","","","","5","","22","","","","100.56","","","","","","NA"
"-73.74","45.47","MONTREAL/PIERRE ELLIOTT TRUDEAU INTL","702S006","2013-04-09 04:00","2013","04","09","04:00","2.9","","1.5","","90","","","","4","","15","","","","100.47","","","","","","NA"
"-73.74","45.47","MONTREAL/PIERRE ELLIOTT TRUDEAU INTL","702S006","2013-04-09 05:00","2013","04","09","05:00","2.7","","1.5","","92","","","","3","","22","","","","100.47","","","","","","NA"
"-73.74","45.47","MONTREAL/PIERRE ELLIOTT TRUDEAU INTL","702S006","2013-04-09 06:00","2013","04","09","06:00","2.0","","0.9","","92","","","","1","","24","","","","100.58","","","","","","NA"
"-73.74","45.47","MONTREAL/PIERRE ELLIOTT TRUDEAU INTL","702S006","2013-04-09 07:00","2013","04","09","07:00","2.0","","0.8","","92","","","","2","","20","","","","100.78","","","","","","NA"
"-73.74","45.47","MONTREAL/PIERRE ELLIOTT TRUDEAU INTL","702S006","2013-04-09 08:00","2013","04","09","08:00","2.6","","1.5","","92","","","","36","","19","","","","100.93","","","","","","NA"
"-73.74","45.47","MONTREAL/PIERRE ELLIOTT TRUDEAU INTL","702S006","2013-04-09 09:00","2013","04","09","09:00","3.1","","1.6","","90","","","","36","","15","","","","101.02","","","","","","NA"
"-73.74","45.47","MONTREAL/PIERRE ELLIOTT TRUDEAU INTL","702S006","2013-04-09 10:00","2013","04","09","10:00","4.1","","1.9","","86","","","","34","","13","","","","101.20","","","","","","NA"
"-73.74","45.47","MONTREAL/PIERRE ELLIOTT TRUDEAU INTL","702S006","2013-04-09 11:00","2013","04","09","11:00","5.0","","2.6","","84","","","","29","","11","","","","101.28","","","","","","NA"
"-73.74","45.47","MONTREAL/PIERRE ELLIOTT TRUDEAU INTL","702S006","2013-04-09 12:00","2013","04","09","12:00","6.2","","3.7","","84","","","","27","","17","","","","101.28","","","","","","NA"
"-73.74","45.47","MONTREAL/PIERRE ELLIOTT TRUDEAU INTL","702S006","2013-04-09 13:00","2013","04","09","13:00","8.0","","3.7","","74","","","","27","","11","","","","101.29","","","","","","NA"
"-73.74","45.47","MONTREAL/PIERRE ELLIOTT TRUDEAU INTL","702S006","2013-04-09 14:00","2013","04","09","14:00","7.9","","3.7","","75","","","","20","","19","","","","101.18","","","","","","NA"
"-73.74","45.47","MONTREAL/PIERRE ELLIOTT TRUDEAU INTL","702S006","2013-04-09 15:00","2013","04","09","15:00","7.9","","3.9","","76","","","","21","","19","","","","101.12","","","","","","NA"
"-73.74","45.47","MONTREAL/PIERRE ELLIOTT TRUDEAU INTL","702S006","2013-04-09 16:00","2013","04","09","16:00","8.2","","4.2","","76","","","","23","","15","","","","101.23","","","","","","NA"
"-73.74","45.47","MONTREAL/PIERRE ELLIOTT TRUDEAU INTL","702S006","2013-04-09 17:00","2013","04","09","17:00","8.4","","4.3","","75","","","","22","","13","","","","101.20","","","","","","NA"
"-73.74","45.47","MONTREAL/PIERRE ELLIOTT TRUDEAU INTL","702S006","2013-04-09 18:00","2013","04","09","18:00","8.0","","4.3","","77","","","","22","","13","","","","101.20","","","","","","NA"
"-73.74","45.47","MONTREAL/PIERRE ELLIOTT TRUDEAU INTL","702S006","2013-04-09 19:00","2013","04","09","19:00","7.8","","4.2","","78","","","","23","","11","","","","101.17","","","","","","NA"
"-73.74","45.47","MONTREAL/PIERRE ELLIOTT TRUDEAU INTL","702S006","2013-04-09 20:00","2013","04","09","20:00","7.7","","4.3","","79","","","","22","","13","","","","101.12","","","","","","NA"
"-73.74","45.47","MONTREAL/PIERRE ELLIOTT TRUDEAU INTL","702S006","2013-04-09 21:00","2013","04","09","21:00","7.2","","4.1","","81","","","","22","","9","","","","101.10","","","","","","NA"
"-73.74","45.47","MONTREAL/PIERRE ELLIOTT TRUDEAU INTL","702S006","2013-04-09 22:00","2013","04","09","22:00","7.1","","4.1","","81","","","","25","","6","","","","101.05","","","","","","NA"
"-73.74","45.47","MONTREAL/PIERRE ELLIOTT TRUDEAU INTL","702S006","2013-04-09 23:00","2013","04","09","23:00","6.8","","4.1","","83","","","","31","","11","","","","101.03","","","","","","NA"
"-73.74","45.47","MONTREAL/PIERRE ELLIOTT TRUDEAU INTL","702S006","2013-04-10 00:00","2013","04","10","00:00","6.9","","4.2","","83","","","","24","","6","","","","101.02","","","","","","NA"
"-73.74","45.47","MONTREAL/PIERRE ELLIOTT TRUDEAU INTL","702S006","2013-04-10 01:00","2013","04","10","01:00","6.2","","4.2","","87","","","","22","","7","","","","101.01","","","","","","NA"
"-73.74","45.47","MONTREAL/PIERRE ELLIOTT TRUDEAU INTL","702S006","2013-04-10 02:00","2013","04","10","02:00","5.6","","4.1","","90","","","","22","","6","","","","101.00","","","","","","NA"
"-73.74","45.47","MONTREAL/PIERRE ELLIOTT TRUDEAU INTL","702S006","2013-04-10 03:00","2013","04","10","03:00","5.4","","4.2","","92","","","","23","","2","","","","101.01","","","","","","NA"
"-73.74","45.47","MONTREAL/PIERRE ELLIOTT TRUDEAU INTL","702S006","2013-04-10 04:00","2013","04","10","04:00","5.3","","4.2","","93","","","","23","","4","","","","101.04","","","","","","NA"
"-73.74","45.47","MONTREAL/PIERRE ELLIOTT TRUDEAU INTL","702S006","2013-04-10 05:00","2013","04","10","05:00","5.2","","3.9","","91","","","","35","","4","","","","101.11","","","","","","NA"
"-73.74","45.47","MONTREAL/PIERRE ELLIOTT TRUDEAU INTL","702S006","2013-04-10 06:00","2013","04","10","06:00","5.2","","3.8","","91","","","","36","","4","","","","101.15","","","","","","NA"
"-73.74","45.47","MONTREAL/PIERRE ELLIOTT TRUDEAU INTL","702S006","2013-04-10 07:00","2013","04","10","07:00","6.3","","1.6","","72","","","","3","","13","","","","101.19","","","","","","NA"
"-73.74","45.47","MONTREAL/PIERRE ELLIOTT TRUDEAU INTL","702S006","2013-04-10 08:00","2013","04","10","08:00","6.5","","0.5","","65","","","","2","","17","","","","101.24","","","","","","NA"
"-73.74","45.47","MONTREAL/PIERRE ELLIOTT TRUDEAU INTL","702S006","2013-04-10 09:00","2013","04","10","09:00","7.0","","-0.4","","59","","","","4","","13","","","","101.29","","","","","","NA"
"-73.74","45.47","MONTREAL/PIERRE ELLIOTT TRUDEAU INTL","702S006","2013-04-10 10:00","2013","04","10","10:00","7.8","","-0.8","","54","","","","5","","11","","","","101.27","","","","","","NA"
"-73.74","45.47","MONTREAL/PIERRE ELLIOTT TRUDEAU INTL","702S006","2013-04-10 11:00","2013","04","10","11:00","8.3","","-0.6","","53","","","","1","","4","","","","101.20","","","","","","NA"
"-73.74","45.47","MONTREAL/PIERRE ELLIOTT TRUDEAU INTL","702S006","2013-04-10 12:00","2013","04","10","12:00","9.0","","-0.8","","50","","","","17","","2","","","","101.20","","","","","","NA"
"-73.74","45.47","MONTREAL/PIERRE ELLIOTT TRUDEAU INTL","702S006","2013-04-10 13:00","2013","04","10","13:00","9.6","","-0.1","","51","","","","21","","13","","","","101.17","","","","","","NA"
"-73.74","45.47","MONTREAL/PIERRE ELLIOTT TRUDEAU INTL","702S006","2013-04-10 14:00","2013","04","10","14:00","9.2","","-0.3","","51","","","","20","","11","","","","101.10","","","","","","NA"
"-73.74","45.47","MONTREAL/PIERRE ELLIOTT TRUDEAU INTL","702S006","2013-04-10 15:00","2013","04","10","15:00","9.4","","0.0","","52","","","","21","","11","","","","101.06","","","","","","NA"
"-73.74","45.47","MONTREAL/PIERRE ELLIOTT TRUDEAU INTL","702S006","2013-04-10 16:00","2013","04","10","16:00","9.1","","0.5","","55","","","","21","","15","","","","101.04","","","","","","NA"
"-73.74","45.47","MONTREAL/PIERRE ELLIOTT TRUDEAU INTL","702S006","2013-04-10 17:00","2013","04","10","17:00","8.8","","1.2","","59","","","","22","","15","","","","100.93","","","","","","NA"
"-73.74","45.47","MONTREAL/PIERRE ELLIOTT TRUDEAU INTL","702S006","2013-04-10 18:00","2013","04","10","18:00","8.3","","1.4","","62","","","","24","","9","","","","100.99","","","","","","NA"
"-73.74","45.47","MONTREAL/PIERRE ELLIOTT TRUDEAU INTL","702S006","2013-04-10 19:00","2013","04","10","19:00","7.9","","1.3","","63","","","","23","","7","","","","101.00","","","","","","NA"
"-73.74","45.47","MONTREAL/PIERRE ELLIOTT TRUDEAU INTL","702S006","2013-04-10 20:00","2013","04","10","20:00","6.9","","-0.1","","61","","","","27","","9","","","","101.06","","","","","","NA"
"-73.74","45.47","MONTREAL/PIERRE ELLIOTT TRUDEAU INTL","702S006","2013-04-10 21:00","2013","04","10","21:00","4.1","","-1.7","","66","","","","30","","7","","","","101.03","","","","","","NA"
"-73.74","45.47","MONTREAL/PIERRE ELLIOTT TRUDEAU INTL","702S006","2013-04-10 22:00","2013","04","10","22:00","2.5","","-3.4","","65","","","","30","","11","","","","101.07","","","","","","NA"
"-73.74","45.47","MONTREAL/PIERRE ELLIOTT TRUDEAU INTL","702S006","2013-04-10 23:00","2013","04","10","23:00","2.4","","-4.1","","62","","","","33","","13","","","","101.14","","","","","","NA"
"-73.74","45.47","MONTREAL/PIERRE ELLIOTT TRUDEAU INTL","702S006","2013-04-11 00:00","2013","04","11","00:00","3.1","","-7.6","","45","","","","2","","20","","","","101.22","","","","","","NA"
"-73.74","45.47","MONTREAL/PIERRE ELLIOTT TRUDEAU INTL","702S006","2013-04-11 01:00","2013","04","11","01:00","2.0","","-8.5","","46","","","","3","","17","","","","101.25","","","","","","NA"
"-73.74","45.47","MONTREAL/PIERRE ELLIOTT TRUDEAU INTL","702S006","2013-04-11 02:00","2013","04","11","02:00","1.4","","-8.9","","46","","","","3","","19","","","","101.29","","","","","","NA"
"-73.74","45.47","MONTREAL/PIERRE ELLIOTT TRUDEAU INTL","702S006","2013-04-11 03:00","2013","04","11","03:00","0.6","","-8.5","","50","","","","2","","17","","","","101.38","","","","","","NA"
"-73.74","45.47","MONTREAL/PIERRE ELLIOTT TRUDEAU INTL","702S006","2013-04-11 04:00","2013","04","11","04:00","-0.3","","-8.0","","56","","","","2","","15","","","","101.47","","","","-5","","NA"
"-73.74","45.47","MONTREAL/PIERRE ELLIOTT TRUDEAU INTL","702S006","2013-04-11 05:00","2013","04","11","05:00","-0.7","","-8.9","","54","","","","2","","13","","","","101.56","","","","-5","","NA"
"-73.74","45.47","MONTREAL/PIERRE ELLIOTT TRUDEAU INTL","702S006","2013-04-11 06:00","2013","04","11","06:00","-0.7","","-11.4","","44","","","","4","","15","","","","101.56","","","","-5","","NA"
"-73.74","45.47","MONTREAL/PIERRE ELLIOTT TRUDEAU INTL","702S006","2013-04-11 07:00","2013","04","11","07:00","-1.1","","-11.0","","47","","","","3","","22","","","","101.70","","","","-7","","NA"
"-73.74","45.47","MONTREAL/PIERRE ELLIOTT TRUDEAU INTL","702S006","2013-04-11 08:00","2013","04","11","08:00","-1.4","","-10.4","","50","","","","1","","19","","","","101.74","","","","-7","","NA"
"-73.74","45.47","MONTREAL/PIERRE ELLIOTT TRUDEAU INTL","702S006","2013-04-11 09:00","2013","04","11","09:00","-1.1","","-11.2","","46","","","","3","","22","","","","101.82","","","","-7","","NA"
"-73.74","45.47","MONTREAL/PIERRE ELLIOTT TRUDEAU INTL","702S006","2013-04-11 10:00","2013","04","11","10:00","-0.7","","-11.2","","45","","","","3","","19","","","","101.85","","","","-6","","NA"
"-73.74","45.47","MONTREAL/PIERRE ELLIOTT TRUDEAU INTL","702S006","2013-04-11 11:00","2013","04","11","11:00","-0.1","","-10.1","","47","","","","4","","19","","","","101.86","","","","-5","","NA"
"-73.74","45.47","MONTREAL/PIERRE ELLIOTT TRUDEAU INTL","702S006","2013-04-11 12:00","2013","04","11","12:00","1.0","","-10.8","","41","","","","4","","15","","","","101.91","","","","","","NA"
"-73.74","45.47","MONTREAL/PIERRE ELLIOTT TRUDEAU INTL","702S006","2013-04-11 13:00","2013","04","11","13:00","1.6","","-11.7","","36","","","","4","","13","","","","101.88","","","","","","NA"
"-73.74","45.47","MONTREAL/PIERRE ELLIOTT TRUDEAU INTL","702S006","2013-04-11 14:00","2013","04","11","14:00","2.7","","-10.6","","37","","","","4","","13","","","","101.81","","","","","","NA"
"-73.74","45.47","MONTREAL/PIERRE ELLIOTT TRUDEAU INTL","702S006","2013-04-11 15:00","2013","04","11","15:00","3.1","","-11.0","","35","","","","2","","19","","","","101.82","","","","","","NA"
"-73.74","45.47","MONTREAL/PIERRE ELLIOTT TRUDEAU INTL","702S006","2013-04-11 16:00","2013","04","11","16:00","3.3","","-11.3","","33","","","","5","","11","","","","101.82","","","","","","NA"
"-73.74","45.47","MONTREAL/PIERRE ELLIOTT TRUDEAU INTL","702S006","2013-04-11 17:00","2013","04","11","17:00","3.1","","-11.5","","33","","","","5","","11","","","","101.79","","","","","","NA"
"-73.74","45.47","MONTREAL/PIERRE ELLIOTT TRUDEAU INTL","702S006","2013-04-11 18:00","2013","04","11","18:00","3.0","","-11.1","","35","","","","7","","9","","","","101.81","","","","","","NA"
"-73.74","45.47","MONTREAL/PIERRE ELLIOTT TRUDEAU INTL","702S006","2013-04-11 19:00","2013","04","11","19:00","2.7","","-11.4","","35","","","","5","","11","","","","101.90","","","","","","NA"
"-73.74","45.47","MONTREAL/PIERRE ELLIOTT TRUDEAU INTL","702S006","2013-04-11 20:00","2013","04","11","20:00","2.3","","-10.3","","39","","","","9","","9","","","","101.97","","","","","","NA"
"-73.74","45.47","MONTREAL/PIERRE ELLIOTT TRUDEAU INTL","702S006","2013-04-11 21:00","2013","04","11","21:00","1.9","","-11.0","","38","","","","6","","11","","","","101.94","","","","","","NA"
"-73.74","45.47","MONTREAL/PIERRE ELLIOTT TRUDEAU INTL","702S006","2013-04-11 22:00","2013","04","11","22:00","1.8","","-10.6","","39","","","","6","","7","","","","101.99","","","","","","NA"
"-73.74","45.47","MONTREAL/PIERRE ELLIOTT TRUDEAU INTL","702S006","2013-04-11 23:00","2013","04","11","23:00","1.6","","-11.2","","38","","","","5","","17","","","","101.98","","","","","","NA"
"-73.74","45.47","MONTREAL/PIERRE ELLIOTT TRUDEAU INTL","702S006","2013-04-12 00:00","2013","04","12","00:00","1.3","","-10.4","","41","","","","5","","19","","","","101.95","","","","","","NA"
"-73.74","45.47","MONTREAL/PIERRE ELLIOTT TRUDEAU INTL","702S006","2013-04-12 01:00","2013","04","12","01:00","1.0","","-11.8","","38","","","","5","","22","","","","101.90","","","","","","NA"
"-73.74","45.47","MONTREAL/PIERRE ELLIOTT TRUDEAU INTL","702S006","2013-04-12 02:00","2013","04","12","02:00","0.5","","-10.8","","42","","","","5","","22","","","","101.88","","","","","","NA"
"-73.74","45.47","MONTREAL/PIERRE ELLIOTT TRUDEAU INTL","702S006","2013-04-12 03:00","2013","04","12","03:00","-0.1","","-10.1","","47","","","","5","","26","","","","101.82","","","","-6","","NA"
"-73.74","45.47","MONTREAL/PIERRE ELLIOTT TRUDEAU INTL","702S006","2013-04-12 04:00","2013","04","12","04:00","-0.1","","-9.3","","50","","","","5","","20","","","","101.78","","","","-5","","NA"
"-73.74","45.47","MONTREAL/PIERRE ELLIOTT TRUDEAU INTL","702S006","2013-04-12 05:00","2013","04","12","05:00","0.2","","-9.5","","48","","","","5","","20","","","","101.74","","","","","","NA"
"-73.74","45.47","MONTREAL/PIERRE ELLIOTT TRUDEAU INTL","702S006","2013-04-12 06:00","2013","04","12","06:00","0.2","","-9.3","","49","","","","5","","22","","","","101.61","","","","","","NA"
"-73.74","45.47","MONTREAL/PIERRE ELLIOTT TRUDEAU INTL","702S006","2013-04-12 07:00","2013","04","12","07:00","0.1","","-7.6","","56","","","","5","","17","","","","101.56","","","","","","NA"
"-73.74","45.47","MONTREAL/PIERRE ELLIOTT TRUDEAU INTL","702S006","2013-04-12 08:00","2013","04","12","08:00","-0.8","","-5.2","","72","","","","6","","17","","","","101.42","","","","-6","","NA"
"-73.74","45.47","MONTREAL/PIERRE ELLIOTT TRUDEAU INTL","702S006","2013-04-12 09:00","2013","04","12","09:00","-1.3","","-3.3","","86","","","","5","","20","","","","101.28","","","","-7","","NA"
"-73.74","45.47","MONTREAL/PIERRE ELLIOTT TRUDEAU INTL","702S006","2013-04-12 10:00","2013","04","12","10:00","-0.5","","-2.6","","86","","","","5","","24","","","","101.13","","","","-6","","NA"
"-73.74","45.47","MONTREAL/PIERRE ELLIOTT TRUDEAU INTL","702S006","2013-04-12 11:00","2013","04","12","11:00","-0.2","","-2.7","","83","","","","5","","20","","","","101.09","","","","-5","","NA"
"-73.74","45.47","MONTREAL/PIERRE ELLIOTT TRUDEAU INTL","702S006","2013-04-12 12:00","2013","04","12","12:00","0.1","","-2.0","","86","","","","6","","22","","","","100.96","","","","","","NA"
"-73.74","45.47","MONTREAL/PIERRE ELLIOTT TRUDEAU INTL","702S006","2013-04-12 13:00","2013","04","12","13:00","0.1","","-1.7","","88","","","","6","","20","","","","100.91","","","","","","NA"
"-73.74","45.47","MONTREAL/PIERRE ELLIOTT TRUDEAU INTL","702S006","2013-04-12 14:00","2013","04","12","14:00","-0.2","","-1.0","","94","","","","6","","20","","","","100.81","","","","-5","","NA"
"-73.74","45.47","MONTREAL/PIERRE ELLIOTT TRUDEAU INTL","702S006","2013-04-12 15:00","2013","04","12","15:00","-0.2","","-0.8","","96","","","","6","","24","","","","100.70","","","","-6","","NA"
"-73.74","45.47","MONTREAL/PIERRE ELLIOTT TRUDEAU INTL","702S006","2013-04-12 16:00","2013","04","12","16:00","0.0","","-0.6","","96","","","","5","","22","","","","100.62","","","","-6","","NA"
"-73.74","45.47","MONTREAL/PIERRE ELLIOTT TRUDEAU INTL","702S006","2013-04-12 17:00","2013","04","12","17:00","0.4","","-0.4","","94","","","","8","","17","","","","100.58","","","","","","NA"
"-73.74","45.47","MONTREAL/PIERRE ELLIOTT TRUDEAU INTL","702S006","2013-04-12 18:00","2013","04","12","18:00","0.5","","-0.4","","94","","","","6","","15","","","","100.54","","","","","","NA"
"-73.74","45.47","MONTREAL/PIERRE ELLIOTT TRUDEAU INTL","702S006","2013-04-12 19:00","2013","04","12","19:00","0.7","","-0.3","","93","","","","6","","17","","","","100.50","","","","","","NA"
"-73.74","45.47","MONTREAL/PIERRE ELLIOTT TRUDEAU INTL","702S006","2013-04-12 20:00","2013","04","12","20:00","0.7","","-0.3","","93","","","","6","","15","","","","100.50","","","","","","NA"
"-73.74","45.47","MONTREAL/PIERRE ELLIOTT TRUDEAU INTL","702S006","2013-04-12 21:00","2013","04","12","21:00","0.8","","-0.2","","93","","","","8","","13","","","","100.45","","","","","","NA"
"-73.74","45.47","MONTREAL/PIERRE ELLIOTT TRUDEAU INTL","702S006","2013-04-12 22:00","2013","04","12","22:00","1.0","","0.0","","93","","","","9","","15","","","","100.40","","","","","","NA"
"-73.74","45.47","MONTREAL/PIERRE ELLIOTT TRUDEAU INTL","702S006","2013-04-12 23:00","2013","04","12","23:00","1.1","","0.2","","94","","","","12","","20","","","","100.31","","","","","","NA"
"-73.74","45.47","MONTREAL/PIERRE ELLIOTT TRUDEAU INTL","702S006","2013-04-13 00:00","2013","04","13","00:00","1.6","","0.6","","93","","","","13","","24","","","","100.30","","","","","","NA"
"-73.74","45.47","MONTREAL/PIERRE ELLIOTT TRUDEAU INTL","702S006","2013-04-13 01:00","2013","04","13","01:00","2.0","","0.6","","90","","","","15","","19","","","","100.27","","","","","","NA"
"-73.74","45.47","MONTREAL/PIERRE ELLIOTT TRUDEAU INTL","702S006","2013-04-13 02:00","2013","04","13","02:00","1.9","","0.5","","90","","","","15","","11","","","","100.26","","","","","","NA"
"-73.74","45.47","MONTREAL/PIERRE ELLIOTT TRUDEAU INTL","702S006","2013-04-13 03:00","2013","04","13","03:00","1.7","","0.5","","92","","","","15","","11","","","","100.23","","","","","","NA"
"-73.74","45.47","MONTREAL/PIERRE ELLIOTT TRUDEAU INTL","702S006","2013-04-13 04:00","2013","04","13","04:00","1.8","","0.7","","92","","","","16","","11","","","","100.26","","","","","","NA"
"-73.74","45.47","MONTREAL/PIERRE ELLIOTT TRUDEAU INTL","702S006","2013-04-13 05:00","2013","04","13","05:00","1.9","","0.8","","92","","","","16","","11","","","","100.28","","","","","","NA"
"-73.74","45.47","MONTREAL/PIERRE ELLIOTT TRUDEAU INTL","702S006","2013-04-13 06:00","2013","04","13","06:00","2.1","","1.1","","93","","","","18","","13","","","","100.32","","","","","","NA"
"-73.74","45.47","MONTREAL/PIERRE ELLIOTT TRUDEAU INTL","702S006","2013-04-13 07:00","2013","04","13","07:00","2.5","","1.5","","93","","","","19","","11","","","","100.37","","","","","","NA"
"-73.74","45.47","MONTREAL/PIERRE ELLIOTT TRUDEAU INTL","702S006","2013-04-13 08:00","2013","04","13","08:00","3.2","","2.0","","92","","","","20","","15","","","","100.40","","","","","","NA"
"-73.74","45.47","MONTREAL/PIERRE ELLIOTT TRUDEAU INTL","702S006","2013-04-13 09:00","2013","04","13","09:00","3.8","","2.2","","89","","","","21","","11","","","","100.40","","","","","","NA"
"-73.74","45.47","MONTREAL/PIERRE ELLIOTT TRUDEAU INTL","702S006","2013-04-13 10:00","2013","04","13","10:00","3.9","","2.2","","89","","","","20","","9","","","","100.43","","","","","","NA"
"-73.74","45.47","MONTREAL/PIERRE ELLIOTT TRUDEAU INTL","702S006","2013-04-13 11:00","2013","04","13","11:00","5.3","","2.6","","83","","","","20","","13","","","","100.42","","","","","","NA"
"-73.74","45.47","MONTREAL/PIERRE ELLIOTT TRUDEAU INTL","702S006","2013-04-13 12:00","2013","04","13","12:00","5.3","","2.0","","79","","","","22","","6","","","","100.44","","","","","","NA"
"-73.74","45.47","MONTREAL/PIERRE ELLIOTT TRUDEAU INTL","702S006","2013-04-13 13:00","2013","04","13","13:00","5.2","","2.2","","81","","","","19","","9","","","","100.44","","","","","","NA"
"-73.74","45.47","MONTREAL/PIERRE ELLIOTT TRUDEAU INTL","702S006","2013-04-13 14:00","2013","04","13","14:00","5.5","","2.6","","82","","","","21","","9","","","","100.44","","","","","","NA"
"-73.74","45.47","MONTREAL/PIERRE ELLIOTT TRUDEAU INTL","702S006","2013-04-13 15:00","2013","04","13","15:00","5.1","","2.5","","83","","","","20","","11","","","","100.41","","","","","","NA"
"-73.74","45.47","MONTREAL/PIERRE ELLIOTT TRUDEAU INTL","702S006","2013-04-13 16:00","2013","04","13","16:00","5.1","","2.5","","83","","","","18","","11","","","","100.42","","","","","","NA"
"-73.74","45.47","MONTREAL/PIERRE ELLIOTT TRUDEAU INTL","702S006","2013-04-13 17:00","2013","04","13","17:00","5.4","","2.5","","82","","","","22","","13","","","","100.49","","","","","","NA"
"-73.74","45.47","MONTREAL/PIERRE ELLIOTT TRUDEAU INTL","702S006","2013-04-13 18:00","2013","04","13","18:00","5.2","","2.8","","84","","","","19","","15","","","","100.53","","","","","","NA"
"-73.74","45.47","MONTREAL/PIERRE ELLIOTT TRUDEAU INTL","702S006","2013-04-13 19:00","2013","04","13","19:00","5.0","","1.4","","78","","","","22","","17","","","","100.55","","","","","","NA"
"-73.74","45.47","MONTREAL/PIERRE ELLIOTT TRUDEAU INTL","702S006","2013-04-13 20:00","2013","04","13","20:00","4.5","","1.5","","81","","","","22","","19","","","","100.61","","","","","","NA"
"-73.74","45.47","MONTREAL/PIERRE ELLIOTT TRUDEAU INTL","702S006","2013-04-13 21:00","2013","04","13","21:00","4.1","","1.3","","82","","","","23","","17","","","","100.64","","","","","","NA"
"-73.74","45.47","MONTREAL/PIERRE ELLIOTT TRUDEAU INTL","702S006","2013-04-13 22:00","2013","04","13","22:00","4.3","","1.1","","80","","","","25","","15","","","","100.65","","","","","","NA"
"-73.74","45.47","MONTREAL/PIERRE ELLIOTT TRUDEAU INTL","702S006","2013-04-13 23:00","2013","04","13","23:00","4.1","","1.0","","80","","","","23","","11","","","","100.66","","","","","","NA"
"-73.74","45.47","MONTREAL/PIERRE ELLIOTT TRUDEAU INTL","702S006","2013-04-14 00:00","2013","04","14","00:00","3.8","","0.9","","81","","","","22","","13","","","","100.69","","","","","","NA"
"-73.74","45.47","MONTREAL/PIERRE ELLIOTT TRUDEAU INTL","702S006","2013-04-14 01:00","2013","04","14","01:00","3.5","","0.8","","82","","","","23","","15","","","","100.67","","","","","","NA"
"-73.74","45.47","MONTREAL/PIERRE ELLIOTT TRUDEAU INTL","702S006","2013-04-14 02:00","2013","04","14","02:00","3.7","","0.8","","81","","","","25","","13","","","","100.68","","","","","","NA"
"-73.74","45.47","MONTREAL/PIERRE ELLIOTT TRUDEAU INTL","702S006","2013-04-14 03:00","2013","04","14","03:00","3.2","","1.2","","87","","","","24","","11","","","","100.72","","","","","","NA"
"-73.74","45.47","MONTREAL/PIERRE ELLIOTT TRUDEAU INTL","702S006","2013-04-14 04:00","2013","04","14","04:00","3.1","","1.1","","87","","","","25","","11","","","","100.76","","","","","","NA"
"-73.74","45.47","MONTREAL/PIERRE ELLIOTT TRUDEAU INTL","702S006","2013-04-14 05:00","2013","04","14","05:00","2.8","","1.0","","88","","","","26","","17","","","","100.80","","","","","","NA"
"-73.74","45.47","MONTREAL/PIERRE ELLIOTT TRUDEAU INTL","702S006","2013-04-14 06:00","2013","04","14","06:00","2.7","","0.8","","87","","","","26","","13","","","","100.89","","","","","","NA"
"-73.74","45.47","MONTREAL/PIERRE ELLIOTT TRUDEAU INTL","702S006","2013-04-14 07:00","2013","04","14","07:00","3.2","","1.1","","86","","","","26","","11","","","","100.98","","","","","","NA"
"-73.74","45.47","MONTREAL/PIERRE ELLIOTT TRUDEAU INTL","702S006","2013-04-14 08:00","2013","04","14","08:00","4.0","","1.0","","81","","","","27","","20","","","","101.03","","","","","","NA"
"-73.74","45.47","MONTREAL/PIERRE ELLIOTT TRUDEAU INTL","702S006","2013-04-14 09:00","2013","04","14","09:00","5.2","","0.8","","73","","","","26","","19","","","","101.07","","","","","","NA"
"-73.74","45.47","MONTREAL/PIERRE ELLIOTT TRUDEAU INTL","702S006","2013-04-14 10:00","2013","04","14","10:00","5.3","","0.4","","71","","","","25","","15","","","","101.14","","","","","","NA"
"-73.74","45.47","MONTREAL/PIERRE ELLIOTT TRUDEAU INTL","702S006","2013-04-14 11:00","2013","04","14","11:00","6.5","","0.5","","65","","","","28","","20","","","","101.17","","","","","","NA"
"-73.74","45.47","MONTREAL/PIERRE ELLIOTT TRUDEAU INTL","702S006","2013-04-14 12:00","2013","04","14","12:00","7.5","","-0.3","","58","","","","26","","19","","","","101.21","","","","","","NA"
"-73.74","45.47","MONTREAL/PIERRE ELLIOTT TRUDEAU INTL","702S006","2013-04-14 13:00","2013","04","14","13:00","7.9","","-0.3","","56","","","","26","","19","","","","101.26","","","","","","NA"
"-73.74","45.47","MONTREAL/PIERRE ELLIOTT TRUDEAU INTL","702S006","2013-04-14 14:00","2013","04","14","14:00","7.9","","-1.2","","53","","","","26","","19","","","","101.32","","","","","","NA"
"-73.74","45.47","MONTREAL/PIERRE ELLIOTT TRUDEAU INTL","702S006","2013-04-14 15:00","2013","04","14","15:00","7.5","","-0.2","","58","","","","28","","22","","","","101.40","","","","","","NA"
"-73.74","45.47","MONTREAL/PIERRE ELLIOTT TRUDEAU INTL","702S006","2013-04-14 16:00","2013","04","14","16:00","7.1","","-0.5","","58","","","","27","","20","","","","101.46","","","","","","NA"
"-73.74","45.47","MONTREAL/PIERRE ELLIOTT TRUDEAU INTL","702S006","2013-04-14 17:00","2013","04","14","17:00","7.1","","-0.5","","58","","","","28","","20","","","","101.57","","","","","","NA"
"-73.74","45.47","MONTREAL/PIERRE ELLIOTT TRUDEAU INTL","702S006","2013-04-14 18:00","2013","04","14","18:00","6.6","","-0.9","","59","","","","28","","19","","","","101.62","","","","","","NA"
"-73.74","45.47","MONTREAL/PIERRE ELLIOTT TRUDEAU INTL","702S006","2013-04-14 19:00","2013","04","14","19:00","5.8","","-0.9","","62","","","","28","","15","","","","101.69","","","","","","NA"
"-73.74","45.47","MONTREAL/PIERRE ELLIOTT TRUDEAU INTL","702S006","2013-04-14 20:00","2013","04","14","20:00","4.5","","-1.4","","65","","","","28","","11","","","","101.80","","","","","","NA"
"-73.74","45.47","MONTREAL/PIERRE ELLIOTT TRUDEAU INTL","702S006","2013-04-14 21:00","2013","04","14","21:00","4.6","","-1.7","","64","","","","26","","7","","","","101.84","","","","","","NA"
"-73.74","45.47","MONTREAL/PIERRE ELLIOTT TRUDEAU INTL","702S006","2013-04-14 22:00","2013","04","14","22:00","3.4","","-2.4","","66","","","","26","","7","","","","101.83","","","","","","NA"
"-73.74","45.47","MONTREAL/PIERRE ELLIOTT TRUDEAU INTL","702S006","2013-04-14 23:00","2013","04","14","23:00","3.4","","-0.5","","76","","","","23","","7","","","","101.89","","","","","","NA"
"-73.74","45.47","MONTREAL/PIERRE ELLIOTT TRUDEAU INTL","702S006","2013-04-15 00:00","2013","04","15","00:00","2.9","","-1.2","","74","","","","24","","7","","","","101.95","","","","","","NA"
"-73.74","45.47","MONTREAL/PIERRE ELLIOTT TRUDEAU INTL","702S006","2013-04-15 01:00","2013","04","15","01:00","2.1","","-1.8","","75","","","","24","","6","","","","101.97","","","","","","NA"
"-73.74","45.47","MONTREAL/PIERRE ELLIOTT TRUDEAU INTL","702S006","2013-04-15 02:00","2013","04","15","02:00","1.9","","-1.6","","78","","","","23","","7","","","","102.00","","","","","","NA"
"-73.74","45.47","MONTREAL/PIERRE ELLIOTT TRUDEAU INTL","702S006","2013-04-15 03:00","2013","04","15","03:00","1.3","","-1.9","","79","","","","26","","2","","","","102.04","","","","","","NA"
"-73.74","45.47","MONTREAL/PIERRE ELLIOTT TRUDEAU INTL","702S006","2013-04-15 04:00","2013","04","15","04:00","0.7","","-1.8","","83","","","","12","","2","","","","102.08","","","","","","NA"
"-73.74","45.47","MONTREAL/PIERRE ELLIOTT TRUDEAU INTL","702S006","2013-04-15 05:00","2013","04","15","05:00","0.1","","-2.1","","85","","","","15","","2","","","","102.16","","","","","","NA"
"-73.74","45.47","MONTREAL/PIERRE ELLIOTT TRUDEAU INTL","702S006","2013-04-15 06:00","2013","04","15","06:00","1.7","","-1.0","","82","","","","13","","4","","","","102.24","","","","","","NA"
"-73.74","45.47","MONTREAL/PIERRE ELLIOTT TRUDEAU INTL","702S006","2013-04-15 07:00","2013","04","15","07:00","2.9","","-0.1","","81","","","","16","","6","","","","102.29","","","","","","NA"
"-73.74","45.47","MONTREAL/PIERRE ELLIOTT TRUDEAU INTL","702S006","2013-04-15 08:00","2013","04","15","08:00","3.8","","-0.3","","75","","","","17","","6","","","","102.36","","","","","","NA"
"-73.74","45.47","MONTREAL/PIERRE ELLIOTT TRUDEAU INTL","702S006","2013-04-15 09:00","2013","04","15","09:00","5.4","","-0.5","","66","","","","11","","6","","","","102.36","","","","","","NA"
"-73.74","45.47","MONTREAL/PIERRE ELLIOTT TRUDEAU INTL","702S006","2013-04-15 10:00","2013","04","15","10:00","7.7","","0.8","","62","","","","12","","11","","","","102.26","","","","","","NA"
"-73.74","45.47","MONTREAL/PIERRE ELLIOTT TRUDEAU INTL","702S006","2013-04-15 11:00","2013","04","15","11:00","8.7","","-0.1","","54","","","","13","","17","","","","102.21","","","","","","NA"
"-73.74","45.47","MONTREAL/PIERRE ELLIOTT TRUDEAU INTL","702S006","2013-04-15 12:00","2013","04","15","12:00","10.1","","-0.8","","47","","","","16","","22","","","","102.18","","","","","","NA"
"-73.74","45.47","MONTREAL/PIERRE ELLIOTT TRUDEAU INTL","702S006","2013-04-15 13:00","2013","04","15","13:00","10.9","","0.5","","49","","","","14","","24","","","","102.04","","","","","","NA"
"-73.74","45.47","MONTREAL/PIERRE ELLIOTT TRUDEAU INTL","702S006","2013-04-15 14:00","2013","04","15","14:00","11.5","","-1.7","","40","","","","14","","28","","","","101.98","","","","","","NA"
"-73.74","45.47","MONTREAL/PIERRE ELLIOTT TRUDEAU INTL","702S006","2013-04-15 15:00","2013","04","15","15:00","12.8","","-0.2","","41","","","","13","","24","","","","101.89","","","","","","NA"
"-73.74","45.47","MONTREAL/PIERRE ELLIOTT TRUDEAU INTL","702S006","2013-04-15 16:00","2013","04","15","16:00","12.9","","-0.5","","40","","","","13","","17","","","","101.88","","","","","","NA"
"-73.74","45.47","MONTREAL/PIERRE ELLIOTT TRUDEAU INTL","702S006","2013-04-15 17:00","2013","04","15","17:00","13.2","","-0.5","","39","","","","10","","15","","","","101.84","","","","","","NA"
"-73.74","45.47","MONTREAL/PIERRE ELLIOTT TRUDEAU INTL","702S006","2013-04-15 18:00","2013","04","15","18:00","12.1","","0.3","","44","","","","11","","22","","","","101.74","","","","","","NA"
"-73.74","45.47","MONTREAL/PIERRE ELLIOTT TRUDEAU INTL","702S006","2013-04-15 19:00","2013","04","15","19:00","12.1","","0.5","","45","","","","11","","15","","","","101.69","","","","","","NA"
"-73.74","45.47","MONTREAL/PIERRE ELLIOTT TRUDEAU INTL","702S006","2013-04-15 20:00","2013","04","15","20:00","11.8","","0.5","","46","","","","11","","15","","","","101.73","","","","","","NA"
"-73.74","45.47","MONTREAL/PIERRE ELLIOTT TRUDEAU INTL","702S006","2013-04-15 21:00","2013","04","15","21:00","10.4","","1.6","","54","","","","12","","22","","","","101.71","","","","","","NA"
"-73.74","45.47","MONTREAL/PIERRE ELLIOTT TRUDEAU INTL","702S006","2013-04-15 22:00","2013","04","15","22:00","9.3","","1.5","","58","","","","12","","13","","","","101.67","","","","","","NA"
"-73.74","45.47","MONTREAL/PIERRE ELLIOTT TRUDEAU INTL","702S006","2013-04-15 23:00","2013","04","15","23:00","9.1","","1.6","","59","","","","14","","13","","","","101.60","","","","","","NA"
"-73.74","45.47","MONTREAL/PIERRE ELLIOTT TRUDEAU INTL","702S006","2013-04-16 00:00","2013","04","16","00:00","9.8","","1.9","","58","","","","15","","22","","","","101.57","","","","","","NA"
"-73.74","45.47","MONTREAL/PIERRE ELLIOTT TRUDEAU INTL","702S006","2013-04-16 01:00","2013","04","16","01:00","10.3","","2.1","","57","","","","15","","20","","","","101.57","","","","","","NA"
"-73.74","45.47","MONTREAL/PIERRE ELLIOTT TRUDEAU INTL","702S006","2013-04-16 02:00","2013","04","16","02:00","10.0","","2.3","","59","","","","15","","20","","","","101.51","","","","","","NA"
"-73.74","45.47","MONTREAL/PIERRE ELLIOTT TRUDEAU INTL","702S006","2013-04-16 03:00","2013","04","16","03:00","9.9","","2.5","","60","","","","15","","22","","","","101.46","","","","","","NA"
"-73.74","45.47","MONTREAL/PIERRE ELLIOTT TRUDEAU INTL","702S006","2013-04-16 04:00","2013","04","16","04:00","9.7","","2.5","","61","","","","15","","26","","","","101.42","","","","","","NA"
"-73.74","45.47","MONTREAL/PIERRE ELLIOTT TRUDEAU INTL","702S006","2013-04-16 05:00","2013","04","16","05:00","9.3","","2.5","","62","","","","15","","28","","","","101.34","","","","","","NA"
"-73.74","45.47","MONTREAL/PIERRE ELLIOTT TRUDEAU INTL","702S006","2013-04-16 06:00","2013","04","16","06:00","9.3","","2.8","","64","","","","15","","24","","","","101.32","","","","","","NA"
"-73.74","45.47","MONTREAL/PIERRE ELLIOTT TRUDEAU INTL","702S006","2013-04-16 07:00","2013","04","16","07:00","9.4","","2.9","","64","","","","16","","26","","","","101.29","","","","","","NA"
"-73.74","45.47","MONTREAL/PIERRE ELLIOTT TRUDEAU INTL","702S006","2013-04-16 08:00","2013","04","16","08:00","7.7","","4.7","","81","","","","15","","20","","","","101.24","","","","","","NA"
"-73.74","45.47","MONTREAL/PIERRE ELLIOTT TRUDEAU INTL","702S006","2013-04-16 09:00","2013","04","16","09:00","9.4","","5.5","","77","","","","15","","22","","","","101.10","","","","","","NA"
"-73.74","45.47","MONTREAL/PIERRE ELLIOTT TRUDEAU INTL","702S006","2013-04-16 10:00","2013","04","16","10:00","12.0","","5.7","","65","","","","16","","26","","","","100.96","","","","","","NA"
"-73.74","45.47","MONTREAL/PIERRE ELLIOTT TRUDEAU INTL","702S006","2013-04-16 11:00","2013","04","16","11:00","12.1","","5.7","","65","","","","16","","26","","","","100.86","","","","","","NA"
"-73.74","45.47","MONTREAL/PIERRE ELLIOTT TRUDEAU INTL","702S006","2013-04-16 12:00","2013","04","16","12:00","10.2","","7.6","","84","","","","16","","15","","","","100.86","","","","","","NA"
"-73.74","45.47","MONTREAL/PIERRE ELLIOTT TRUDEAU INTL","702S006","2013-04-16 13:00","2013","04","16","13:00","10.4","","8.4","","87","","","","14","","17","","","","100.80","","","","","","NA"
"-73.74","45.47","MONTREAL/PIERRE ELLIOTT TRUDEAU INTL","702S006","2013-04-16 14:00","2013","04","16","14:00","12.7","","10.3","","85","","","","21","","20","","","","100.72","","","","","","NA"
"-73.74","45.47","MONTREAL/PIERRE ELLIOTT TRUDEAU INTL","702S006","2013-04-16 15:00","2013","04","16","15:00","12.6","","10.3","","86","","","","23","","13","","","","100.67","","","","","","NA"
"-73.74","45.47","MONTREAL/PIERRE ELLIOTT TRUDEAU INTL","702S006","2013-04-16 16:00","2013","04","16","16:00","13.6","","11.7","","88","","","","24","","24","","","","100.66","","","","","","NA"
"-73.74","45.47","MONTREAL/PIERRE ELLIOTT TRUDEAU INTL","702S006","2013-04-16 17:00","2013","04","16","17:00","12.4","","10.7","","89","","","","23","","17","","","","100.72","","","","","","NA"
"-73.74","45.47","MONTREAL/PIERRE ELLIOTT TRUDEAU INTL","702S006","2013-04-16 18:00","2013","04","16","18:00","12.0","","10.4","","90","","","","22","","13","","","","100.73","","","","","","NA"
"-73.74","45.47","MONTREAL/PIERRE ELLIOTT TRUDEAU INTL","702S006","2013-04-16 19:00","2013","04","16","19:00","12.4","","10.4","","88","","","","25","","15","","","","100.86","","","","","","NA"
"-73.74","45.47","MONTREAL/PIERRE ELLIOTT TRUDEAU INTL","702S006","2013-04-16 20:00","2013","04","16","20:00","11.6","","7.2","","74","","","","31","","24","","","","101.05","","","","","","NA"
"-73.74","45.47","MONTREAL/PIERRE ELLIOTT TRUDEAU INTL","702S006","2013-04-16 21:00","2013","04","16","21:00","9.9","","4.6","","70","","","","30","","26","","","","101.25","","","","","","NA"
"-73.74","45.47","MONTREAL/PIERRE ELLIOTT TRUDEAU INTL","702S006","2013-04-16 22:00","2013","04","16","22:00","8.2","","1.3","","62","","","","29","","24","","","","101.36","","","","","","NA"
"-73.74","45.47","MONTREAL/PIERRE ELLIOTT TRUDEAU INTL","702S006","2013-04-16 23:00","2013","04","16","23:00","7.5","","-0.4","","57","","","","30","","24","","","","101.46","","","","","","NA"
"-73.74","45.47","MONTREAL/PIERRE ELLIOTT TRUDEAU INTL","702S006","2013-04-17 00:00","2013","04","17","00:00","6.5","","-0.8","","60","","","","30","","19","","","","101.55","","","","","","NA"
"-73.74","45.47","MONTREAL/PIERRE ELLIOTT TRUDEAU INTL","702S006","2013-04-17 01:00","2013","04","17","01:00","6.2","","-1.0","","60","","","","28","","13","","","","101.60","","","","","","NA"
"-73.74","45.47","MONTREAL/PIERRE ELLIOTT TRUDEAU INTL","702S006","2013-04-17 02:00","2013","04","17","02:00","5.4","","-1.1","","63","","","","27","","13","","","","101.69","","","","","","NA"
"-73.74","45.47","MONTREAL/PIERRE ELLIOTT TRUDEAU INTL","702S006","2013-04-17 03:00","2013","04","17","03:00","4.2","","-1.2","","68","","","","29","","11","","","","101.76","","","","","","NA"
"-73.74","45.47","MONTREAL/PIERRE ELLIOTT TRUDEAU INTL","702S006","2013-04-17 04:00","2013","04","17","04:00","3.3","","-1.3","","72","","","","30","","11","","","","101.82","","","","","","NA"
"-73.74","45.47","MONTREAL/PIERRE ELLIOTT TRUDEAU INTL","702S006","2013-04-17 05:00","2013","04","17","05:00","2.9","","-1.4","","73","","","","29","","13","","","","101.89","","","","","","NA"
"-73.74","45.47","MONTREAL/PIERRE ELLIOTT TRUDEAU INTL","702S006","2013-04-17 06:00","2013","04","17","06:00","4.1","","-1.3","","68","","","","33","","19","","","","101.98","","","","","","NA"
"-73.74","45.47","MONTREAL/PIERRE ELLIOTT TRUDEAU INTL","702S006","2013-04-17 07:00","2013","04","17","07:00","5.5","","-0.6","","65","","","","32","","22","","","","102.07","","","","","","NA"
"-73.74","45.47","MONTREAL/PIERRE ELLIOTT TRUDEAU INTL","702S006","2013-04-17 08:00","2013","04","17","08:00","6.4","","-0.4","","62","","","","31","","17","","","","102.15","","","","","","NA"
"-73.74","45.47","MONTREAL/PIERRE ELLIOTT TRUDEAU INTL","702S006","2013-04-17 09:00","2013","04","17","09:00","7.4","","-0.1","","59","","","","32","","19","","","","102.20","","","","","","NA"
"-73.74","45.47","MONTREAL/PIERRE ELLIOTT TRUDEAU INTL","702S006","2013-04-17 10:00","2013","04","17","10:00","8.3","","-0.4","","54","","","","33","","15","","","","102.24","","","","","","NA"
"-73.74","45.47","MONTREAL/PIERRE ELLIOTT TRUDEAU INTL","702S006","2013-04-17 11:00","2013","04","17","11:00","9.3","","-0.7","","50","","","","33","","13","","","","102.20","","","","","","NA"
"-73.74","45.47","MONTREAL/PIERRE ELLIOTT TRUDEAU INTL","702S006","2013-04-17 12:00","2013","04","17","12:00","10.1","","-3.0","","40","","","","33","","9","","","","102.17","","","","","","NA"
"-73.74","45.47","MONTREAL/PIERRE ELLIOTT TRUDEAU INTL","702S006","2013-04-17 13:00","2013","04","17","13:00","11.4","","-3.3","","36","","","","27","","7","","","","102.26","","","","","","NA"
"-73.74","45.47","MONTREAL/PIERRE ELLIOTT TRUDEAU INTL","702S006","2013-04-17 14:00","2013","04","17","14:00","11.9","","-2.1","","38","","","","27","","13","","","","102.28","","","","","","NA"
"-73.74","45.47","MONTREAL/PIERRE ELLIOTT TRUDEAU INTL","702S006","2013-04-17 15:00","2013","04","17","15:00","12.8","","-3.6","","32","","","","31","","9","","","","102.22","","","","","","NA"
"-73.74","45.47","MONTREAL/PIERRE ELLIOTT TRUDEAU INTL","702S006","2013-04-17 16:00","2013","04","17","16:00","12.5","","-2.8","","34","","","","21","","15","","","","102.23","","","","","","NA"
"-73.74","45.47","MONTREAL/PIERRE ELLIOTT TRUDEAU INTL","702S006","2013-04-17 17:00","2013","04","17","17:00","12.1","","-3.9","","32","","","","21","","17","","","","102.29","","","","","","NA"
"-73.74","45.47","MONTREAL/PIERRE ELLIOTT TRUDEAU INTL","702S006","2013-04-17 18:00","2013","04","17","18:00","11.7","","-4.9","","31","","","","20","","9","","","","102.32","","","","","","NA"
"-73.74","45.47","MONTREAL/PIERRE ELLIOTT TRUDEAU INTL","702S006","2013-04-17 19:00","2013","04","17","19:00","10.8","","-8.1","","26","","","","3","","11","","","","102.38","","","","","","NA"
"-73.74","45.47","MONTREAL/PIERRE ELLIOTT TRUDEAU INTL","702S006","2013-04-17 20:00","2013","04","17","20:00","9.9","","-7.9","","28","","","","7","","7","","","","102.37","","","","","","NA"
"-73.74","45.47","MONTREAL/PIERRE ELLIOTT TRUDEAU INTL","702S006","2013-04-17 21:00","2013","04","17","21:00","9.4","","-9.9","","24","","","","5","","15","","","","102.33","","","","","","NA"
"-73.74","45.47","MONTREAL/PIERRE ELLIOTT TRUDEAU INTL","702S006","2013-04-17 22:00","2013","04","17","22:00","8.6","","-10.5","","25","","","","5","","11","","","","102.37","","","","","","NA"
"-73.74","45.47","MONTREAL/PIERRE ELLIOTT TRUDEAU INTL","702S006","2013-04-17 23:00","2013","04","17","23:00","7.9","","-10.4","","26","","","","5","","11","","","","102.40","","","","","","NA"
"-73.74","45.47","MONTREAL/PIERRE ELLIOTT TRUDEAU INTL","702S006","2013-04-18 00:00","2013","04","18","00:00","7.2","","-9.5","","29","","","","5","","11","","","","102.37","","","","","","NA"
"-73.74","45.47","MONTREAL/PIERRE ELLIOTT TRUDEAU INTL","702S006","2013-04-18 01:00","2013","04","18","01:00","6.8","","-9.7","","30","","","","5","","11","","","","102.37","","","","","","NA"
"-73.74","45.47","MONTREAL/PIERRE ELLIOTT TRUDEAU INTL","702S006","2013-04-18 02:00","2013","04","18","02:00","6.3","","-10.6","","29","","","","6","","13","","","","102.43","","","","","","NA"
"-73.74","45.47","MONTREAL/PIERRE ELLIOTT TRUDEAU INTL","702S006","2013-04-18 03:00","2013","04","18","03:00","5.6","","-9.3","","33","","","","5","","17","","","","102.45","","","","","","NA"
"-73.74","45.47","MONTREAL/PIERRE ELLIOTT TRUDEAU INTL","702S006","2013-04-18 04:00","2013","04","18","04:00","5.0","","-8.8","","36","","","","5","","19","","","","102.31","","","","","","NA"
"-73.74","45.47","MONTREAL/PIERRE ELLIOTT TRUDEAU INTL","702S006","2013-04-18 05:00","2013","04","18","05:00","4.8","","-8.0","","39","","","","4","","15","","","","102.28","","","","","","NA"
"-73.74","45.47","MONTREAL/PIERRE ELLIOTT TRUDEAU INTL","702S006","2013-04-18 06:00","2013","04","18","06:00","4.6","","-7.0","","43","","","","5","","17","","","","102.28","","","","","","NA"
"-73.74","45.47","MONTREAL/PIERRE ELLIOTT TRUDEAU INTL","702S006","2013-04-18 07:00","2013","04","18","07:00","4.9","","-6.0","","45","","","","4","","19","","","","102.18","","","","","","NA"
"-73.74","45.47","MONTREAL/PIERRE ELLIOTT TRUDEAU INTL","702S006","2013-04-18 08:00","2013","04","18","08:00","6.8","","-5.9","","40","","","","6","","9","","","","102.04","","","","","","NA"
"-73.74","45.47","MONTREAL/PIERRE ELLIOTT TRUDEAU INTL","702S006","2013-04-18 09:00","2013","04","18","09:00","7.6","","-3.8","","44","","","","7","","11","","","","101.97","","","","","","NA"
"-73.74","45.47","MONTREAL/PIERRE ELLIOTT TRUDEAU INTL","702S006","2013-04-18 10:00","2013","04","18","10:00","8.3","","-0.5","","54","","","","6","","13","","","","101.89","","","","","","NA"
"-73.74","45.47","MONTREAL/PIERRE ELLIOTT TRUDEAU INTL","702S006","2013-04-18 11:00","2013","04","18","11:00","9.2","","0.9","","56","","","","12","","22","","","","101.75","","","","","","NA"
"-73.74","45.47","MONTREAL/PIERRE ELLIOTT TRUDEAU INTL","702S006","2013-04-18 12:00","2013","04","18","12:00","7.4","","3.3","","75","","","","14","","33","","","","101.60","","","","","","NA"
"-73.74","45.47","MONTREAL/PIERRE ELLIOTT TRUDEAU INTL","702S006","2013-04-18 13:00","2013","04","18","13:00","7.4","","3.5","","76","","","","14","","33","","","","101.37","","","","","","NA"
"-73.74","45.47","MONTREAL/PIERRE ELLIOTT TRUDEAU INTL","702S006","2013-04-18 14:00","2013","04","18","14:00","10.3","","4.3","","66","","","","14","","37","","","","101.12","","","","","","NA"
"-73.74","45.47","MONTREAL/PIERRE ELLIOTT TRUDEAU INTL","702S006","2013-04-18 15:00","2013","04","18","15:00","14.1","","3.6","","49","","","","14","","33","","","","100.92","","","","","","NA"
"-73.74","45.47","MONTREAL/PIERRE ELLIOTT TRUDEAU INTL","702S006","2013-04-18 16:00","2013","04","18","16:00","15.7","","3.7","","45","","","","14","","30","","","","100.77","","","","","","NA"
"-73.74","45.47","MONTREAL/PIERRE ELLIOTT TRUDEAU INTL","702S006","2013-04-18 17:00","2013","04","18","17:00","16.3","","4.9","","47","","","","15","","32","","","","100.58","","","","","","NA"
"-73.74","45.47","MONTREAL/PIERRE ELLIOTT TRUDEAU INTL","702S006","2013-04-18 18:00","2013","04","18","18:00","15.6","","4.4","","47","","","","16","","32","","","","100.47","","","","","","NA"
"-73.74","45.47","MONTREAL/PIERRE ELLIOTT TRUDEAU INTL","702S006","2013-04-18 19:00","2013","04","18","19:00","15.1","","4.1","","48","","","","17","","28","","","","100.49","","","","","","NA"
"-73.74","45.47","MONTREAL/PIERRE ELLIOTT TRUDEAU INTL","702S006","2013-04-18 20:00","2013","04","18","20:00","14.2","","4.3","","51","","","","16","","32","","","","100.40","","","","","","NA"
"-73.74","45.47","MONTREAL/PIERRE ELLIOTT TRUDEAU INTL","702S006","2013-04-18 21:00","2013","04","18","21:00","13.7","","4.6","","54","","","","16","","33","","","","100.36","","","","","","NA"
"-73.74","45.47","MONTREAL/PIERRE ELLIOTT TRUDEAU INTL","702S006","2013-04-18 22:00","2013","04","18","22:00","12.9","","4.9","","58","","","","16","","30","","","","100.28","","","","","","NA"
"-73.74","45.47","MONTREAL/PIERRE ELLIOTT TRUDEAU INTL","702S006","2013-04-18 23:00","2013","04","18","23:00","12.0","","5.1","","63","","","","15","","17","","","","100.40","","","","","","NA"
"-73.74","45.47","MONTREAL/PIERRE ELLIOTT TRUDEAU INTL","702S006","2013-04-19 00:00","2013","04","19","00:00","11.6","","5.4","","66","","","","14","","20","","","","100.36","","","","","","NA"
"-73.74","45.47","MONTREAL/PIERRE ELLIOTT TRUDEAU INTL","702S006","2013-04-19 01:00","2013","04","19","01:00","11.3","","5.6","","68","","","","14","","19","","","","100.32","","","","","","NA"
"-73.74","45.47","MONTREAL/PIERRE ELLIOTT TRUDEAU INTL","702S006","2013-04-19 02:00","2013","04","19","02:00","10.8","","6.1","","73","","","","15","","15","","","","100.31","","","","","","NA"
"-73.74","45.47","MONTREAL/PIERRE ELLIOTT TRUDEAU INTL","702S006","2013-04-19 03:00","2013","04","19","03:00","10.8","","7.1","","78","","","","15","","19","","","","100.22","","","","","","NA"
"-73.74","45.47","MONTREAL/PIERRE ELLIOTT TRUDEAU INTL","702S006","2013-04-19 04:00","2013","04","19","04:00","11.0","","7.7","","80","","","","15","","24","","","","100.20","","","","","","NA"
"-73.74","45.47","MONTREAL/PIERRE ELLIOTT TRUDEAU INTL","702S006","2013-04-19 05:00","2013","04","19","05:00","11.2","","8.2","","82","","","","15","","26","","","","100.17","","","","","","NA"
"-73.74","45.47","MONTREAL/PIERRE ELLIOTT TRUDEAU INTL","702S006","2013-04-19 06:00","2013","04","19","06:00","12.6","","9.1","","79","","","","15","","28","","","","100.15","","","","","","NA"
"-73.74","45.47","MONTREAL/PIERRE ELLIOTT TRUDEAU INTL","702S006","2013-04-19 07:00","2013","04","19","07:00","14.4","","10.0","","75","","","","15","","24","","","","100.12","","","","","","NA"
"-73.74","45.47","MONTREAL/PIERRE ELLIOTT TRUDEAU INTL","702S006","2013-04-19 08:00","2013","04","19","08:00","15.1","","10.4","","73","","","","15","","24","","","","100.04","","","","","","NA"
"-73.74","45.47","MONTREAL/PIERRE ELLIOTT TRUDEAU INTL","702S006","2013-04-19 09:00","2013","04","19","09:00","16.9","","11.1","","69","","","","16","","28","","","","99.95","","","","","","NA"
"-73.74","45.47","MONTREAL/PIERRE ELLIOTT TRUDEAU INTL","702S006","2013-04-19 10:00","2013","04","19","10:00","18.0","","11.8","","67","","","","16","","30","","","","99.87","","","","","","NA"
"-73.74","45.47","MONTREAL/PIERRE ELLIOTT TRUDEAU INTL","702S006","2013-04-19 11:00","2013","04","19","11:00","20.1","","12.7","","62","","","","15","","32","","","","99.74","","","","","","NA"
"-73.74","45.47","MONTREAL/PIERRE ELLIOTT TRUDEAU INTL","702S006","2013-04-19 12:00","2013","04","19","12:00","18.9","","12.4","","66","","","","15","","33","","","","99.59","","","","","","NA"
"-73.74","45.47","MONTREAL/PIERRE ELLIOTT TRUDEAU INTL","702S006","2013-04-19 13:00","2013","04","19","13:00","19.1","","12.3","","65","","","","15","","33","","","","99.50","","","","","","NA"
"-73.74","45.47","MONTREAL/PIERRE ELLIOTT TRUDEAU INTL","702S006","2013-04-19 14:00","2013","04","19","14:00","20.4","","12.4","","60","","","","15","","35","","","","99.41","","","","","","NA"
"-73.74","45.47","MONTREAL/PIERRE ELLIOTT TRUDEAU INTL","702S006","2013-04-19 15:00","2013","04","19","15:00","21.3","","12.3","","56","","","","16","","33","","","","99.29","","","","","","NA"
"-73.74","45.47","MONTREAL/PIERRE ELLIOTT TRUDEAU INTL","702S006","2013-04-19 16:00","2013","04","19","16:00","21.1","","12.4","","58","","","","15","","33","","","","99.06","","","","","","NA"
"-73.74","45.47","MONTREAL/PIERRE ELLIOTT TRUDEAU INTL","702S006","2013-04-19 17:00","2013","04","19","17:00","20.7","","12.9","","61","","","","16","","32","","","","99.08","","","","","","NA"
"-73.74","45.47","MONTREAL/PIERRE ELLIOTT TRUDEAU INTL","702S006","2013-04-19 18:00","2013","04","19","18:00","20.0","","13.1","","64","","","","16","","33","","","","99.03","","","","","","NA"
"-73.74","45.47","MONTREAL/PIERRE ELLIOTT TRUDEAU INTL","702S006","2013-04-19 19:00","2013","04","19","19:00","16.9","","10.3","","65","","","","25","","39","","","","99.32","","","","","","NA"
"-73.74","45.47","MONTREAL/PIERRE ELLIOTT TRUDEAU INTL","702S006","2013-04-19 20:00","2013","04","19","20:00","10.9","","7.3","","78","","","","24","","37","","","","99.60","","","","","","NA"
"-73.74","45.47","MONTREAL/PIERRE ELLIOTT TRUDEAU INTL","702S006","2013-04-19 21:00","2013","04","19","21:00","8.1","","6.1","","87","","","","23","","35","","","","99.66","","","","","","NA"
"-73.74","45.47","MONTREAL/PIERRE ELLIOTT TRUDEAU INTL","702S006","2013-04-19 22:00","2013","04","19","22:00","7.1","","4.7","","85","","","","24","","37","","","","99.71","","","","","","NA"
"-73.74","45.47","MONTREAL/PIERRE ELLIOTT TRUDEAU INTL","702S006","2013-04-19 23:00","2013","04","19","23:00","7.0","","3.4","","78","","","","24","","30","","","","99.95","","","","","","NA"
"-73.74","45.47","MONTREAL/PIERRE ELLIOTT TRUDEAU INTL","702S006","2013-04-20 00:00","2013","04","20","00:00","6.9","","2.6","","74","","","","24","","30","","","","99.97","","","","","","NA"
"-73.74","45.47","MONTREAL/PIERRE ELLIOTT TRUDEAU INTL","702S006","2013-04-20 01:00","2013","04","20","01:00","6.6","","1.9","","72","","","","23","","28","","","","99.98","","","","","","NA"
"-73.74","45.47","MONTREAL/PIERRE ELLIOTT TRUDEAU INTL","702S006","2013-04-20 02:00","2013","04","20","02:00","6.3","","1.6","","72","","","","23","","24","","","","99.95","","","","","","NA"
"-73.74","45.47","MONTREAL/PIERRE ELLIOTT TRUDEAU INTL","702S006","2013-04-20 03:00","2013","04","20","03:00","5.9","","1.3","","72","","","","23","","19","","","","99.92","","","","","","NA"
"-73.74","45.47","MONTREAL/PIERRE ELLIOTT TRUDEAU INTL","702S006","2013-04-20 04:00","2013","04","20","04:00","6.1","","1.0","","70","","","","22","","19","","","","100.02","","","","","","NA"
"-73.74","45.47","MONTREAL/PIERRE ELLIOTT TRUDEAU INTL","702S006","2013-04-20 05:00","2013","04","20","05:00","6.2","","0.5","","67","","","","22","","24","","","","100.05","","","","","","NA"
"-73.74","45.47","MONTREAL/PIERRE ELLIOTT TRUDEAU INTL","702S006","2013-04-20 06:00","2013","04","20","06:00","6.3","","-0.2","","63","","","","22","","22","","","","100.06","","","","","","NA"
"-73.74","45.47","MONTREAL/PIERRE ELLIOTT TRUDEAU INTL","702S006","2013-04-20 07:00","2013","04","20","07:00","6.3","","-0.3","","63","","","","23","","20","","","","100.11","","","","","","NA"
"-73.74","45.47","MONTREAL/PIERRE ELLIOTT TRUDEAU INTL","702S006","2013-04-20 08:00","2013","04","20","08:00","7.0","","-0.6","","58","","","","23","","30","","","","100.13","","","","","","NA"
"-73.74","45.47","MONTREAL/PIERRE ELLIOTT TRUDEAU INTL","702S006","2013-04-20 09:00","2013","04","20","09:00","7.6","","-1.7","","52","","","","24","","35","","","","100.19","","","","","","NA"
"-73.74","45.47","MONTREAL/PIERRE ELLIOTT TRUDEAU INTL","702S006","2013-04-20 10:00","2013","04","20","10:00","4.9","","2.7","","86","","","","23","","22","","","","100.26","","","","","","NA"
"-73.74","45.47","MONTREAL/PIERRE ELLIOTT TRUDEAU INTL","702S006","2013-04-20 11:00","2013","04","20","11:00","7.9","","-1.2","","53","","","","25","","32","","","","100.32","","","","","","NA"
"-73.74","45.47","MONTREAL/PIERRE ELLIOTT TRUDEAU INTL","702S006","2013-04-20 12:00","2013","04","20","12:00","5.4","","0.8","","72","","","","27","","44","","","","100.47","","","","","","NA"
"-73.74","45.47","MONTREAL/PIERRE ELLIOTT TRUDEAU INTL","702S006","2013-04-20 13:00","2013","04","20","13:00","6.5","","1.9","","72","","","","24","","28","","","","100.54","","","","","","NA"
"-73.74","45.47","MONTREAL/PIERRE ELLIOTT TRUDEAU INTL","702S006","2013-04-20 14:00","2013","04","20","14:00","6.0","","0.3","","67","","","","27","","37","","","","100.66","","","","","","NA"
"-73.74","45.47","MONTREAL/PIERRE ELLIOTT TRUDEAU INTL","702S006","2013-04-20 15:00","2013","04","20","15:00","5.0","","-1.2","","64","","","","25","","28","","","","100.82","","","","","","NA"
"-73.74","45.47","MONTREAL/PIERRE ELLIOTT TRUDEAU INTL","702S006","2013-04-20 16:00","2013","04","20","16:00","4.1","","-2.8","","61","","","","26","","43","","","","100.99","","","","","","NA"
"-73.74","45.47","MONTREAL/PIERRE ELLIOTT TRUDEAU INTL","702S006","2013-04-20 17:00","2013","04","20","17:00","5.0","","-5.3","","47","","","","25","","32","","","","101.13","","","","","","NA"
"-73.74","45.47","MONTREAL/PIERRE ELLIOTT TRUDEAU INTL","702S006","2013-04-20 18:00","2013","04","20","18:00","3.0","","-3.4","","63","","","","27","","26","","","","101.29","","","","","","NA"
"-73.74","45.47","MONTREAL/PIERRE ELLIOTT TRUDEAU INTL","702S006","2013-04-20 19:00","2013","04","20","19:00","2.9","","-5.0","","56","","","","26","","28","","","","101.47","","","","","","NA"
"-73.74","45.47","MONTREAL/PIERRE ELLIOTT TRUDEAU INTL","702S006","2013-04-20 20:00","2013","04","20","20:00","3.0","","-6.0","","52","","","","26","","32","","","","101.66","","","","","","NA"
"-73.74","45.47","MONTREAL/PIERRE ELLIOTT TRUDEAU INTL","702S006","2013-04-20 21:00","2013","04","20","21:00","1.8","","-4.6","","62","","","","28","","28","","","","101.84","","","","","","NA"
"-73.74","45.47","MONTREAL/PIERRE ELLIOTT TRUDEAU INTL","702S006","2013-04-20 22:00","2013","04","20","22:00","1.4","","-7.9","","50","","","","29","","28","","","","101.94","","","","","","NA"
"-73.74","45.47","MONTREAL/PIERRE ELLIOTT TRUDEAU INTL","702S006","2013-04-20 23:00","2013","04","20","23:00","0.5","","-7.9","","53","","","","30","","24","","","","102.09","","","","","","NA"
"-73.74","45.47","MONTREAL/PIERRE ELLIOTT TRUDEAU INTL","702S006","2013-04-21 00:00","2013","04","21","00:00","-0.2","","-8.6","","53","","","","30","","22","","","","102.23","","","","-6","","NA"
"-73.74","45.47","MONTREAL/PIERRE ELLIOTT TRUDEAU INTL","702S006","2013-04-21 01:00","2013","04","21","01:00","-0.4","","-8.5","","54","","","","29","","20","","","","102.33","","","","-6","","NA"
"-73.74","45.47","MONTREAL/PIERRE ELLIOTT TRUDEAU INTL","702S006","2013-04-21 02:00","2013","04","21","02:00","-0.8","","-7.9","","59","","","","30","","19","","","","102.43","","","","-6","","NA"
"-73.74","45.47","MONTREAL/PIERRE ELLIOTT TRUDEAU INTL","702S006","2013-04-21 03:00","2013","04","21","03:00","-1.4","","-9.9","","52","","","","32","","19","","","","102.55","","","","-7","","NA"
"-73.74","45.47","MONTREAL/PIERRE ELLIOTT TRUDEAU INTL","702S006","2013-04-21 04:00","2013","04","21","04:00","-2.2","","-10.0","","55","","","","31","","19","","","","102.69","","","","-8","","NA"
"-73.74","45.47","MONTREAL/PIERRE ELLIOTT TRUDEAU INTL","702S006","2013-04-21 05:00","2013","04","21","05:00","-2.7","","-9.7","","59","","","","31","","15","","","","102.82","","","","-8","","NA"
"-73.74","45.47","MONTREAL/PIERRE ELLIOTT TRUDEAU INTL","702S006","2013-04-21 06:00","2013","04","21","06:00","-1.8","","-9.5","","56","","","","31","","17","","","","102.98","","","","-7","","NA"
"-73.74","45.47","MONTREAL/PIERRE ELLIOTT TRUDEAU INTL","702S006","2013-04-21 07:00","2013","04","21","07:00","-1.0","","-10.0","","50","","","","32","","19","","","","103.12","","","","-6","","NA"
"-73.74","45.47","MONTREAL/PIERRE ELLIOTT TRUDEAU INTL","702S006","2013-04-21 08:00","2013","04","21","08:00","-0.2","","-10.3","","46","","","","34","","11","","","","103.25","","","","-4","","NA"
"-73.74","45.47","MONTREAL/PIERRE ELLIOTT TRUDEAU INTL","702S006","2013-04-21 09:00","2013","04","21","09:00","0.1","","-11.3","","42","","","","29","","11","","","","103.32","","","","","","NA"
"-73.74","45.47","MONTREAL/PIERRE ELLIOTT TRUDEAU INTL","702S006","2013-04-21 10:00","2013","04","21","10:00","1.6","","-10.6","","40","","","","32","","11","","","","103.38","","","","","","NA"
"-73.74","45.47","MONTREAL/PIERRE ELLIOTT TRUDEAU INTL","702S006","2013-04-21 11:00","2013","04","21","11:00","2.5","","-9.4","","41","","","","30","","15","","","","103.39","","","","","","NA"
"-73.74","45.47","MONTREAL/PIERRE ELLIOTT TRUDEAU INTL","702S006","2013-04-21 12:00","2013","04","21","12:00","3.8","","-9.7","","37","","","","24","","9","","","","103.39","","","","","","NA"
"-73.74","45.47","MONTREAL/PIERRE ELLIOTT TRUDEAU INTL","702S006","2013-04-21 13:00","2013","04","21","13:00","4.9","","-9.8","","34","","","","24","","11","","","","103.37","","","","","","NA"
"-73.74","45.47","MONTREAL/PIERRE ELLIOTT TRUDEAU INTL","702S006","2013-04-21 14:00","2013","04","21","14:00","5.3","","-10.9","","30","","","","28","","9","","","","103.38","","","","","","NA"
"-73.74","45.47","MONTREAL/PIERRE ELLIOTT TRUDEAU INTL","702S006","2013-04-21 15:00","2013","04","21","15:00","6.2","","-9.7","","31","","","","22","","11","","","","103.34","","","","","","NA"
"-73.74","45.47","MONTREAL/PIERRE ELLIOTT TRUDEAU INTL","702S006","2013-04-21 16:00","2013","04","21","16:00","6.2","","-10.7","","29","","","","23","","9","","","","103.34","","","","","","NA"
"-73.74","45.47","MONTREAL/PIERRE ELLIOTT TRUDEAU INTL","702S006","2013-04-21 17:00","2013","04","21","17:00","5.9","","-10.4","","30","","","","19","","13","","","","103.36","","","","","","NA"
"-73.74","45.47","MONTREAL/PIERRE ELLIOTT TRUDEAU INTL","702S006","2013-04-21 18:00","2013","04","21","18:00","5.7","","-9.7","","32","","","","20","","9","","","","103.38","","","","","","NA"
"-73.74","45.47","MONTREAL/PIERRE ELLIOTT TRUDEAU INTL","702S006","2013-04-21 19:00","2013","04","21","19:00","4.7","","-9.2","","36","","","","19","","9","","","","103.43","","","","","","NA"
"-73.74","45.47","MONTREAL/PIERRE ELLIOTT TRUDEAU INTL","702S006","2013-04-21 20:00","2013","04","21","20:00","3.3","","-8.4","","42","","","","18","","7","","","","103.48","","","","","","NA"
"-73.74","45.47","MONTREAL/PIERRE ELLIOTT TRUDEAU INTL","702S006","2013-04-21 21:00","2013","04","21","21:00","2.9","","-6.6","","50","","","","15","","7","","","","103.51","","","","","","NA"
"-73.74","45.47","MONTREAL/PIERRE ELLIOTT TRUDEAU INTL","702S006","2013-04-21 22:00","2013","04","21","22:00","2.1","","-5.8","","56","","","","15","","7","","","","103.54","","","","","","NA"
"-73.74","45.47","MONTREAL/PIERRE ELLIOTT TRUDEAU INTL","702S006","2013-04-21 23:00","2013","04","21","23:00","2.6","","-7.0","","49","","","","13","","6","","","","103.54","","","","","","NA"
"-73.74","45.47","MONTREAL/PIERRE ELLIOTT TRUDEAU INTL","702S006","2013-04-22 00:00","2013","04","22","00:00","2.0","","-6.5","","53","","","","12","","6","","","","103.52","","","","","","NA"
"-73.74","45.47","MONTREAL/PIERRE ELLIOTT TRUDEAU INTL","702S006","2013-04-22 01:00","2013","04","22","01:00","1.9","","-8.0","","48","","","","11","","6","","","","103.50","","","","","","NA"
"-73.74","45.47","MONTREAL/PIERRE ELLIOTT TRUDEAU INTL","702S006","2013-04-22 02:00","2013","04","22","02:00","1.6","","-6.4","","55","","","","11","","7","","","","103.50","","","","","","NA"
"-73.74","45.47","MONTREAL/PIERRE ELLIOTT TRUDEAU INTL","702S006","2013-04-22 03:00","2013","04","22","03:00","1.4","","-7.1","","53","","","","9","","7","","","","103.50","","","","","","NA"
"-73.74","45.47","MONTREAL/PIERRE ELLIOTT TRUDEAU INTL","702S006","2013-04-22 04:00","2013","04","22","04:00","0.8","","-7.6","","53","","","","10","","9","","","","103.50","","","","","","NA"
"-73.74","45.47","MONTREAL/PIERRE ELLIOTT TRUDEAU INTL","702S006","2013-04-22 05:00","2013","04","22","05:00","0.2","","-7.2","","57","","","","10","","7","","","","103.52","","","","","","NA"
"-73.74","45.47","MONTREAL/PIERRE ELLIOTT TRUDEAU INTL","702S006","2013-04-22 06:00","2013","04","22","06:00","1.1","","-6.6","","56","","","","10","","7","","","","103.56","","","","","","NA"
"-73.74","45.47","MONTREAL/PIERRE ELLIOTT TRUDEAU INTL","702S006","2013-04-22 07:00","2013","04","22","07:00","2.9","","-5.7","","53","","","","10","","7","","","","103.56","","","","","","NA"
"-73.74","45.47","MONTREAL/PIERRE ELLIOTT TRUDEAU INTL","702S006","2013-04-22 08:00","2013","04","22","08:00","4.8","","-6.4","","44","","","","11","","13","","","","103.54","","","","","","NA"
"-73.74","45.47","MONTREAL/PIERRE ELLIOTT TRUDEAU INTL","702S006","2013-04-22 09:00","2013","04","22","09:00","7.0","","-6.1","","39","","","","13","","22","","","","103.49","","","","","","NA"
"-73.74","45.47","MONTREAL/PIERRE ELLIOTT TRUDEAU INTL","702S006","2013-04-22 10:00","2013","04","22","10:00","9.3","","-5.5","","35","","","","14","","17","","","","103.47","","","","","","NA"
"-73.74","45.47","MONTREAL/PIERRE ELLIOTT TRUDEAU INTL","702S006","2013-04-22 11:00","2013","04","22","11:00","10.9","","-5.9","","30","","","","17","","11","","","","103.39","","","","","","NA"
"-73.74","45.47","MONTREAL/PIERRE ELLIOTT TRUDEAU INTL","702S006","2013-04-22 12:00","2013","04","22","12:00","12.1","","-7.3","","25","","","","13","","13","","","","103.32","","","","","","NA"
"-73.74","45.47","MONTREAL/PIERRE ELLIOTT TRUDEAU INTL","702S006","2013-04-22 13:00","2013","04","22","13:00","12.6","","-7.3","","24","","","","17","","19","","","","103.21","","","","","","NA"
"-73.74","45.47","MONTREAL/PIERRE ELLIOTT TRUDEAU INTL","702S006","2013-04-22 14:00","2013","04","22","14:00","13.3","","-8.9","","20","","","","16","","22","","","","103.09","","","","","","NA"
"-73.74","45.47","MONTREAL/PIERRE ELLIOTT TRUDEAU INTL","702S006","2013-04-22 15:00","2013","04","22","15:00","13.7","","-7.8","","22","","","","14","","22","","","","102.99","","","","","","NA"
"-73.74","45.47","MONTREAL/PIERRE ELLIOTT TRUDEAU INTL","702S006","2013-04-22 16:00","2013","04","22","16:00","14.1","","-7.5","","22","","","","14","","30","","","","102.95","","","","","","NA"
"-73.74","45.47","MONTREAL/PIERRE ELLIOTT TRUDEAU INTL","702S006","2013-04-22 17:00","2013","04","22","17:00","13.2","","-9.4","","20","","","","15","","30","","","","102.88","","","","","","NA"
"-73.74","45.47","MONTREAL/PIERRE ELLIOTT TRUDEAU INTL","702S006","2013-04-22 18:00","2013","04","22","18:00","12.4","","-8.3","","23","","","","14","","24","","","","102.84","","","","","","NA"
"-73.74","45.47","MONTREAL/PIERRE ELLIOTT TRUDEAU INTL","702S006","2013-04-22 19:00","2013","04","22","19:00","10.4","","-6.7","","29","","","","13","","17","","","","102.84","","","","","","NA"
"-73.74","45.47","MONTREAL/PIERRE ELLIOTT TRUDEAU INTL","702S006","2013-04-22 20:00","2013","04","22","20:00","9.6","","-5.9","","33","","","","12","","17","","","","102.84","","","","","","NA"
"-73.74","45.47","MONTREAL/PIERRE ELLIOTT TRUDEAU INTL","702S006","2013-04-22 21:00","2013","04","22","21:00","8.5","","-5.5","","37","","","","13","","17","","","","102.85","","","","","","NA"
"-73.74","45.47","MONTREAL/PIERRE ELLIOTT TRUDEAU INTL","702S006","2013-04-22 22:00","2013","04","22","22:00","7.8","","-5.2","","39","","","","14","","19","","","","102.81","","","","","","NA"
"-73.74","45.47","MONTREAL/PIERRE ELLIOTT TRUDEAU INTL","702S006","2013-04-22 23:00","2013","04","22","23:00","7.6","","-5.5","","39","","","","14","","22","","","","102.78","","","","","","NA"
"-73.74","45.47","MONTREAL/PIERRE ELLIOTT TRUDEAU INTL","702S006","2013-04-23 00:00","2013","04","23","00:00","6.7","","-6.1","","40","","","","14","","22","","","","102.77","","","","","","NA"
"-73.74","45.47","MONTREAL/PIERRE ELLIOTT TRUDEAU INTL","702S006","2013-04-23 01:00","2013","04","23","01:00","5.9","","-6.2","","41","","","","14","","26","","","","102.74","","","","","","NA"
"-73.74","45.47","MONTREAL/PIERRE ELLIOTT TRUDEAU INTL","702S006","2013-04-23 02:00","2013","04","23","02:00","5.2","","-5.2","","47","","","","14","","28","","","","102.72","","","","","","NA"
"-73.74","45.47","MONTREAL/PIERRE ELLIOTT TRUDEAU INTL","702S006","2013-04-23 03:00","2013","04","23","03:00","4.3","","-4.3","","54","","","","14","","26","","","","102.69","","","","","","NA"
"-73.74","45.47","MONTREAL/PIERRE ELLIOTT TRUDEAU INTL","702S006","2013-04-23 04:00","2013","04","23","04:00","3.6","","-4.0","","58","","","","14","","19","","","","102.69","","","","","","NA"
"-73.74","45.47","MONTREAL/PIERRE ELLIOTT TRUDEAU INTL","702S006","2013-04-23 05:00","2013","04","23","05:00","3.0","","-3.7","","61","","","","14","","17","","","","102.69","","","","","","NA"
"-73.74","45.47","MONTREAL/PIERRE ELLIOTT TRUDEAU INTL","702S006","2013-04-23 06:00","2013","04","23","06:00","3.9","","-4.3","","55","","","","13","","19","","","","102.69","","","","","","NA"
"-73.74","45.47","MONTREAL/PIERRE ELLIOTT TRUDEAU INTL","702S006","2013-04-23 07:00","2013","04","23","07:00","5.2","","-3.8","","52","","","","13","","20","","","","102.66","","","","","","NA"
"-73.74","45.47","MONTREAL/PIERRE ELLIOTT TRUDEAU INTL","702S006","2013-04-23 08:00","2013","04","23","08:00","6.7","","-4.1","","46","","","","13","","20","","","","102.63","","","","","","NA"
"-73.74","45.47","MONTREAL/PIERRE ELLIOTT TRUDEAU INTL","702S006","2013-04-23 09:00","2013","04","23","09:00","8.4","","-3.6","","43","","","","13","","20","","","","102.57","","","","","","NA"
"-73.74","45.47","MONTREAL/PIERRE ELLIOTT TRUDEAU INTL","702S006","2013-04-23 10:00","2013","04","23","10:00","9.2","","-4.6","","37","","","","13","","22","","","","102.48","","","","","","NA"
"-73.74","45.47","MONTREAL/PIERRE ELLIOTT TRUDEAU INTL","702S006","2013-04-23 11:00","2013","04","23","11:00","10.5","","-7.2","","28","","","","14","","24","","","","102.36","","","","","","NA"
"-73.74","45.47","MONTREAL/PIERRE ELLIOTT TRUDEAU INTL","702S006","2013-04-23 12:00","2013","04","23","12:00","11.6","","-7.9","","25","","","","14","","24","","","","102.25","","","","","","NA"
"-73.74","45.47","MONTREAL/PIERRE ELLIOTT TRUDEAU INTL","702S006","2013-04-23 13:00","2013","04","23","13:00","13.1","","-5.3","","27","","","","15","","28","","","","102.14","","","","","","NA"
"-73.74","45.47","MONTREAL/PIERRE ELLIOTT TRUDEAU INTL","702S006","2013-04-23 14:00","2013","04","23","14:00","13.4","","-4.1","","29","","","","13","","24","","","","102.06","","","","","","NA"
"-73.74","45.47","MONTREAL/PIERRE ELLIOTT TRUDEAU INTL","702S006","2013-04-23 15:00","2013","04","23","15:00","14.4","","-2.2","","32","","","","14","","26","","","","101.92","","","","","","NA"
"-73.74","45.47","MONTREAL/PIERRE ELLIOTT TRUDEAU INTL","702S006","2013-04-23 16:00","2013","04","23","16:00","14.5","","-0.3","","36","","","","15","","26","","","","101.84","","","","","","NA"
"-73.74","45.47","MONTREAL/PIERRE ELLIOTT TRUDEAU INTL","702S006","2013-04-23 17:00","2013","04","23","17:00","14.3","","1.9","","43","","","","14","","30","","","","101.77","","","","","","NA"
"-73.74","45.47","MONTREAL/PIERRE ELLIOTT TRUDEAU INTL","702S006","2013-04-23 18:00","2013","04","23","18:00","12.7","","2.9","","51","","","","15","","28","","","","101.73","","","","","","NA"
"-73.74","45.47","MONTREAL/PIERRE ELLIOTT TRUDEAU INTL","702S006","2013-04-23 19:00","2013","04","23","19:00","11.0","","2.6","","56","","","","13","","24","","","","101.68","","","","","","NA"
"-73.74","45.47","MONTREAL/PIERRE ELLIOTT TRUDEAU INTL","702S006","2013-04-23 20:00","2013","04","23","20:00","10.0","","2.7","","60","","","","13","","28","","","","101.62","","","","","","NA"
"-73.74","45.47","MONTREAL/PIERRE ELLIOTT TRUDEAU INTL","702S006","2013-04-23 21:00","2013","04","23","21:00","8.9","","2.4","","64","","","","14","","26","","","","101.58","","","","","","NA"
"-73.74","45.47","MONTREAL/PIERRE ELLIOTT TRUDEAU INTL","702S006","2013-04-23 22:00","2013","04","23","22:00","8.2","","2.3","","66","","","","15","","24","","","","101.54","","","","","","NA"
"-73.74","45.47","MONTREAL/PIERRE ELLIOTT TRUDEAU INTL","702S006","2013-04-23 23:00","2013","04","23","23:00","7.6","","2.4","","70","","","","14","","26","","","","101.44","","","","","","NA"
"-73.74","45.47","MONTREAL/PIERRE ELLIOTT TRUDEAU INTL","702S006","2013-04-24 00:00","2013","04","24","00:00","6.5","","2.2","","74","","","","15","","17","","","","101.41","","","","","","NA"
"-73.74","45.47","MONTREAL/PIERRE ELLIOTT TRUDEAU INTL","702S006","2013-04-24 01:00","2013","04","24","01:00","5.9","","1.9","","75","","","","15","","9","","","","101.34","","","","","","NA"
"-73.74","45.47","MONTREAL/PIERRE ELLIOTT TRUDEAU INTL","702S006","2013-04-24 02:00","2013","04","24","02:00","6.2","","2.5","","77","","","","14","","19","","","","101.26","","","","","","NA"
"-73.74","45.47","MONTREAL/PIERRE ELLIOTT TRUDEAU INTL","702S006","2013-04-24 03:00","2013","04","24","03:00","6.5","","2.7","","77","","","","15","","13","","","","101.25","","","","","","NA"
"-73.74","45.47","MONTREAL/PIERRE ELLIOTT TRUDEAU INTL","702S006","2013-04-24 04:00","2013","04","24","04:00","5.6","","2.4","","80","","","","13","","13","","","","101.19","","","","","","NA"
"-73.74","45.47","MONTREAL/PIERRE ELLIOTT TRUDEAU INTL","702S006","2013-04-24 05:00","2013","04","24","05:00","5.5","","2.6","","82","","","","14","","13","","","","101.12","","","","","","NA"
"-73.74","45.47","MONTREAL/PIERRE ELLIOTT TRUDEAU INTL","702S006","2013-04-24 06:00","2013","04","24","06:00","6.7","","3.5","","80","","","","14","","15","","","","101.12","","","","","","NA"
"-73.74","45.47","MONTREAL/PIERRE ELLIOTT TRUDEAU INTL","702S006","2013-04-24 07:00","2013","04","24","07:00","8.1","","3.9","","75","","","","13","","20","","","","101.07","","","","","","NA"
"-73.74","45.47","MONTREAL/PIERRE ELLIOTT TRUDEAU INTL","702S006","2013-04-24 08:00","2013","04","24","08:00","10.5","","4.7","","67","","","","13","","26","","","","100.94","","","","","","NA"
"-73.74","45.47","MONTREAL/PIERRE ELLIOTT TRUDEAU INTL","702S006","2013-04-24 09:00","2013","04","24","09:00","12.6","","5.3","","61","","","","13","","20","","","","100.83","","","","","","NA"
"-73.74","45.47","MONTREAL/PIERRE ELLIOTT TRUDEAU INTL","702S006","2013-04-24 10:00","2013","04","24","10:00","14.6","","5.6","","55","","","","14","","17","","","","100.74","","","","","","NA"
"-73.74","45.47","MONTREAL/PIERRE ELLIOTT TRUDEAU INTL","702S006","2013-04-24 11:00","2013","04","24","11:00","15.8","","5.2","","49","","","","15","","19","","","","100.65","","","","","","NA"
"-73.74","45.47","MONTREAL/PIERRE ELLIOTT TRUDEAU INTL","702S006","2013-04-24 12:00","2013","04","24","12:00","17.1","","4.8","","44","","","","12","","17","","","","100.43","","","","","","NA"
"-73.74","45.47","MONTREAL/PIERRE ELLIOTT TRUDEAU INTL","702S006","2013-04-24 13:00","2013","04","24","13:00","19.1","","4.3","","38","","","","13","","15","","","","100.27","","","","","","NA"
"-73.74","45.47","MONTREAL/PIERRE ELLIOTT TRUDEAU INTL","702S006","2013-04-24 14:00","2013","04","24","14:00","21.4","","2.3","","28","","","","13","","22","","","","100.11","","","","","","NA"
"-73.74","45.47","MONTREAL/PIERRE ELLIOTT TRUDEAU INTL","702S006","2013-04-24 15:00","2013","04","24","15:00","21.2","","2.0","","28","","","","13","","24","","","","99.99","","","","","","NA"
"-73.74","45.47","MONTREAL/PIERRE ELLIOTT TRUDEAU INTL","702S006","2013-04-24 16:00","2013","04","24","16:00","20.4","","3.4","","33","","","","13","","22","","","","99.87","","","","","","NA"
"-73.74","45.47","MONTREAL/PIERRE ELLIOTT TRUDEAU INTL","702S006","2013-04-24 17:00","2013","04","24","17:00","19.8","","5.2","","38","","","","16","","20","","","","99.82","","","","","","NA"
"-73.74","45.47","MONTREAL/PIERRE ELLIOTT TRUDEAU INTL","702S006","2013-04-24 18:00","2013","04","24","18:00","19.4","","6.2","","42","","","","19","","17","","","","99.79","","","","","","NA"
"-73.74","45.47","MONTREAL/PIERRE ELLIOTT TRUDEAU INTL","702S006","2013-04-24 19:00","2013","04","24","19:00","16.4","","7.0","","54","","","","31","","9","","","","99.72","","","","","","NA"
"-73.74","45.47","MONTREAL/PIERRE ELLIOTT TRUDEAU INTL","702S006","2013-04-24 20:00","2013","04","24","20:00","15.5","","9.1","","66","","","","15","","4","","","","99.73","","","","","","NA"
"-73.74","45.47","MONTREAL/PIERRE ELLIOTT TRUDEAU INTL","702S006","2013-04-24 21:00","2013","04","24","21:00","16.0","","12.1","","78","","","","19","","26","","","","99.69","","","","","","NA"
"-73.74","45.47","MONTREAL/PIERRE ELLIOTT TRUDEAU INTL","702S006","2013-04-24 22:00","2013","04","24","22:00","14.5","","11.5","","82","","","","23","","30","","","","99.80","","","","","","NA"
"-73.74","45.47","MONTREAL/PIERRE ELLIOTT TRUDEAU INTL","702S006","2013-04-24 23:00","2013","04","24","23:00","12.7","","9.8","","82","","","","23","","20","","","","99.79","","","","","","NA"
"-73.74","45.47","MONTREAL/PIERRE ELLIOTT TRUDEAU INTL","702S006","2013-04-25 00:00","2013","04","25","00:00","9.8","","5.6","","75","","","","24","","44","","","","99.98","","","","","","NA"
"-73.74","45.47","MONTREAL/PIERRE ELLIOTT TRUDEAU INTL","702S006","2013-04-25 01:00","2013","04","25","01:00","6.1","","2.7","","79","","","","26","","56","","","","100.17","","","","","","NA"
"-73.74","45.47","MONTREAL/PIERRE ELLIOTT TRUDEAU INTL","702S006","2013-04-25 02:00","2013","04","25","02:00","4.6","","0.1","","73","","","","26","","48","","","","100.37","","","","","","NA"
"-73.74","45.47","MONTREAL/PIERRE ELLIOTT TRUDEAU INTL","702S006","2013-04-25 03:00","2013","04","25","03:00","4.3","","-0.3","","72","","","","26","","32","","","","100.68","","","","","","NA"
"-73.74","45.47","MONTREAL/PIERRE ELLIOTT TRUDEAU INTL","702S006","2013-04-25 04:00","2013","04","25","04:00","3.9","","-0.4","","73","","","","26","","32","","","","100.89","","","","","","NA"
"-73.74","45.47","MONTREAL/PIERRE ELLIOTT TRUDEAU INTL","702S006","2013-04-25 05:00","2013","04","25","05:00","3.6","","-0.9","","72","","","","27","","30","","","","101.04","","","","","","NA"
"-73.74","45.47","MONTREAL/PIERRE ELLIOTT TRUDEAU INTL","702S006","2013-04-25 06:00","2013","04","25","06:00","3.4","","-1.2","","72","","","","27","","33","","","","101.20","","","","","","NA"
"-73.74","45.47","MONTREAL/PIERRE ELLIOTT TRUDEAU INTL","702S006","2013-04-25 07:00","2013","04","25","07:00","3.6","","-1.4","","70","","","","26","","24","","","","101.39","","","","","","NA"
"-73.74","45.47","MONTREAL/PIERRE ELLIOTT TRUDEAU INTL","702S006","2013-04-25 08:00","2013","04","25","08:00","3.8","","-1.6","","68","","","","26","","17","","","","101.54","","","","","","NA"
"-73.74","45.47","MONTREAL/PIERRE ELLIOTT TRUDEAU INTL","702S006","2013-04-25 09:00","2013","04","25","09:00","5.2","","-2.1","","59","","","","27","","28","","","","101.61","","","","","","NA"
"-73.74","45.47","MONTREAL/PIERRE ELLIOTT TRUDEAU INTL","702S006","2013-04-25 10:00","2013","04","25","10:00","6.9","","-2.3","","52","","","","26","","30","","","","101.67","","","","","","NA"
"-73.74","45.47","MONTREAL/PIERRE ELLIOTT TRUDEAU INTL","702S006","2013-04-25 11:00","2013","04","25","11:00","8.3","","-1.8","","49","","","","27","","26","","","","101.72","","","","","","NA"
"-73.74","45.47","MONTREAL/PIERRE ELLIOTT TRUDEAU INTL","702S006","2013-04-25 12:00","2013","04","25","12:00","8.5","","-3.2","","44","","","","28","","30","","","","101.74","","","","","","NA"
"-73.74","45.47","MONTREAL/PIERRE ELLIOTT TRUDEAU INTL","702S006","2013-04-25 13:00","2013","04","25","13:00","9.9","","-3.5","","39","","","","27","","24","","","","101.79","","","","","","NA"
"-73.74","45.47","MONTREAL/PIERRE ELLIOTT TRUDEAU INTL","702S006","2013-04-25 14:00","2013","04","25","14:00","10.2","","-3.0","","39","","","","28","","24","","","","101.79","","","","","","NA"
"-73.74","45.47","MONTREAL/PIERRE ELLIOTT TRUDEAU INTL","702S006","2013-04-25 15:00","2013","04","25","15:00","10.6","","-4.5","","34","","","","27","","20","","","","101.78","","","","","","NA"
"-73.74","45.47","MONTREAL/PIERRE ELLIOTT TRUDEAU INTL","702S006","2013-04-25 16:00","2013","04","25","16:00","10.8","","-4.0","","35","","","","28","","17","","","","101.82","","","","","","NA"
"-73.74","45.47","MONTREAL/PIERRE ELLIOTT TRUDEAU INTL","702S006","2013-04-25 17:00","2013","04","25","17:00","10.8","","-4.0","","35","","","","27","","17","","","","101.83","","","","","","NA"
"-73.74","45.47","MONTREAL/PIERRE ELLIOTT TRUDEAU INTL","702S006","2013-04-25 18:00","2013","04","25","18:00","10.4","","-5.3","","33","","","","28","","13","","","","101.91","","","","","","NA"
"-73.74","45.47","MONTREAL/PIERRE ELLIOTT TRUDEAU INTL","702S006","2013-04-25 19:00","2013","04","25","19:00","9.2","","-4.1","","39","","","","27","","7","","","","102.00","","","","","","NA"
"-73.74","45.47","MONTREAL/PIERRE ELLIOTT TRUDEAU INTL","702S006","2013-04-25 20:00","2013","04","25","20:00","8.7","","-3.6","","42","","","","24","","6","","","","102.09","","","","","","NA"
"-73.74","45.47","MONTREAL/PIERRE ELLIOTT TRUDEAU INTL","702S006","2013-04-25 21:00","2013","04","25","21:00","7.5","","-2.7","","48","","","","28","","2","","","","102.14","","","","","","NA"
"-73.74","45.47","MONTREAL/PIERRE ELLIOTT TRUDEAU INTL","702S006","2013-04-25 22:00","2013","04","25","22:00","8.6","","-3.5","","42","","","","4","","7","","","","102.13","","","","","","NA"
"-73.74","45.47","MONTREAL/PIERRE ELLIOTT TRUDEAU INTL","702S006","2013-04-25 23:00","2013","04","25","23:00","5.4","","-1.2","","62","","","","12","","9","","","","102.13","","","","","","NA"
"-73.74","45.47","MONTREAL/PIERRE ELLIOTT TRUDEAU INTL","702S006","2013-04-26 00:00","2013","04","26","00:00","4.4","","-2.2","","62","","","","14","","7","","","","102.17","","","","","","NA"
"-73.74","45.47","MONTREAL/PIERRE ELLIOTT TRUDEAU INTL","702S006","2013-04-26 01:00","2013","04","26","01:00","3.4","","-2.3","","66","","","","","","0","","","","102.18","","","","","","NA"
"-73.74","45.47","MONTREAL/PIERRE ELLIOTT TRUDEAU INTL","702S006","2013-04-26 02:00","2013","04","26","02:00","4.5","","-1.1","","67","","","","2","","6","","","","102.20","","","","","","NA"
"-73.74","45.47","MONTREAL/PIERRE ELLIOTT TRUDEAU INTL","702S006","2013-04-26 03:00","2013","04","26","03:00","3.8","","-1.4","","69","","","","4","","4","","","","102.24","","","","","","NA"
"-73.74","45.47","MONTREAL/PIERRE ELLIOTT TRUDEAU INTL","702S006","2013-04-26 04:00","2013","04","26","04:00","3.3","","-1.2","","72","","","","34","","6","","","","102.31","","","","","","NA"
"-73.74","45.47","MONTREAL/PIERRE ELLIOTT TRUDEAU INTL","702S006","2013-04-26 05:00","2013","04","26","05:00","3.4","","-1.2","","72","","","","1","","9","","","","102.36","","","","","","NA"
"-73.74","45.47","MONTREAL/PIERRE ELLIOTT TRUDEAU INTL","702S006","2013-04-26 06:00","2013","04","26","06:00","4.2","","-1.8","","65","","","","2","","9","","","","102.48","","","","","","NA"
"-73.74","45.47","MONTREAL/PIERRE ELLIOTT TRUDEAU INTL","702S006","2013-04-26 07:00","2013","04","26","07:00","5.0","","-1.8","","61","","","","36","","7","","","","102.56","","","","","","NA"
"-73.74","45.47","MONTREAL/PIERRE ELLIOTT TRUDEAU INTL","702S006","2013-04-26 08:00","2013","04","26","08:00","4.6","","-1.7","","64","","","","30","","13","","","","102.67","","","","","","NA"
"-73.74","45.47","MONTREAL/PIERRE ELLIOTT TRUDEAU INTL","702S006","2013-04-26 09:00","2013","04","26","09:00","5.3","","-0.7","","65","","","","2","","11","","","","102.70","","","","","","NA"
"-73.74","45.47","MONTREAL/PIERRE ELLIOTT TRUDEAU INTL","702S006","2013-04-26 10:00","2013","04","26","10:00","6.1","","0.7","","68","","","","3","","9","","","","102.73","","","","","","NA"
"-73.74","45.47","MONTREAL/PIERRE ELLIOTT TRUDEAU INTL","702S006","2013-04-26 11:00","2013","04","26","11:00","7.0","","1.1","","66","","","","24","","4","","","","102.74","","","","","","NA"
"-73.74","45.47","MONTREAL/PIERRE ELLIOTT TRUDEAU INTL","702S006","2013-04-26 12:00","2013","04","26","12:00","8.5","","1.8","","63","","","","23","","9","","","","102.71","","","","","","NA"
"-73.74","45.47","MONTREAL/PIERRE ELLIOTT TRUDEAU INTL","702S006","2013-04-26 13:00","2013","04","26","13:00","9.1","","2.2","","62","","","","22","","11","","","","102.69","","","","","","NA"
"-73.74","45.47","MONTREAL/PIERRE ELLIOTT TRUDEAU INTL","702S006","2013-04-26 14:00","2013","04","26","14:00","9.7","","2.8","","62","","","","22","","13","","","","102.69","","","","","","NA"
"-73.74","45.47","MONTREAL/PIERRE ELLIOTT TRUDEAU INTL","702S006","2013-04-26 15:00","2013","04","26","15:00","9.9","","2.2","","59","","","","25","","9","","","","102.67","","","","","","NA"
"-73.74","45.47","MONTREAL/PIERRE ELLIOTT TRUDEAU INTL","702S006","2013-04-26 16:00","2013","04","26","16:00","10.8","","1.3","","52","","","","27","","7","","","","102.63","","","","","","NA"
"-73.74","45.47","MONTREAL/PIERRE ELLIOTT TRUDEAU INTL","702S006","2013-04-26 17:00","2013","04","26","17:00","10.5","","0.9","","51","","","","24","","6","","","","102.63","","","","","","NA"
"-73.74","45.47","MONTREAL/PIERRE ELLIOTT TRUDEAU INTL","702S006","2013-04-26 18:00","2013","04","26","18:00","10.3","","0.7","","51","","","","20","","9","","","","102.63","","","","","","NA"
"-73.74","45.47","MONTREAL/PIERRE ELLIOTT TRUDEAU INTL","702S006","2013-04-26 19:00","2013","04","26","19:00","9.5","","0.2","","52","","","","24","","6","","","","102.64","","","","","","NA"
"-73.74","45.47","MONTREAL/PIERRE ELLIOTT TRUDEAU INTL","702S006","2013-04-26 20:00","2013","04","26","20:00","7.4","","0.6","","62","","","","25","","4","","","","102.67","","","","","","NA"
"-73.74","45.47","MONTREAL/PIERRE ELLIOTT TRUDEAU INTL","702S006","2013-04-26 21:00","2013","04","26","21:00","6.7","","0.8","","66","","","","26","","2","","","","102.69","","","","","","NA"
"-73.74","45.47","MONTREAL/PIERRE ELLIOTT TRUDEAU INTL","702S006","2013-04-26 22:00","2013","04","26","22:00","7.3","","1.2","","65","","","","13","","6","","","","102.68","","","","","","NA"
"-73.74","45.47","MONTREAL/PIERRE ELLIOTT TRUDEAU INTL","702S006","2013-04-26 23:00","2013","04","26","23:00","5.9","","0.7","","69","","","","16","","6","","","","102.70","","","","","","NA"
"-73.74","45.47","MONTREAL/PIERRE ELLIOTT TRUDEAU INTL","702S006","2013-04-27 00:00","2013","04","27","00:00","4.9","","0.6","","74","","","","22","","4","","","","102.71","","","","","","NA"
"-73.74","45.47","MONTREAL/PIERRE ELLIOTT TRUDEAU INTL","702S006","2013-04-27 01:00","2013","04","27","01:00","5.0","","1.3","","77","","","","16","","6","","","","102.68","","","","","","NA"
"-73.74","45.47","MONTREAL/PIERRE ELLIOTT TRUDEAU INTL","702S006","2013-04-27 02:00","2013","04","27","02:00","4.6","","1.2","","79","","","","22","","4","","","","102.66","","","","","","NA"
"-73.74","45.47","MONTREAL/PIERRE ELLIOTT TRUDEAU INTL","702S006","2013-04-27 03:00","2013","04","27","03:00","4.6","","1.1","","78","","","","21","","6","","","","102.65","","","","","","NA"
"-73.74","45.47","MONTREAL/PIERRE ELLIOTT TRUDEAU INTL","702S006","2013-04-27 04:00","2013","04","27","04:00","4.2","","1.4","","82","","","","23","","6","","","","102.64","","","","","","NA"
"-73.74","45.47","MONTREAL/PIERRE ELLIOTT TRUDEAU INTL","702S006","2013-04-27 05:00","2013","04","27","05:00","2.7","","0.0","","82","","","","26","","4","","","","102.65","","","","","","NA"
"-73.74","45.47","MONTREAL/PIERRE ELLIOTT TRUDEAU INTL","702S006","2013-04-27 06:00","2013","04","27","06:00","4.4","","1.6","","82","","","","27","","4","","","","102.66","","","","","","NA"
"-73.74","45.47","MONTREAL/PIERRE ELLIOTT TRUDEAU INTL","702S006","2013-04-27 07:00","2013","04","27","07:00","6.3","","1.0","","69","","","","28","","6","","","","102.69","","","","","","NA"
"-73.74","45.47","MONTREAL/PIERRE ELLIOTT TRUDEAU INTL","702S006","2013-04-27 08:00","2013","04","27","08:00","8.1","","1.2","","62","","","","20","","2","","","","102.69","","","","","","NA"
"-73.74","45.47","MONTREAL/PIERRE ELLIOTT TRUDEAU INTL","702S006","2013-04-27 09:00","2013","04","27","09:00","10.5","","2.0","","56","","","","19","","6","","","","102.69","","","","","","NA"
"-73.74","45.47","MONTREAL/PIERRE ELLIOTT TRUDEAU INTL","702S006","2013-04-27 10:00","2013","04","27","10:00","11.3","","-0.2","","45","","","","19","","11","","","","102.67","","","","","","NA"
"-73.74","45.47","MONTREAL/PIERRE ELLIOTT TRUDEAU INTL","702S006","2013-04-27 11:00","2013","04","27","11:00","12.1","","-2.2","","37","","","","22","","11","","","","102.63","","","","","","NA"
"-73.74","45.47","MONTREAL/PIERRE ELLIOTT TRUDEAU INTL","702S006","2013-04-27 12:00","2013","04","27","12:00","12.7","","-1.5","","37","","","","21","","13","","","","102.55","","","","","","NA"
"-73.74","45.47","MONTREAL/PIERRE ELLIOTT TRUDEAU INTL","702S006","2013-04-27 13:00","2013","04","27","13:00","13.6","","-3.1","","31","","","","20","","15","","","","102.48","","","","","","NA"
"-73.74","45.47","MONTREAL/PIERRE ELLIOTT TRUDEAU INTL","702S006","2013-04-27 14:00","2013","04","27","14:00","14.2","","-1.7","","33","","","","20","","11","","","","102.42","","","","","","NA"
"-73.74","45.47","MONTREAL/PIERRE ELLIOTT TRUDEAU INTL","702S006","2013-04-27 15:00","2013","04","27","15:00","15.0","","-3.1","","29","","","","21","","13","","","","102.33","","","","","","NA"
"-73.74","45.47","MONTREAL/PIERRE ELLIOTT TRUDEAU INTL","702S006","2013-04-27 16:00","2013","04","27","16:00","15.2","","-4.7","","25","","","","25","","7","","","","102.25","","","","","","NA"
"-73.74","45.47","MONTREAL/PIERRE ELLIOTT TRUDEAU INTL","702S006","2013-04-27 17:00","2013","04","27","17:00","14.9","","-4.4","","26","","","","22","","13","","","","102.22","","","","","","NA"
"-73.74","45.47","MONTREAL/PIERRE ELLIOTT TRUDEAU INTL","702S006","2013-04-27 18:00","2013","04","27","18:00","14.1","","-3.6","","29","","","","22","","9","","","","102.19","","","","","","NA"
"-73.74","45.47","MONTREAL/PIERRE ELLIOTT TRUDEAU INTL","702S006","2013-04-27 19:00","2013","04","27","19:00","13.2","","-2.0","","35","","","","22","","9","","","","102.20","","","","","","NA"
"-73.74","45.47","MONTREAL/PIERRE ELLIOTT TRUDEAU INTL","702S006","2013-04-27 20:00","2013","04","27","20:00","12.0","","0.4","","45","","","","23","","6","","","","102.21","","","","","","NA"
"-73.74","45.47","MONTREAL/PIERRE ELLIOTT TRUDEAU INTL","702S006","2013-04-27 21:00","2013","04","27","21:00","10.3","","1.2","","53","","","","20","","2","","","","102.24","","","","","","NA"
"-73.74","45.47","MONTREAL/PIERRE ELLIOTT TRUDEAU INTL","702S006","2013-04-27 22:00","2013","04","27","22:00","8.1","","1.7","","64","","","","26","","4","","","","102.24","","","","","","NA"
"-73.74","45.47","MONTREAL/PIERRE ELLIOTT TRUDEAU INTL","702S006","2013-04-27 23:00","2013","04","27","23:00","7.8","","1.2","","63","","","","15","","7","","","","102.24","","","","","","NA"
"-73.74","45.47","MONTREAL/PIERRE ELLIOTT TRUDEAU INTL","702S006","2013-04-28 00:00","2013","04","28","00:00","8.8","","0.6","","56","","","","14","","4","","","","102.23","","","","","","NA"
"-73.74","45.47","MONTREAL/PIERRE ELLIOTT TRUDEAU INTL","702S006","2013-04-28 01:00","2013","04","28","01:00","7.3","","0.8","","63","","","","7","","2","","","","102.20","","","","","","NA"
"-73.74","45.47","MONTREAL/PIERRE ELLIOTT TRUDEAU INTL","702S006","2013-04-28 02:00","2013","04","28","02:00","4.8","","0.4","","73","","","","2","","4","","","","102.14","","","","","","NA"
"-73.74","45.47","MONTREAL/PIERRE ELLIOTT TRUDEAU INTL","702S006","2013-04-28 03:00","2013","04","28","03:00","7.1","","0.3","","62","","","","13","","4","","","","102.11","","","","","","NA"
"-73.74","45.47","MONTREAL/PIERRE ELLIOTT TRUDEAU INTL","702S006","2013-04-28 04:00","2013","04","28","04:00","6.3","","1.0","","69","","","","14","","4","","","","102.09","","","","","","NA"
"-73.74","45.47","MONTREAL/PIERRE ELLIOTT TRUDEAU INTL","702S006","2013-04-28 05:00","2013","04","28","05:00","4.3","","0.8","","78","","","","35","","6","","","","102.12","","","","","","NA"
"-73.74","45.47","MONTREAL/PIERRE ELLIOTT TRUDEAU INTL","702S006","2013-04-28 06:00","2013","04","28","06:00","7.1","","1.4","","67","","","","4","","7","","","","102.12","","","","","","NA"
"-73.74","45.47","MONTREAL/PIERRE ELLIOTT TRUDEAU INTL","702S006","2013-04-28 07:00","2013","04","28","07:00","10.2","","1.9","","56","","","","5","","6","","","","102.17","","","","","","NA"
"-73.74","45.47","MONTREAL/PIERRE ELLIOTT TRUDEAU INTL","702S006","2013-04-28 08:00","2013","04","28","08:00","12.6","","0.8","","44","","","","7","","6","","","","102.16","","","","","","NA"
"-73.74","45.47","MONTREAL/PIERRE ELLIOTT TRUDEAU INTL","702S006","2013-04-28 09:00","2013","04","28","09:00","13.8","","-0.1","","38","","","","12","","7","","","","102.15","","","","","","NA"
"-73.74","45.47","MONTREAL/PIERRE ELLIOTT TRUDEAU INTL","702S006","2013-04-28 10:00","2013","04","28","10:00","16.1","","0.7","","35","","","","11","","9","","","","102.11","","","","","","NA"
"-73.74","45.47","MONTREAL/PIERRE ELLIOTT TRUDEAU INTL","702S006","2013-04-28 11:00","2013","04","28","11:00","18.2","","0.3","","30","","","","14","","9","","","","102.05","","","","","","NA"
"-73.74","45.47","MONTREAL/PIERRE ELLIOTT TRUDEAU INTL","702S006","2013-04-28 12:00","2013","04","28","12:00","18.6","","0.2","","29","","","","17","","7","","","","101.98","","","","","","NA"
"-73.74","45.47","MONTREAL/PIERRE ELLIOTT TRUDEAU INTL","702S006","2013-04-28 13:00","2013","04","28","13:00","19.4","","0.6","","28","","","","21","","6","","","","101.88","","","","","","NA"
"-73.74","45.47","MONTREAL/PIERRE ELLIOTT TRUDEAU INTL","702S006","2013-04-28 14:00","2013","04","28","14:00","20.7","","0.9","","27","","","","16","","9","","","","101.79","","","","","","NA"
"-73.74","45.47","MONTREAL/PIERRE ELLIOTT TRUDEAU INTL","702S006","2013-04-28 15:00","2013","04","28","15:00","20.8","","-0.1","","25","","","","10","","7","","","","101.72","","","","","","NA"
"-73.74","45.47","MONTREAL/PIERRE ELLIOTT TRUDEAU INTL","702S006","2013-04-28 16:00","2013","04","28","16:00","20.8","","-1.1","","23","","","","10","","4","","","","101.67","","","","","","NA"
"-73.74","45.47","MONTREAL/PIERRE ELLIOTT TRUDEAU INTL","702S006","2013-04-28 17:00","2013","04","28","17:00","20.8","","-0.4","","24","","","","15","","9","","","","101.61","","","","","","NA"
"-73.74","45.47","MONTREAL/PIERRE ELLIOTT TRUDEAU INTL","702S006","2013-04-28 18:00","2013","04","28","18:00","19.9","","0.4","","27","","","","12","","13","","","","101.58","","","","","","NA"
"-73.74","45.47","MONTREAL/PIERRE ELLIOTT TRUDEAU INTL","702S006","2013-04-28 19:00","2013","04","28","19:00","19.4","","-0.8","","26","","","","10","","7","","","","101.54","","","","","","NA"
"-73.74","45.47","MONTREAL/PIERRE ELLIOTT TRUDEAU INTL","702S006","2013-04-28 20:00","2013","04","28","20:00","18.8","","-0.7","","27","","","","9","","7","","","","101.54","","","","","","NA"
"-73.74","45.47","MONTREAL/PIERRE ELLIOTT TRUDEAU INTL","702S006","2013-04-28 21:00","2013","04","28","21:00","18.2","","-0.9","","27","","","","5","","6","","","","101.53","","","","","","NA"
"-73.74","45.47","MONTREAL/PIERRE ELLIOTT TRUDEAU INTL","702S006","2013-04-28 22:00","2013","04","28","22:00","17.3","","-0.6","","30","","","","5","","7","","","","101.49","","","","","","NA"
"-73.74","45.47","MONTREAL/PIERRE ELLIOTT TRUDEAU INTL","702S006","2013-04-28 23:00","2013","04","28","23:00","14.2","","1.1","","41","","","","8","","4","","","","101.49","","","","","","NA"
"-73.74","45.47","MONTREAL/PIERRE ELLIOTT TRUDEAU INTL","702S006","2013-04-29 00:00","2013","04","29","00:00","13.3","","1.5","","45","","","","3","","2","","","","101.49","","","","","","NA"
"-73.74","45.47","MONTREAL/PIERRE ELLIOTT TRUDEAU INTL","702S006","2013-04-29 01:00","2013","04","29","01:00","14.0","","1.6","","43","","","","11","","11","","","","101.47","","","","","","NA"
"-73.74","45.47","MONTREAL/PIERRE ELLIOTT TRUDEAU INTL","702S006","2013-04-29 02:00","2013","04","29","02:00","13.2","","2.5","","48","","","","17","","13","","","","101.47","","","","","","NA"
"-73.74","45.47","MONTREAL/PIERRE ELLIOTT TRUDEAU INTL","702S006","2013-04-29 03:00","2013","04","29","03:00","11.6","","3.0","","55","","","","18","","13","","","","101.50","","","","","","NA"
"-73.74","45.47","MONTREAL/PIERRE ELLIOTT TRUDEAU INTL","702S006","2013-04-29 04:00","2013","04","29","04:00","11.6","","3.1","","56","","","","20","","9","","","","101.55","","","","","","NA"
"-73.74","45.47","MONTREAL/PIERRE ELLIOTT TRUDEAU INTL","702S006","2013-04-29 05:00","2013","04","29","05:00","9.9","","3.5","","64","","","","17","","7","","","","101.59","","","","","","NA"
"-73.74","45.47","MONTREAL/PIERRE ELLIOTT TRUDEAU INTL","702S006","2013-04-29 06:00","2013","04","29","06:00","12.3","","4.6","","59","","","","17","","6","","","","101.65","","","","","","NA"
"-73.74","45.47","MONTREAL/PIERRE ELLIOTT TRUDEAU INTL","702S006","2013-04-29 07:00","2013","04","29","07:00","13.2","","4.2","","54","","","","16","","7","","","","101.70","","","","","","NA"
"-73.74","45.47","MONTREAL/PIERRE ELLIOTT TRUDEAU INTL","702S006","2013-04-29 08:00","2013","04","29","08:00","15.6","","4.5","","48","","","","17","","7","","","","101.68","","","","","","NA"
"-73.74","45.47","MONTREAL/PIERRE ELLIOTT TRUDEAU INTL","702S006","2013-04-29 09:00","2013","04","29","09:00","17.2","","5.5","","46","","","","11","","4","","","","101.67","","","","","","NA"
"-73.74","45.47","MONTREAL/PIERRE ELLIOTT TRUDEAU INTL","702S006","2013-04-29 10:00","2013","04","29","10:00","17.9","","5.0","","43","","","","11","","9","","","","101.65","","","","","","NA"
"-73.74","45.47","MONTREAL/PIERRE ELLIOTT TRUDEAU INTL","702S006","2013-04-29 11:00","2013","04","29","11:00","19.0","","4.7","","39","","","","11","","11","","","","101.59","","","","","","NA"
"-73.74","45.47","MONTREAL/PIERRE ELLIOTT TRUDEAU INTL","702S006","2013-04-29 12:00","2013","04","29","12:00","19.5","","3.1","","34","","","","13","","22","","","","101.53","","","","","","NA"
"-73.74","45.47","MONTREAL/PIERRE ELLIOTT TRUDEAU INTL","702S006","2013-04-29 13:00","2013","04","29","13:00","20.5","","3.5","","33","","","","15","","28","","","","101.47","","","","","","NA"
"-73.74","45.47","MONTREAL/PIERRE ELLIOTT TRUDEAU INTL","702S006","2013-04-29 14:00","2013","04","29","14:00","19.4","","4.0","","36","","","","15","","35","","","","101.47","","","","","","NA"
"-73.74","45.47","MONTREAL/PIERRE ELLIOTT TRUDEAU INTL","702S006","2013-04-29 15:00","2013","04","29","15:00","18.3","","4.5","","40","","","","17","","26","","","","101.48","","","","","","NA"
"-73.74","45.47","MONTREAL/PIERRE ELLIOTT TRUDEAU INTL","702S006","2013-04-29 16:00","2013","04","29","16:00","18.2","","5.6","","44","","","","17","","22","","","","101.48","","","","","","NA"
"-73.74","45.47","MONTREAL/PIERRE ELLIOTT TRUDEAU INTL","702S006","2013-04-29 17:00","2013","04","29","17:00","18.0","","6.1","","46","","","","17","","15","","","","101.51","","","","","","NA"
"-73.74","45.47","MONTREAL/PIERRE ELLIOTT TRUDEAU INTL","702S006","2013-04-29 18:00","2013","04","29","18:00","17.4","","6.9","","50","","","","22","","9","","","","101.53","","","","","","NA"
"-73.74","45.47","MONTREAL/PIERRE ELLIOTT TRUDEAU INTL","702S006","2013-04-29 19:00","2013","04","29","19:00","16.6","","6.4","","51","","","","18","","20","","","","101.55","","","","","","NA"
"-73.74","45.47","MONTREAL/PIERRE ELLIOTT TRUDEAU INTL","702S006","2013-04-29 20:00","2013","04","29","20:00","15.2","","6.5","","56","","","","17","","17","","","","101.62","","","","","","NA"
"-73.74","45.47","MONTREAL/PIERRE ELLIOTT TRUDEAU INTL","702S006","2013-04-29 21:00","2013","04","29","21:00","14.9","","6.4","","57","","","","18","","15","","","","101.64","","","","","","NA"
"-73.74","45.47","MONTREAL/PIERRE ELLIOTT TRUDEAU INTL","702S006","2013-04-29 22:00","2013","04","29","22:00","14.8","","6.2","","56","","","","18","","11","","","","101.65","","","","","","NA"
"-73.74","45.47","MONTREAL/PIERRE ELLIOTT TRUDEAU INTL","702S006","2013-04-29 23:00","2013","04","29","23:00","13.4","","6.0","","61","","","","16","","11","","","","101.68","","","","","","NA"
"-73.74","45.47","MONTREAL/PIERRE ELLIOTT TRUDEAU INTL","702S006","2013-04-30 00:00","2013","04","30","00:00","12.5","","5.8","","64","","","","16","","11","","","","101.69","","","","","","NA"
"-73.74","45.47","MONTREAL/PIERRE ELLIOTT TRUDEAU INTL","702S006","2013-04-30 01:00","2013","04","30","01:00","12.7","","6.3","","65","","","","15","","9","","","","101.71","","","","","","NA"
"-73.74","45.47","MONTREAL/PIERRE ELLIOTT TRUDEAU INTL","702S006","2013-04-30 02:00","2013","04","30","02:00","12.7","","6.5","","66","","","","16","","11","","","","101.72","","","","","","NA"
"-73.74","45.47","MONTREAL/PIERRE ELLIOTT TRUDEAU INTL","702S006","2013-04-30 03:00","2013","04","30","03:00","12.3","","7.4","","72","","","","15","","17","","","","101.77","","","","","","NA"
"-73.74","45.47","MONTREAL/PIERRE ELLIOTT TRUDEAU INTL","702S006","2013-04-30 04:00","2013","04","30","04:00","11.9","","7.3","","73","","","","16","","15","","","","101.83","","","","","","NA"
"-73.74","45.47","MONTREAL/PIERRE ELLIOTT TRUDEAU INTL","702S006","2013-04-30 05:00","2013","04","30","05:00","11.9","","6.8","","71","","","","17","","11","","","","101.90","","","","","","NA"
"-73.74","45.47","MONTREAL/PIERRE ELLIOTT TRUDEAU INTL","702S006","2013-04-30 06:00","2013","04","30","06:00","11.7","","7.4","","75","","","","16","","6","","","","101.96","","","","","","NA"
"-73.74","45.47","MONTREAL/PIERRE ELLIOTT TRUDEAU INTL","702S006","2013-04-30 07:00","2013","04","30","07:00","12.0","","7.7","","75","","","","15","","11","","","","102.00","","","","","","NA"
"-73.74","45.47","MONTREAL/PIERRE ELLIOTT TRUDEAU INTL","702S006","2013-04-30 08:00","2013","04","30","08:00","12.2","","7.8","","74","","","","16","","11","","","","102.04","","","","","","NA"
"-73.74","45.47","MONTREAL/PIERRE ELLIOTT TRUDEAU INTL","702S006","2013-04-30 09:00","2013","04","30","09:00","13.4","","8.0","","70","","","","12","","11","","","","102.02","","","","","","NA"
"-73.74","45.47","MONTREAL/PIERRE ELLIOTT TRUDEAU INTL","702S006","2013-04-30 10:00","2013","04","30","10:00","14.5","","8.3","","66","","","","12","","7","","","","102.02","","","","","","NA"
"-73.74","45.47","MONTREAL/PIERRE ELLIOTT TRUDEAU INTL","702S006","2013-04-30 11:00","2013","04","30","11:00","16.5","","8.2","","58","","","","10","","6","","","","102.00","","","","","","NA"
"-73.74","45.47","MONTREAL/PIERRE ELLIOTT TRUDEAU INTL","702S006","2013-04-30 12:00","2013","04","30","12:00","18.7","","10.0","","57","","","","13","","4","","","","101.96","","","","","","NA"
"-73.74","45.47","MONTREAL/PIERRE ELLIOTT TRUDEAU INTL","702S006","2013-04-30 13:00","2013","04","30","13:00","20.2","","8.6","","47","","","","16","","7","","","","101.93","","","","","","NA"
"-73.74","45.47","MONTREAL/PIERRE ELLIOTT TRUDEAU INTL","702S006","2013-04-30 14:00","2013","04","30","14:00","21.3","","9.0","","45","","","","15","","6","","","","101.90","","","","","","NA"
"-73.74","45.47","MONTREAL/PIERRE ELLIOTT TRUDEAU INTL","702S006","2013-04-30 15:00","2013","04","30","15:00","21.5","","9.1","","45","","","","15","","4","","","","101.90","","","","","","NA"
"-73.74","45.47","MONTREAL/PIERRE ELLIOTT TRUDEAU INTL","702S006","2013-04-30 16:00","2013","04","30","16:00","21.7","","8.3","","42","","","","12","","6","","","","101.88","","","","","","NA"
"-73.74","45.47","MONTREAL/PIERRE ELLIOTT TRUDEAU INTL","702S006","2013-04-30 17:00","2013","04","30","17:00","21.9","","9.0","","44","","","","11","","6","","","","101.88","","","","","","NA"
"-73.74","45.47","MONTREAL/PIERRE ELLIOTT TRUDEAU INTL","702S006","2013-04-30 18:00","2013","04","30","18:00","21.1","","8.5","","44","","","","12","","15","","","","101.90","","","","","","NA"
"-73.74","45.47","MONTREAL/PIERRE ELLIOTT TRUDEAU INTL","702S006","2013-04-30 19:00","2013","04","30","19:00","20.0","","8.4","","47","","","","14","","15","","","","101.91","","","","","","NA"
"-73.74","45.47","MONTREAL/PIERRE ELLIOTT TRUDEAU INTL","702S006","2013-04-30 20:00","2013","04","30","20:00","18.3","","7.8","","50","","","","14","","7","","","","101.96","","","","","","NA"
"-73.74","45.47","MONTREAL/PIERRE ELLIOTT TRUDEAU INTL","702S006","2013-04-30 21:00","2013","04","30","21:00","16.2","","8.1","","59","","","","13","","11","","","","101.96","","","","","","NA"
"-73.74","45.47","MONTREAL/PIERRE ELLIOTT TRUDEAU INTL","702S006","2013-04-30 22:00","2013","04","30","22:00","15.5","","7.9","","61","","","","14","","9","","","","101.97","","","","","","NA"
"-73.74","45.47","MONTREAL/PIERRE ELLIOTT TRUDEAU INTL","702S006","2013-04-30 23:00","2013","04","30","23:00","15.1","","7.9","","62","","","","14","","7","","","","102.02","","","","","","NA"
